{"type":"FeatureCollection","features":[{"type":"Feature","properties":{"shapeName":"Fukuoka","shapeISO":"","shapeID":"22064153B5531323380958","shapeGroup":"JPN","shapeType":"ADM2"},"geometry":{"type":"MultiPolygon","coordinates":[[[[130.310947,33.625993],[130.309051,33.627804],[130.30745,33.630573],[130.30793,33.634862],[130.303997,33.637962],[130.300332,33.637635],[130.298218,33.635198],[130.298103,33.630405],[130.299592,33.626196],[130.297935,33.620588],[130.295246,33.617935],[130.29487,33.612976],[130.296059,33.612294],[130.297857,33.60868],[130.299157,33.607295],[130.302418,33.60686],[130.30452959999997,33.60833490000001],[130.308392,33.608853],[130.30884460000001,33.611594100000026],[130.311372,33.613224],[130.313416,33.617043],[130.313591,33.622992],[130.310947,33.625993]]],[[[130.42606,33.669716],[130.4249272,33.67196939999996],[130.42092919999996,33.675397399999966],[130.41597810000002,33.67523469999997],[130.4017559,33.6673639],[130.3948793,33.66452739999997],[130.3940381,33.662559299999984],[130.39675059999996,33.65798380000002],[130.399436,33.6591284],[130.4016397,33.656327],[130.41408860000004,33.66143030000001],[130.41643320000003,33.660192400000014],[130.4175346,33.65831009999999],[130.42630649999998,33.661912700000016],[130.428216,33.664965],[130.42606,33.669716]]],[[[130.229146,33.694717],[130.226517,33.694177],[130.224517,33.691967],[130.225156,33.689683],[130.227443,33.686618],[130.22872,33.686418],[130.2312392,33.6831184],[130.23468930000004,33.6826436],[130.23717639999998,33.68339549999999],[130.23793840000002,33.68633589999999],[130.237361,33.690853],[130.234271,33.693439],[130.229146,33.694717]]],[[[130.44241140000003,33.606678],[130.44475339999994,33.608884],[130.44108640000002,33.612691],[130.44671039999997,33.616047],[130.45036540000007,33.618674],[130.4516184,33.618877],[130.4540974,33.624927],[130.45713840000002,33.624505],[130.45845940000007,33.627379],[130.4612254,33.630058],[130.46644530000006,33.630807],[130.4697163,33.635584],[130.4721623,33.637199],[130.47384730000002,33.636246],[130.47516529999996,33.634186],[130.47755030000002,33.63287],[130.47849530000005,33.633556],[130.48071830000006,33.630777],[130.48239230000007,33.630316],[130.48216430000002,33.627998],[130.4857983,33.626791],[130.4879623,33.628581],[130.49145930000003,33.630371],[130.4936253,33.630614],[130.4944943,33.63189],[130.49425029999998,33.634694],[130.49281430000002,33.636514],[130.49375830000002,33.640503],[130.49217630000004,33.641823],[130.49453530000002,33.646347],[130.4916023,33.647987],[130.49044930000008,33.649385],[130.4872693,33.647234],[130.48489630000003,33.649572],[130.48318330000004,33.649647],[130.48055430000002,33.648518],[130.47905730000002,33.648739],[130.47878329999998,33.651169],[130.47959629999997,33.653775],[130.47753930000002,33.656765],[130.47468329999995,33.659581],[130.4744503,33.66084],[130.46896840000005,33.667131],[130.4707264,33.668635],[130.47057339999998,33.66995],[130.46717040000001,33.673503],[130.46704040000006,33.676198],[130.4687714,33.679537],[130.46697540000002,33.680267],[130.4660664,33.682294],[130.46405640000003,33.682846],[130.46078040000003,33.681383],[130.46027740000005,33.680483],[130.45516139999998,33.679529],[130.45451339999997,33.682077],[130.45013940000004,33.690307],[130.44832440000002,33.692126],[130.44784440000004,33.697819],[130.4438864,33.700037],[130.44123240000005,33.698869],[130.43906640000003,33.700913],[130.43883540000002,33.702216],[130.4364624,33.702445],[130.43242540000003,33.706169],[130.43003540000004,33.706964],[130.4305704,33.708244],[130.42314340000001,33.709117],[130.42436539999997,33.710724],[130.41803199393473,33.71254405458735],[130.417038,33.708783],[130.415623,33.705956],[130.416782,33.704292],[130.415967,33.702275],[130.410615,33.696999],[130.399596,33.687413],[130.388077,33.679483],[130.3799,33.674805],[130.371417,33.670709],[130.361776,33.667353],[130.357714,33.666265],[130.353006,33.665624],[130.346718,33.661993],[130.337518,33.660478],[130.330777,33.659948],[130.324022,33.660101],[130.31896,33.660942],[130.316623,33.662029],[130.31523330000005,33.66384639999997],[130.31362890000003,33.66866149999998],[130.313793,33.670611],[130.312164,33.673032],[130.3106347,33.6776593],[130.308632,33.679302],[130.307054,33.681905],[130.306217,33.684944],[130.30431,33.687169],[130.298919,33.689144],[130.296772,33.689163],[130.295369,33.687702],[130.290252,33.687399],[130.290227,33.684762],[130.28581,33.679626],[130.288932,33.677825],[130.288748,33.674442],[130.289756,33.671222],[130.29185719999998,33.66900069999998],[130.29222120000003,33.666898],[130.2938182,33.6667865],[130.294546,33.663777],[130.297491,33.662691],[130.298687,33.660256],[130.30242,33.6596],[130.308085,33.659453],[130.31198550000002,33.6607648],[130.3122216,33.6623505],[130.31603690000003,33.661655700000026],[130.319208,33.660438],[130.325449,33.659347],[130.327493,33.657799],[130.333837,33.649307],[130.337686,33.651741],[130.339173,33.652029],[130.343119,33.650765],[130.346435,33.648857],[130.350042,33.648403],[130.354608,33.644094],[130.356875,33.643354],[130.360021,33.643785],[130.36058,33.645833],[130.35903730000004,33.6485528],[130.3591808,33.65174320000001],[130.360192,33.6577634],[130.36106469999993,33.6592623],[130.363627,33.659792],[130.36683709999997,33.6639947],[130.36999169999996,33.6658254],[130.38190910000003,33.6681588],[130.390568,33.669204],[130.398141,33.671114],[130.402205,33.673532],[130.405259,33.674778],[130.402657,33.678959],[130.403627,33.681236],[130.407819,33.683327],[130.415335,33.684212],[130.418152,33.68632],[130.422592,33.687012],[130.42742,33.686534],[130.430056,33.687115],[130.432064,33.684726],[130.432817,33.679186],[130.428728,33.676441],[130.42641,33.676435],[130.425419,33.675083],[130.427333,33.67311],[130.430028,33.668562],[130.4341134,33.66497109999999],[130.434537,33.66227849999998],[130.432808,33.658942599999975],[130.42551,33.660638],[130.4049961,33.6522029],[130.40637410000005,33.64989469999997],[130.413228,33.648031],[130.415416,33.648983],[130.417827,33.649023],[130.4220583,33.64726670000002],[130.42158320000001,33.6429769],[130.420906,33.641098],[130.41133039999997,33.643769200000015],[130.4104216,33.6416018],[130.407344,33.642457099999966],[130.404088,33.63443320000001],[130.4095893,33.63285760000003],[130.40820170000003,33.6294872],[130.40543609999997,33.6289051],[130.4032221,33.62337379999999],[130.40361180000002,33.6229379],[130.412449,33.62046589999997],[130.41496160000003,33.62081389999998],[130.4141708,33.6169461],[130.4045425,33.6193793],[130.40134179999998,33.618474700000014],[130.39992259999997,33.61516169999998],[130.40562980000004,33.610940900000024],[130.4081036,33.6108548],[130.4055859,33.6083117],[130.3987171,33.612970899999986],[130.39595440000002,33.610206499999975],[130.4000503,33.60734430000004],[130.40205040000004,33.60501919999999],[130.3964388,33.605215],[130.3994607,33.60062649999997],[130.39495020000004,33.598741299999965],[130.3939272,33.6004033],[130.39456369999996,33.60235019999998],[130.3899995,33.60977570000002],[130.3847417,33.60749929999998],[130.38827110000005,33.601687199999965],[130.38464970000004,33.60011830000001],[130.3879714,33.5986887],[130.39145990000003,33.60018310000001],[130.39321840000002,33.597319400000025],[130.38568180000001,33.5941591],[130.38101079999998,33.5938437],[130.38006,33.595750299999956],[130.3830593,33.5968529],[130.3812833,33.602716899999976],[130.37731739999998,33.60315450000002],[130.3775512,33.604646799999976],[130.37361589999998,33.60510169999998],[130.37314919999997,33.6023796],[130.37177479999997,33.600761499999976],[130.3693884,33.60154119999998],[130.36433969999996,33.60053279999999],[130.36504659999994,33.5993679],[130.3634525,33.597411600000015],[130.36101160000007,33.598333899999965],[130.359317,33.596775699999974],[130.35742819999996,33.5966438],[130.3528695,33.59515290000003],[130.34837639999998,33.5946416],[130.340691,33.5954541],[130.334957,33.597447],[130.332007,33.59760470000002],[130.32978739999996,33.598633699999986],[130.3275311,33.5982935],[130.32812779999998,33.59627049999996],[130.327322,33.59366010000002],[130.32369880000002,33.59369469999998],[130.323352,33.5985408],[130.313469,33.59805],[130.310436,33.595671],[130.3137613,33.5930322],[130.31240769999997,33.592505500000016],[130.3114137,33.590389299999984],[130.311826,33.588168099999976],[130.305563,33.584274],[130.298477,33.581346],[130.292927,33.580116],[130.290049,33.581998],[130.2871,33.583129],[130.28544,33.581336],[130.283715,33.580805],[130.2766794,33.58152550000002],[130.27129,33.583591],[130.267108,33.586622],[130.2649678,33.5898449],[130.26568260000002,33.59262249999996],[130.265006,33.593984],[130.26048569999998,33.59369580000001],[130.2603279,33.59099680000003],[130.25178290000002,33.59668019999999],[130.24644210000002,33.59511579999999],[130.2452045,33.59548979999999],[130.24847889999998,33.5993334],[130.262803,33.60261609999997],[130.2640733,33.601330200000035],[130.2644424,33.5986646],[130.266062,33.597323],[130.270697,33.596269],[130.273707,33.60320980000002],[130.27519219999996,33.60408429999996],[130.27398929999998,33.60695029999998],[130.274977,33.609982],[130.27344,33.611563],[130.269608,33.612634],[130.265762,33.612528],[130.262213,33.610772],[130.253735,33.610825],[130.247682,33.611375],[130.240145,33.6131],[130.234066,33.615163],[130.231443,33.617482],[130.232182,33.6194],[130.230866,33.620025],[130.229314,33.623853],[130.2301241,33.62641650000002],[130.227527,33.628539],[130.225302,33.631656],[130.224133,33.634202],[130.225996,33.637476],[130.229198,33.638123],[130.228474,33.639858],[130.22884,33.641912],[130.232678,33.643836],[130.23455,33.643664],[130.236607,33.64611],[130.237102,33.64873],[130.235656,33.650064],[130.232493,33.651185],[130.231012,33.655591],[130.228638,33.657064],[130.226059,33.65731],[130.224686,33.65846],[130.221795,33.659157],[130.217257,33.662915],[130.21517,33.66323],[130.210433,33.66733],[130.207708,33.666903],[130.206417,33.663798],[130.207449,33.656032],[130.209054,33.654569],[130.208996,33.652051],[130.207719,33.648299],[130.20639,33.646486],[130.203667,33.645438],[130.200673,33.645614],[130.201337,33.643558],[130.200656,33.641735],[130.19779491564407,33.63979697098867],[130.20183139999997,33.637964],[130.20398239999994,33.635245],[130.2039044,33.631724],[130.20673740000004,33.628541],[130.20544740000008,33.625995],[130.2049694,33.62271],[130.20593940000003,33.619921],[130.2059264,33.615218],[130.20491339999998,33.614432],[130.20736940000003,33.612595],[130.2059574,33.609543],[130.21011939999997,33.606053],[130.2104134,33.601751],[130.2073984,33.597809],[130.2097234,33.596547],[130.2100154,33.593334],[130.2117324,33.591478],[130.21178739999996,33.588985],[130.2141214,33.58642],[130.21597640000002,33.585267],[130.2163344,33.583564],[130.21918739999995,33.580556],[130.22262940000002,33.579436],[130.2232894,33.580299],[130.22670040000003,33.581393],[130.22925539999994,33.581344],[130.22990839999997,33.580283],[130.23452439999997,33.581532],[130.23771139999997,33.580441],[130.2410674,33.573077],[130.2411034,33.571051],[130.23921940000002,33.570464],[130.23933340000002,33.567444],[130.23665639999996,33.566425],[130.23894840000003,33.561813],[130.23938439999998,33.558904],[130.23592040000005,33.557766],[130.23626639999998,33.555364],[130.23873940000001,33.552464],[130.24043140000003,33.551727],[130.2429094,33.553532],[130.2427234,33.556514],[130.24522240000005,33.557704],[130.24870739999997,33.557554],[130.2497394,33.55604],[130.2545174,33.557806],[130.25750739999998,33.555228],[130.2620864,33.556841],[130.26558339999997,33.556565],[130.26704439999997,33.552536],[130.2664404,33.550007],[130.2697414,33.547227],[130.27758140000003,33.544027],[130.2838094,33.539527],[130.28864840000003,33.538642],[130.2881254,33.536612],[130.2892334,33.53456],[130.2892484,33.531319],[130.28731439999999,33.526252],[130.2870114,33.522479],[130.2882074,33.522619],[130.29018040000003,33.520191],[130.2922114,33.519071],[130.29133640000006,33.515524],[130.29181540000002,33.513057],[130.28816339999997,33.510119],[130.28432840000005,33.512031],[130.28560740000003,33.507068],[130.27950739999997,33.506656],[130.27788839999997,33.50161],[130.2748844,33.499182],[130.27487539999993,33.497474],[130.27259339999995,33.49556],[130.27253140000002,33.493806],[130.2744354,33.492689],[130.27601640000003,33.489482],[130.2726904,33.488182],[130.27352939999994,33.483744],[130.27211440000002,33.479351],[130.27448909999995,33.479712],[130.27670740000002,33.478881],[130.27844440000004,33.476284],[130.2820514,33.474505],[130.2837794,33.472697],[130.2862044,33.47155],[130.28824640000008,33.469614],[130.2911861,33.469424],[130.29268209999998,33.466689],[130.2951714,33.465346],[130.2958824,33.463552],[130.2983814,33.462388],[130.30145510000003,33.462169],[130.30325709999997,33.461303],[130.30567440000002,33.463143],[130.31112140000002,33.461976],[130.3127644,33.461187],[130.31378439999997,33.458097],[130.31965709999997,33.458732],[130.32154110000005,33.458007],[130.32312210000003,33.455961],[130.3260641,33.455089],[130.33197239999998,33.451271],[130.33499940000002,33.450372],[130.33617640000003,33.447797],[130.3363734,33.445229],[130.3397501,33.444613],[130.34088739999996,33.445308],[130.3431594,33.444504],[130.34542820000004,33.44502089999997],[130.34994740000005,33.439286],[130.35147840000005,33.438833],[130.3521224,33.436794],[130.35578740000003,33.43324],[130.36349310000003,33.434895],[130.3652711,33.43397209999998],[130.36737640000004,33.434105],[130.36881110000002,33.436281],[130.3705791,33.433205],[130.37267710000003,33.431442],[130.37529809999998,33.430202],[130.3778431,33.427141],[130.3782191,33.424959],[130.38273210000003,33.4265489],[130.38408140000004,33.42776209999998],[130.38739340000004,33.428116],[130.38873840000008,33.42633],[130.3911934,33.426077099999986],[130.39616409999996,33.427406],[130.3975144,33.430052],[130.39599439999998,33.432056],[130.39777640000005,33.432802],[130.39622740000001,33.434624],[130.39598640000003,33.440255],[130.39859740000006,33.438871],[130.40311839999998,33.438082],[130.4043814,33.440604],[130.4023654,33.443165],[130.40001840000002,33.44296],[130.39887040000002,33.44528],[130.39935539999996,33.448791],[130.39652040000004,33.450521],[130.3934064,33.45131],[130.38796440000002,33.454797],[130.3871744,33.457639],[130.38606839999997,33.458657],[130.38688440000004,33.460814],[130.38581240000005,33.462101],[130.38801840000008,33.466462],[130.3859534,33.468837],[130.3859934,33.470031],[130.38303539999998,33.475239],[130.3829004,33.477859],[130.38126840000004,33.480381],[130.3818544,33.484011],[130.38141840000006,33.48712],[130.37975239999994,33.491876],[130.37872339999998,33.493007],[130.37937340000005,33.494976],[130.37837940000003,33.497493],[130.37587440000001,33.500429],[130.37347939999998,33.501964],[130.37123340000002,33.504775],[130.37533840000003,33.506611],[130.37720240000004,33.508203],[130.38087640000006,33.507139],[130.38198340000005,33.505552],[130.38589940000003,33.507098],[130.38928439999998,33.507092],[130.3910734,33.508631],[130.3936214,33.506324],[130.3961594,33.507101],[130.39745240000005,33.510078],[130.39716440000004,33.511741],[130.3984364000001,33.51307],[130.40016939999998,33.512038],[130.4015154,33.513535],[130.40394439999997,33.513569],[130.40392539999996,33.518501],[130.4056544,33.519166],[130.40636139999998,33.520936],[130.4107564,33.522262],[130.41251940000004,33.52455],[130.41467739999996,33.52474],[130.41657740000002,33.523487],[130.4194294,33.525582],[130.42072840000003,33.527791],[130.42423940000006,33.528474],[130.42493840000003,33.529933],[130.42680439999998,33.53039],[130.42800640000004,33.526038],[130.42712640000002,33.524332],[130.42835640000004,33.522675],[130.4325514,33.524249],[130.43404640000003,33.522906],[130.43740540000002,33.525216],[130.4354894,33.527555],[130.43581239999997,33.52892],[130.43870440000003,33.530642],[130.4401174,33.530192],[130.44301839999997,33.533228],[130.44031840000002,33.537653],[130.4404144,33.540523],[130.43964540000002,33.542907],[130.44229140000002,33.544269],[130.44216439999997,33.5466],[130.44399439999995,33.546471],[130.44607840000006,33.54767],[130.44886639999999,33.547233],[130.44976139999997,33.549122],[130.45216840000006,33.548816],[130.45438640000003,33.546772],[130.45508340000003,33.544754],[130.45683440000002,33.543647],[130.45963930000002,33.539348],[130.4633953,33.535841],[130.4659493,33.537682],[130.46893130000004,33.537894],[130.46870030000005,33.542064],[130.4711083,33.544097],[130.46842130000005,33.547804],[130.4709563,33.549483],[130.46931130000002,33.553025],[130.46217230000005,33.560697],[130.46151329999998,33.561896],[130.46671430000004,33.562786],[130.4692783,33.558803],[130.47079230000003,33.558214],[130.47094730000003,33.556466],[130.47370129999996,33.553172],[130.47783830000003,33.552525],[130.47959129999998,33.55381],[130.48177730000003,33.556906],[130.48470730000003,33.557912],[130.4856693,33.560186],[130.48564130000003,33.560283],[130.48279330000005,33.562926],[130.48164730000008,33.564881],[130.4814393000001,33.567769],[130.47727930000005,33.567211],[130.47761830000002,33.570265],[130.4793833,33.57259],[130.47897830000002,33.57526],[130.4775263,33.577723],[130.4757933,33.578431],[130.47309829999998,33.583542],[130.46927630000002,33.587125],[130.46738430000002,33.586953],[130.4664023,33.588985],[130.4634473,33.591284],[130.45924240000002,33.59688],[130.4555074,33.596154],[130.45277740000003,33.600131],[130.45064040000005,33.602394],[130.4465184,33.604897],[130.44338339999996,33.605301],[130.44241140000003,33.606678]]]]}}]}