{"type":"FeatureCollection","features":[{"type":"Feature","properties":{"shapeName":"Nagoya","shapeISO":"","shapeID":"22064153B81121179767320","shapeGroup":"JPN","shapeType":"ADM2"},"geometry":{"type":"MultiPolygon","coordinates":[[[[136.848719,35.053951],[136.848674,35.055982],[136.840593,35.055964],[136.838028,35.051751],[136.845499,35.033942],[136.848164,35.036691],[136.84406,35.041586],[136.845615,35.04283],[136.848878,35.039826],[136.850258,35.040557],[136.846186,35.045503],[136.847729,35.046783],[136.850988,35.043716],[136.852059,35.043835],[136.85496,35.055256],[136.852448,35.055279],[136.852075,35.053943],[136.848719,35.053951]]],[[[136.878276,35.071985],[136.87368329999998,35.071840099999974],[136.869442,35.068094],[136.86756279999997,35.06330239999998],[136.87029180000002,35.06301529999999],[136.865275,35.050029],[136.872426,35.049739],[136.876071,35.053183],[136.876671,35.055583],[136.882309,35.070535],[136.881307,35.071584],[136.878276,35.071985]]],[[[136.841122,35.174055],[136.835521,35.16943],[136.833989,35.167421],[136.833308,35.164884],[136.831028,35.16471],[136.832384,35.157927],[136.829469,35.15707],[136.8274,35.158066],[136.824633,35.157941],[136.818071,35.158773],[136.818364,35.164641],[136.814258,35.165669],[136.813813,35.167462],[136.81094,35.167942],[136.807577,35.167714],[136.805715,35.165032],[136.804153,35.165111],[136.801764,35.161302],[136.80178,35.158021],[136.802625,35.15418],[136.809413,35.153571],[136.80896,35.147605],[136.80091,35.14804],[136.801344,35.145835],[136.800066,35.138857],[136.80013,35.132476],[136.801384,35.132367],[136.802824,35.12926],[136.801704,35.127865],[136.797416,35.128165],[136.797967,35.123638],[136.797573,35.121917],[136.794197,35.121983],[136.792263,35.114688],[136.791969,35.11226],[136.793251,35.109615],[136.795012,35.108374],[136.797452,35.104072],[136.798088,35.101853],[136.797944,35.096936],[136.800099,35.096107],[136.806948,35.094865],[136.810059,35.093379],[136.816473,35.08696],[136.826382,35.078867],[136.84046106320008,35.064064229907004],[136.845698,35.064162],[136.842644,35.059358],[136.847347,35.05946],[136.847379,35.056648],[136.855505,35.056527],[136.855738,35.059302],[136.858015,35.058657],[136.859926,35.065465],[136.859913,35.068322],[136.858335,35.069981],[136.855074,35.069243],[136.855145,35.077588],[136.8563812,35.078190099999986],[136.85638029999998,35.073345299999986],[136.85688669999996,35.0724018],[136.8600893,35.072554],[136.86247619999997,35.0697882],[136.8637054,35.07173659999999],[136.861022,35.074853199999964],[136.8635382,35.07933430000003],[136.86474649999997,35.0781445],[136.8631493,35.075565699999984],[136.8646976,35.07396470000002],[136.8692773,35.082098299999984],[136.86671570000001,35.0849098],[136.868878,35.089499],[136.867436,35.092934],[136.868654,35.093395],[136.87158,35.088961],[136.874027,35.088238],[136.874701,35.089954],[136.8788359,35.0894585],[136.87924709999996,35.09175119999998],[136.8808905,35.09155069999997],[136.88049420000002,35.08926789999997],[136.890242,35.087967],[136.8905289,35.08615369999996],[136.89003870000002,35.07794979999998],[136.89616230000001,35.07737539999997],[136.89605850000004,35.07648589999998],[136.890549,35.076821],[136.889824,35.076256],[136.889579,35.070359],[136.886796,35.070437],[136.886988,35.074492],[136.885192,35.074471],[136.88499520000002,35.07052069999998],[136.88332,35.069048],[136.8850019103416,35.06725659623336],[136.890269,35.067135],[136.891666,35.068011],[136.897444,35.068046],[136.900954,35.068926],[136.910436,35.068027],[136.913047,35.068477],[136.916256,35.061197],[136.917759,35.062884],[136.92175,35.064409],[136.924424,35.064417],[136.925101,35.061946],[136.922652,35.060132],[136.925757,35.058604],[136.929534,35.053531],[136.928736,35.051894],[136.931274,35.050743],[136.934103,35.049705],[136.936624,35.053198],[136.939348,35.053293],[136.941118,35.052156],[136.94194,35.048986],[136.943618,35.046253],[136.946335,35.044193],[136.953203,35.044773],[136.955772,35.047879],[136.958914,35.046266],[136.958789,35.044888],[136.961893,35.039563],[136.964854,35.042931],[136.972253,35.043064],[136.97257,35.044884],[136.974352,35.047383],[136.973877,35.049006],[136.975284,35.050431],[136.974832,35.051917],[136.972503,35.053388],[136.972403,35.056433],[136.976039,35.062338],[136.978487,35.061446],[136.984265,35.061276],[136.985166,35.061984],[136.985731,35.065862],[136.987428,35.067619],[136.98766,35.072555],[136.99149,35.072916],[136.994716,35.071822],[136.996184,35.072113],[136.998713,35.07431],[136.999913,35.07311],[137.004739,35.072008],[137.009558,35.075316],[137.011184,35.079733],[137.009746,35.080646],[137.013369,35.08356],[137.012145,35.084483],[137.014662,35.086576],[137.016834,35.09024],[137.018065,35.094286],[137.020034,35.095001],[137.021481,35.091224],[137.021516,35.093141],[137.02001,35.096101],[137.022648,35.098866],[137.022511,35.100988],[137.023444,35.102733],[137.021113,35.109801],[137.01997,35.109571],[137.018818,35.112156],[137.016981,35.112683],[137.014504,35.116995],[137.011553,35.119493],[137.008254,35.123823],[137.003296,35.128401],[137.000677,35.129506],[137.004629,35.131175],[137.008159,35.131206],[137.007942,35.134542],[137.007008,35.135843],[137.012689,35.138119],[137.016135,35.137385],[137.016961,35.136429],[137.019603,35.138448],[137.023284,35.139816],[137.022244,35.142892],[137.020436,35.143562],[137.021441,35.145242],[137.018425,35.147047],[137.020402,35.148396],[137.02216,35.151083],[137.022078,35.153439],[137.025449,35.154681],[137.02702,35.156174],[137.025099,35.158076],[137.023983,35.162096],[137.022883,35.163197],[137.026423,35.166891],[137.027465,35.16873],[137.025521,35.170303],[137.02402,35.173816],[137.026044,35.175308],[137.026844,35.179402],[137.025614,35.181636],[137.025804,35.18512],[137.022886,35.186842],[137.01792,35.188306],[137.020008,35.190708],[137.023159,35.191206],[137.026738,35.191018],[137.028358,35.19014],[137.032258,35.191812],[137.026853,35.192633],[137.02944,35.194622],[137.030061,35.197236],[137.026066,35.196076],[137.024442,35.19507],[137.022997,35.197349],[137.026191,35.198588],[137.025868,35.201271],[137.023032,35.201318],[137.019802,35.198478],[137.020892,35.197048],[137.023398,35.195739],[137.019034,35.193681],[137.016844,35.194595],[137.01191,35.194986],[137.012274,35.199322],[137.013283,35.201041],[137.009723,35.203835],[137.009656,35.206083],[137.008007,35.206492],[137.008523,35.210124],[137.004172,35.209299],[137.001544,35.209299],[137.004764,35.213877],[137.005106,35.217532],[137.00674,35.219237],[137.010853,35.22118],[137.015952,35.227852],[137.019453,35.23127],[137.022223,35.231179],[137.025731,35.234218],[137.030752,35.234614],[137.034535,35.237987],[137.037237,35.237441],[137.039132,35.238115],[137.040348,35.24029],[137.043779,35.241508],[137.046182,35.238425],[137.049341,35.237833],[137.052103,35.239028],[137.051015,35.240545],[137.0520470000001,35.243106],[137.054567,35.243654],[137.056666,35.245999],[137.059877,35.246281],[137.06087,35.248169],[137.059379,35.251198],[137.056981,35.250139],[137.054965,35.25042],[137.053338,35.253379],[137.053476,35.257826],[137.050341,35.260229],[137.047716,35.259508],[137.036966,35.258405],[137.031351,35.259276],[137.029152,35.259003],[137.025439,35.255602],[137.020141,35.252367],[137.013644,35.251621],[137.011413,35.248992],[137.010772,35.244727],[137.007423,35.241119],[137.005322,35.240411],[136.993168,35.240859],[136.991635,35.240176],[136.989743,35.237905],[136.989567,35.234929],[136.990394,35.229856],[136.989018,35.226717],[136.982967,35.22595],[136.981446,35.225231],[136.97364,35.218431],[136.971942,35.217641],[136.964126,35.216792],[136.956227,35.21744],[136.946667,35.216097],[136.938656,35.216512],[136.936321,35.217019],[136.939375,35.220223],[136.939833,35.224249],[136.931686,35.22301],[136.928655,35.226956],[136.927836,35.229122],[136.925134,35.229331],[136.92552,35.231084],[136.927421,35.232922],[136.929079,35.233084],[136.930001,35.242008],[136.929932,35.243668],[136.926801,35.242569],[136.924894,35.241257],[136.92239,35.240987],[136.920407,35.238326],[136.917374,35.237319],[136.914262,35.237262],[136.910817,35.236429],[136.91059,35.239155],[136.908727,35.240372],[136.904529,35.239621],[136.903044,35.240398],[136.901439,35.239747],[136.900986,35.2356],[136.886273,35.229108],[136.874793,35.225065],[136.874723,35.226443],[136.872047,35.231358],[136.870966,35.230954],[136.857867,35.230561],[136.855719,35.230582],[136.856365,35.221096],[136.857572,35.218777],[136.860357,35.215227],[136.864016,35.215268],[136.864642,35.213329],[136.86019,35.207972],[136.865686,35.206894],[136.868373,35.211912],[136.871628,35.211171],[136.872518,35.210024],[136.878542,35.209336],[136.878971,35.207213],[136.876043,35.203656],[136.875383,35.201846],[136.871701,35.19751],[136.869841,35.194002],[136.868055,35.192493],[136.85888,35.189541],[136.856301,35.188172],[136.847981,35.180558],[136.841122,35.174055]]]]}}]}