{"type":"FeatureCollection","features":[{"type":"Feature","properties":{"shapeName":"Sapporo","shapeISO":"","shapeID":"22064153B20160481648260","shapeGroup":"JPN","shapeType":"ADM2"},"geometry":{"type":"Polygon","coordinates":[[[141.24743409999996,43.15903319999998],[141.2379082,43.1518948],[141.229873,43.157258],[141.226649,43.157304],[141.226321,43.159185],[141.224738,43.160325],[141.221217,43.15806],[141.208057,43.151972],[141.204869,43.149488],[141.200677,43.146972],[141.187613,43.140263],[141.187137,43.138144],[141.189721,43.133192],[141.193257,43.132198],[141.19832,43.127807],[141.200424,43.124943],[141.200471,43.123204],[141.195252,43.122839],[141.190492,43.120672],[141.186717,43.119678],[141.183389,43.116235],[141.183827,43.114991],[141.181249,43.109814],[141.17763,43.106674],[141.173563,43.104508],[141.174271,43.102576],[141.172199,43.098961],[141.170343,43.098378],[141.166657,43.095403],[141.166283,43.09355],[141.161463,43.092022],[141.160507,43.090452],[141.157768,43.088707],[141.152279,43.089477],[141.152067,43.092497],[141.145766,43.093439],[141.142735,43.094772],[141.137624,43.093508],[141.134918,43.09383],[141.133351,43.095939],[141.133686,43.098429],[141.132379,43.102569],[141.13403,43.105902],[141.131941,43.106918],[141.125381,43.107677],[141.120008,43.111546],[141.115215,43.113459],[141.111911,43.113937],[141.10969,43.11809],[141.108462,43.119336],[141.1057,43.119037],[141.103769,43.116194],[141.102189,43.115418],[141.096384,43.118712],[141.09109,43.12048],[141.088513,43.118152],[141.085651,43.117637],[141.082167,43.11789],[141.079748,43.117051],[141.076074,43.11826],[141.072743,43.113322],[141.071742,43.108971],[141.06703,43.109368],[141.064195,43.111165],[141.062859,43.109396],[141.062209,43.103339],[141.065076,43.096889],[141.068172,43.095657],[141.069784,43.092119],[141.066579,43.09039],[141.062454,43.089316],[141.059376,43.089334],[141.060324,43.086467],[141.063461,43.085226],[141.065245,43.083558],[141.063117,43.080846],[141.062684,43.077418],[141.061177,43.075933],[141.058452,43.06856],[141.05122,43.067484],[141.04885,43.066563],[141.047133,43.064696],[141.045005,43.06084],[141.044362,43.055817],[141.044895,43.051436],[141.038281,43.046501],[141.037342,43.043768],[141.032978,43.043003],[141.03047,43.04105],[141.025824,43.035932],[141.020493,43.032929],[141.018196,43.032235],[141.013113,43.033822],[141.010971,43.033391],[141.004968,43.029366],[141.002581,43.028543],[140.999078,43.025475],[140.99458,43.025582],[140.991158,43.023566],[140.993303,43.017244],[140.996899,43.016122],[140.999202,43.014605],[140.999999,43.012748],[140.999289,43.007652],[140.999789,43.004176],[140.999139,43.000732],[140.996346,42.999687],[140.994585,42.996261],[140.992869,42.994569],[140.99452,42.991973],[140.997785,42.990455],[140.998174,42.986149],[140.999138,42.984129],[141.001298,42.982511],[141.00007,42.978656],[141.006357,42.97863],[141.008564,42.974071],[141.008063,42.971539],[141.010523,42.970307],[141.011047,42.967603],[141.013611,42.965441],[141.019623,42.965198],[141.022949,42.963497],[141.025531,42.961289],[141.028366,42.961822],[141.032839,42.960126],[141.034198,42.958912],[141.040467,42.958049],[141.044051,42.956145],[141.046908,42.953311],[141.052748,42.952589],[141.051205,42.946085],[141.048533,42.942528],[141.048059,42.940208],[141.042793,42.936412],[141.039589,42.928396],[141.036537,42.924835],[141.03466,42.921355],[141.033587,42.917616],[141.028302,42.914835],[141.026889,42.912704],[141.029223,42.909184],[141.031073,42.908976],[141.033881,42.906322],[141.034906,42.902766],[141.034292,42.901109],[141.034635,42.895865],[141.037044,42.895497],[141.038019,42.893566],[141.037459,42.891503],[141.03951,42.885369],[141.044289,42.884123],[141.047977,42.883663],[141.051321,42.884715],[141.05764,42.884534],[141.062646,42.884891],[141.069872,42.88398],[141.074263,42.885591],[141.079445,42.885312],[141.08241,42.882004],[141.083214,42.880284],[141.086852,42.879228],[141.09364,42.880745],[141.099264,42.883694],[141.102766,42.881765],[141.107117,42.872697],[141.101697,42.869475],[141.100514,42.867435],[141.100279,42.865016],[141.098371,42.863138],[141.098926,42.859045],[141.097513,42.855384],[141.100014,42.852351],[141.100835,42.849594],[141.103647,42.847423],[141.094382,42.842772],[141.095772,42.839236],[141.099858,42.833011],[141.099731,42.830926],[141.100661,42.82792],[141.097655,42.826231],[141.096211,42.824299],[141.093151,42.823044],[141.094821,42.821086],[141.097357,42.820418],[141.104642,42.816392],[141.112217,42.813369],[141.113616,42.811257],[141.118906,42.80965],[141.123125,42.805403],[141.126088,42.804177],[141.129814,42.804351],[141.133074,42.803887],[141.136124,42.798592],[141.135744,42.795814],[141.138322,42.793056],[141.140249,42.789223],[141.144848,42.78734],[141.151436,42.787067],[141.15561,42.785827],[141.157103,42.783765],[141.160655,42.780839],[141.163837,42.78174],[141.166457,42.781099],[141.169547,42.781693],[141.17081,42.783876],[141.173464,42.785204],[141.17882,42.783886],[141.181966,42.78542],[141.186913,42.786277],[141.192413,42.785009],[141.199084,42.78435],[141.202048,42.784163],[141.206003,42.785585],[141.211748,42.787014],[141.213821,42.786889],[141.219482,42.787668],[141.222562,42.787653],[141.231223,42.791642],[141.229468,42.793985],[141.230389,42.797251],[141.22446,42.79955],[141.224285,42.801831],[141.222222,42.804914],[141.220048,42.805318],[141.219139,42.807245],[141.222474,42.811794],[141.226443,42.813216],[141.230599,42.813203],[141.231977,42.814612],[141.232192,42.820791],[141.235606,42.82114],[141.235556,42.827417],[141.239532,42.829225],[141.239157,42.830871],[141.240313,42.832558],[141.241281,42.837617],[141.242916,42.839765],[141.248575,42.840151],[141.248377,42.84088],[141.252317,42.842981],[141.252866,42.844939],[141.256449,42.848299],[141.256696,42.850892],[141.255026,42.858136],[141.256783,42.864411],[141.259981,42.866018],[141.265994,42.86788],[141.268562,42.867984],[141.273868,42.870982],[141.278995,42.872652],[141.280181,42.873892],[141.283229,42.872721],[141.286494,42.873641],[141.289379,42.877869],[141.290243,42.880869],[141.292899,42.883288],[141.298042,42.885541],[141.299773,42.885049],[141.303335,42.886786],[141.305814,42.886101],[141.308931,42.886327],[141.314741,42.882437],[141.315814,42.880333],[141.316632,42.8758],[141.31921,42.874571],[141.320587,42.872636],[141.324385,42.871574],[141.327584,42.87203],[141.334706,42.870218],[141.336852,42.871416],[141.343593,42.872783],[141.346357,42.874611],[141.349983,42.873749],[141.353915,42.875522],[141.357712,42.876343],[141.359209,42.878108],[141.360204,42.881353],[141.364391,42.883238],[141.367958,42.885428],[141.369374,42.887407],[141.370155,42.891325],[141.375196,42.890292],[141.378379,42.891772],[141.388058,42.890192],[141.394091,42.890612],[141.395415,42.888497],[141.398754,42.888704],[141.400933,42.890206],[141.405314,42.888834],[141.407407,42.889404],[141.411145,42.888221],[141.413991,42.88888],[141.416607,42.888395],[141.420272,42.889994],[141.421256,42.891458],[141.417881,42.892201],[141.413556,42.895656],[141.415625,42.902549],[141.415747,42.90531],[141.416742,42.907682],[141.418278,42.908283],[141.41889,42.910348],[141.421275,42.914212],[141.427798,42.916142],[141.430441,42.918374],[141.431434,42.921505],[141.433688,42.923801],[141.435914,42.924592],[141.437543,42.926321],[141.441077,42.92811],[141.446649,42.934229],[141.449162,42.935607],[141.451581,42.9385],[141.454596,42.940875],[141.459746,42.943401],[141.457364,42.94488],[141.458642,42.948197],[141.462319,42.951189],[141.462722,42.953386],[141.461962,42.955813],[141.462136,42.958719],[141.464887,42.964771],[141.465398,42.967432],[141.467043,42.970366],[141.46684,42.973757],[141.470334,42.977566],[141.47677,42.986716],[141.477109,42.988711],[141.4804,42.990247],[141.480739,42.99363],[141.47759,42.998561],[141.480084,43.001389],[141.481157,43.005084],[141.482053,43.005927],[141.482729,43.011422],[141.485714,43.01338],[141.488203,43.013677],[141.488807,43.016937],[141.486895,43.018781],[141.485557,43.021796],[141.487103,43.023317],[141.498568,43.022848],[141.501214,43.021161],[141.505422,43.020859],[141.503515,43.033535],[141.501233,43.051012],[141.497494,43.050012],[141.4974,43.057803],[141.494403,43.057861],[141.490742,43.056954],[141.483466,43.06037],[141.471545,43.069536],[141.473795,43.073733],[141.471826,43.076769],[141.470737,43.081883],[141.472529,43.084831],[141.475631,43.08806],[141.474487,43.090091],[141.475157,43.092742],[141.473896,43.096101],[141.470376,43.096228],[141.468121,43.097035],[141.464996,43.100111],[141.461249,43.1001],[141.459077,43.099399],[141.458478,43.094725],[141.457257,43.093416],[141.444392,43.101046],[141.44737,43.105182],[141.449485,43.109536],[141.453719,43.119957],[141.454682,43.123368],[141.455369,43.12895],[141.455004,43.134731],[141.453128,43.141022],[141.448596,43.153254],[141.44694,43.155868],[141.448476,43.158738],[141.449392,43.162633],[141.449564,43.165971],[141.446205,43.166341],[141.438206,43.161487],[141.434341,43.162929],[141.433799,43.169102],[141.432138,43.170208],[141.428425,43.170125],[141.42542,43.168205],[141.419184,43.17184],[141.414286,43.171449],[141.403852,43.169874],[141.399464,43.171488],[141.39817,43.173472],[141.399313,43.176914],[141.404586,43.182776],[141.408387,43.183947],[141.409376,43.185242],[141.405346,43.189499],[141.402564,43.189418],[141.399815,43.186627],[141.39568,43.183382],[141.393948,43.181414],[141.390944,43.176002],[141.387075,43.172993],[141.379289,43.171586],[141.372532,43.172531],[141.364139,43.176033],[141.358684,43.176022],[141.355218,43.173366],[141.353698,43.169337],[141.350942,43.166998],[141.353375,43.163712],[141.349224,43.161457],[141.348761,43.15952],[141.343412,43.159197],[141.34367,43.157152],[141.335153,43.152276],[141.334629,43.149836],[141.332705,43.148654],[141.328383,43.148901],[141.324782,43.147615],[141.323071,43.148774],[141.317321,43.147365],[141.315371,43.147466],[141.312121,43.146339],[141.309007,43.144354],[141.306736,43.144211],[141.303083,43.141277],[141.298464,43.140568],[141.29138659999995,43.1376138],[141.287965,43.135709],[141.286491,43.135694],[141.28291009999998,43.1337028],[141.24743409999996,43.15903319999998]]]}}]}