{"type": "FeatureCollection", "features": [{"type": "Feature", "properties": {"shapeName": "Berlin", "shapeISO": "", "shapeID": "9070358B20892132820961", "shapeGroup": "DEU", "shapeType": "ADM2"}, "geometry": {"type": "Polygon", "coordinates": [[[13.480055494000055, 52.67464638200005], [13.479368900000054, 52.67537881700008], [13.477077429000076, 52.67391139600005], [13.475393917000076, 52.674917150000056], [13.471767487000022, 52.671929583000065], [13.465965381000046, 52.667148559000054], [13.459511426000063, 52.66893558800007], [13.452433997000071, 52.66386397700006], [13.45084091700005, 52.662722174000066], [13.455108739000025, 52.66145701500005], [13.457945636000034, 52.65988936700006], [13.459999496000023, 52.658754309000074], [13.462333171000068, 52.65746449900007], [13.471103993000042, 52.65681906700007], [13.473894061000067, 52.65661361400004], [13.473872537000034, 52.656290169000044], [13.473957850000033, 52.65579310900006], [13.47408970400005, 52.65510591800006], [13.473869364000052, 52.654463391000036], [13.473545184000045, 52.65403940200008], [13.472745854000038, 52.65359110400004], [13.47114724000005, 52.65269449300007], [13.469996225000045, 52.65207483900008], [13.468315338000025, 52.65172017200007], [13.466304098000023, 52.651292599000044], [13.465137945000038, 52.65088925500004], [13.463721147000058, 52.65027606500007], [13.462662506000072, 52.649708074000046], [13.461816551000027, 52.64899987200005], [13.460859098000071, 52.648618371000055], [13.459848420000071, 52.64810317700005], [13.45651848600005, 52.648398608000036], [13.453964437000025, 52.64862513700007], [13.454546360000052, 52.65004178600003], [13.451979041000072, 52.65007459600008], [13.446828930000038, 52.65014024800007], [13.440932073000056, 52.64912302000005], [13.439898546000052, 52.645332523000036], [13.437503809000077, 52.64491381300007], [13.434104109000032, 52.64428548800004], [13.433439777000046, 52.641601871000034], [13.433661071000074, 52.63911272400003], [13.433778784000026, 52.637975968000035], [13.432682992000025, 52.637507620000065], [13.42911123600004, 52.63763888200003], [13.42835920300007, 52.63766650600007], [13.426706502000059, 52.63682464100003], [13.424365185000056, 52.63563046100006], [13.417116629000077, 52.63970234000004], [13.413616362000027, 52.64251353000003], [13.412828153000078, 52.64358542600007], [13.409554237000066, 52.64283640100007], [13.406997440000055, 52.64242099900008], [13.398539843000037, 52.64819457300007], [13.397128644000077, 52.648336405000066], [13.396712093000076, 52.64830139700007], [13.396334621000051, 52.64818446000004], [13.394727842000066, 52.647134091000055], [13.393539992000058, 52.646154660000036], [13.393048328000077, 52.645644495000056], [13.392609366000045, 52.64503407700005], [13.392430491000027, 52.644327442000076], [13.392258598000069, 52.64372862700003], [13.391647643000056, 52.64320331300007], [13.390885506000075, 52.64262762100003], [13.390327027000069, 52.64222703100006], [13.39002920400003, 52.64173921200006], [13.389871873000061, 52.64136502000008], [13.390038832000073, 52.64051512300006], [13.39007692000007, 52.63973130200003], [13.389848570000026, 52.638944855000034], [13.389389141000038, 52.63824492500004], [13.388682712000048, 52.637613894000026], [13.387299822000045, 52.637044023000044], [13.386123465000026, 52.63669417700004], [13.384989999000027, 52.63655027200008], [13.383818028000064, 52.63649726500006], [13.38309694700007, 52.636325499000066], [13.38198116500007, 52.63576719200006], [13.380878443000029, 52.635181567000075], [13.37979688400003, 52.63469441700005], [13.378003040000067, 52.633711290000065], [13.375289439000028, 52.63199412400007], [13.374375348000058, 52.63152160000004], [13.374360066000065, 52.63128386600005], [13.37445741700003, 52.63097202200004], [13.375904769000044, 52.62974708100006], [13.376008220000074, 52.62953032900003], [13.375992930000052, 52.62929259500004], [13.375063742000066, 52.62883852200008], [13.374450186000047, 52.628424549000044], [13.373648933000027, 52.62813408900007], [13.372733538000034, 52.627893957000026], [13.371700946000033, 52.62765660600007], [13.370204585000067, 52.627201643000035], [13.369092074000037, 52.626688140000056], [13.368726740000056, 52.62652583900007], [13.36833245500003, 52.62637322300003], [13.367727994000063, 52.626171603000046], [13.367109349000032, 52.62597931500005], [13.36647709500005, 52.62580534600005], [13.365859613000055, 52.62563102200005], [13.365003583000032, 52.62542636000006], [13.364342966000038, 52.62527105000004], [13.362813304000042, 52.62493836400006], [13.361935642000049, 52.62475529900007], [13.36157187300006, 52.62457344200004], [13.361200502000031, 52.624272715000075], [13.360519649000025, 52.62402693700005], [13.359927577000065, 52.62394572200003], [13.359409079000045, 52.62379133200005], [13.358725204000052, 52.623497996000026], [13.357925660000035, 52.623231204000035], [13.357296057000042, 52.62317467400004], [13.356558370000073, 52.62326355400006], [13.355939395000064, 52.62337343300004], [13.35540158300006, 52.62352900700006], [13.354588789000047, 52.623667271000045], [13.354080933000034, 52.62367927400004], [13.353409229000022, 52.62357609900005], [13.352361721000022, 52.62336789200003], [13.350892159000068, 52.62467143400005], [13.344613421000076, 52.62476549500008], [13.344187530000056, 52.62341670100005], [13.34211699900004, 52.62341145400006], [13.340588209000032, 52.62332144000004], [13.33944673800005, 52.62327629300006], [13.338564767000037, 52.62312605000005], [13.337501061000069, 52.62290807900007], [13.336480521000055, 52.62267108900005], [13.331755949000069, 52.62441974500007], [13.328862531000027, 52.62543242400005], [13.326639648000025, 52.62584620100006], [13.323498491000066, 52.62643082500006], [13.31312183800003, 52.628382714000054], [13.302422603000025, 52.627560602000074], [13.302364590000025, 52.628758764000054], [13.308309030000032, 52.629691534000074], [13.307476804000032, 52.63268942600007], [13.30489661200005, 52.63446810000005], [13.303111836000028, 52.63666918800004], [13.307860409000057, 52.63762074400006], [13.30697215500004, 52.63972905700007], [13.307576159000064, 52.64027973700007], [13.30883938200003, 52.641431383000054], [13.30925742100004, 52.64314039100003], [13.30912702300003, 52.64389030400008], [13.308244651000052, 52.643973806000076], [13.304499914000075, 52.64865903200007], [13.303137049000043, 52.650249632000055], [13.300377555000068, 52.65346984200005], [13.310033892000035, 52.657376009000075], [13.309358511000028, 52.65793161900007], [13.308764997000026, 52.65837734000007], [13.308140223000066, 52.658796789000064], [13.307565414000067, 52.659305059000076], [13.294594690000054, 52.659191727000064], [13.28938709700003, 52.659689953000054], [13.285838401000035, 52.66021271800008], [13.282884652000064, 52.660784668000076], [13.282218895000028, 52.65698469200004], [13.281888178000031, 52.65508345200004], [13.281481524000071, 52.65274543400005], [13.283443265000074, 52.65264627600004], [13.28244070900007, 52.641295358000036], [13.268357253000033, 52.639846196000065], [13.266686143000072, 52.64009144000005], [13.262156275000052, 52.64075298900008], [13.262563002000036, 52.63919597000006], [13.262744031000068, 52.638534949000075], [13.264251253000054, 52.63683576900007], [13.265225956000052, 52.634419887000035], [13.26498656800004, 52.632519511000055], [13.264615238000033, 52.62956571900003], [13.264274727000043, 52.626927970000054], [13.260417329000063, 52.62768207700003], [13.25733266800006, 52.62777953300008], [13.252340649000075, 52.62764143800007], [13.246493139000052, 52.62729763600004], [13.243570161000036, 52.62810193200005], [13.238330867000059, 52.62778891000005], [13.237130491000073, 52.62772528100004], [13.230364053000073, 52.62736638200005], [13.227634341000055, 52.62770700600004], [13.22068327200003, 52.62817872100004], [13.22059087200006, 52.62714600400005], [13.219671077000044, 52.624422252000045], [13.21698464900004, 52.62011856200007], [13.215116164000051, 52.61953970600007], [13.207400711000048, 52.60980585000004], [13.206838388000051, 52.60906260300004], [13.205964383000037, 52.60854229800003], [13.204950938000025, 52.608160086000055], [13.20370187800006, 52.60779214100006], [13.202689011000075, 52.60741889600007], [13.201957700000037, 52.60705733800006], [13.201606489000028, 52.606381329000044], [13.201654209000026, 52.60557506300006], [13.202083491000053, 52.60449001200004], [13.203323283000032, 52.603238486000066], [13.206849599000066, 52.60020801500008], [13.20871999800005, 52.59863633700007], [13.211035164000066, 52.59709063100007], [13.212537844000053, 52.59628300900005], [13.21613497100003, 52.59443842500008], [13.217819502000054, 52.59322171000008], [13.21863445100007, 52.59204255800006], [13.218897954000056, 52.590785839000034], [13.217336442000033, 52.58745559300007], [13.213948525000035, 52.58779477200005], [13.207365079000056, 52.588453584000035], [13.206626308000068, 52.586742463000064], [13.203312866000033, 52.58765358800008], [13.202155847000029, 52.58806643300005], [13.199826990000076, 52.58889241800006], [13.192164282000022, 52.589963442000055], [13.188009231000024, 52.59163076600004], [13.18392852200003, 52.59355723500005], [13.178774502000067, 52.59464522500008], [13.173824145000026, 52.595329209000056], [13.168785171000025, 52.59705213400008], [13.165917180000065, 52.59803260400008], [13.16426315700005, 52.59890033100004], [13.157099322000022, 52.59760616800003], [13.153887716000042, 52.59577822300008], [13.148901551000051, 52.59142469300008], [13.143990863000056, 52.589743147000036], [13.142441615000052, 52.58932473600004], [13.14113364900004, 52.58902006300008], [13.139425492000044, 52.58855747800004], [13.137874927000041, 52.588115231000074], [13.137075934000052, 52.587823197000034], [13.136232312000061, 52.587436902000036], [13.135044358000073, 52.58717715800003], [13.133509270000047, 52.58699640200007], [13.132099697000058, 52.58695573300008], [13.13077379300006, 52.587008454000056], [13.128987291000044, 52.58744210400005], [13.128096954000057, 52.58309743600006], [13.130432732000031, 52.58312752100005], [13.132092465000028, 52.57969904300006], [13.139766032000068, 52.58057518100003], [13.149603266000042, 52.58331095600005], [13.152971304000062, 52.57832393400008], [13.152953085000036, 52.57278142700005], [13.150120810000033, 52.567597705000026], [13.149282811000035, 52.56666229900003], [13.14789149400002, 52.56510915700005], [13.146722863000036, 52.56207539800005], [13.145955110000045, 52.56007663100007], [13.146317310000029, 52.55870994300005], [13.146847682000043, 52.55669168400004], [13.147145290000026, 52.55473251800004], [13.145664779000072, 52.55291135900006], [13.143843610000033, 52.55206947000005], [13.141461160000063, 52.55247261900007], [13.13629581400005, 52.55274763400007], [13.133532668000043, 52.55370784100006], [13.130617438000058, 52.55635397000003], [13.127770800000064, 52.54985632100005], [13.125112926000043, 52.543795404000036], [13.124052235000022, 52.53904040900005], [13.12352883400007, 52.537676445000045], [13.123190664000049, 52.53679513600008], [13.121558647000029, 52.534259372000065], [13.121184129000028, 52.53319615400005], [13.120193877000077, 52.53172805500003], [13.119733094000026, 52.531044886000075], [13.119159164000052, 52.529050735000055], [13.119002589000047, 52.527128495000056], [13.118830278000075, 52.52493664500008], [13.118463244000054, 52.521578298000065], [13.117392920000043, 52.516995327000075], [13.126851700000032, 52.51756333000003], [13.138163536000036, 52.51903487300007], [13.14164263500004, 52.51949855200007], [13.143010193000066, 52.51967552600007], [13.144533127000045, 52.51898521900006], [13.145380653000075, 52.51759884200004], [13.147453446000043, 52.51722936600004], [13.154395111000042, 52.51463802100005], [13.156559448000053, 52.51382543600005], [13.166457606000051, 52.51012429000008], [13.159998641000072, 52.50591176100005], [13.153695596000034, 52.501821448000044], [13.147938128000021, 52.497961788000055], [13.142081166000025, 52.49338473700004], [13.12977836500005, 52.48374141700003], [13.126368680000041, 52.481067833000054], [13.125284573000044, 52.480217682000045], [13.124064961000045, 52.47977634600005], [13.12093989300007, 52.479371050000054], [13.11779830000006, 52.47896793700005], [13.117609335000054, 52.47724431800003], [13.11753877800004, 52.47477124000005], [13.117524185000036, 52.47401567500003], [13.116916841000034, 52.47244512700007], [13.116389790000028, 52.47174569500004], [13.114874760000077, 52.470527814000036], [13.114342993000037, 52.469999450000046], [13.114115566000066, 52.46938348600003], [13.114040014000068, 52.46884521100003], [13.113760537000076, 52.468347358000074], [13.11319198600006, 52.46794576900004], [13.112343329000055, 52.46754125900003], [13.11163870300004, 52.46707962600004], [13.11112016100003, 52.46652396600007], [13.110798677000048, 52.46606301300005], [13.110726829000043, 52.46558764500003], [13.110743271000047, 52.46511036100003], [13.111291311000059, 52.46364069300006], [13.111357716000043, 52.46300934800007], [13.111001233000025, 52.46194624600008], [13.11076657500007, 52.46120445100007], [13.110872419000032, 52.46049126200006], [13.112580018000074, 52.459203384000034], [13.111902078000071, 52.454133856000055], [13.111519292000025, 52.45337727800006], [13.109223276000023, 52.450619509000035], [13.113649828000064, 52.44706487800005], [13.11531578100005, 52.445726885000056], [13.11900042700006, 52.44400894000006], [13.119054148000032, 52.44290992100008], [13.120260310000049, 52.441371857000036], [13.123176543000056, 52.43936454700008], [13.122741167000072, 52.43871713000004], [13.122228061000044, 52.43825138200003], [13.121672424000053, 52.43781355600004], [13.120869949000053, 52.43743510000007], [13.118889512000067, 52.43680333400005], [13.117744144000028, 52.43635133500004], [13.117029435000063, 52.43596194500003], [13.116535837000072, 52.435576739000055], [13.116243879000024, 52.43536712000008], [13.11581277700003, 52.43504354300006], [13.115549190000024, 52.434815307000065], [13.115285081000025, 52.434578084000066], [13.114925947000074, 52.43422594200007], [13.113971442000036, 52.433256828000026], [13.113597624000022, 52.43290500100005], [13.11199276700006, 52.432321761000026], [13.111945898000045, 52.43159107200006], [13.112575332000063, 52.429880550000064], [13.112537167000028, 52.42922424000005], [13.107904958000063, 52.42672481800008], [13.106860120000022, 52.42563319800007], [13.105529959000023, 52.42526203500006], [13.104618626000047, 52.42405321800004], [13.101854369000023, 52.42474163900005], [13.101079021000032, 52.425072698000065], [13.100724617000026, 52.42525784600008], [13.09959688500004, 52.425304753000034], [13.098738523000065, 52.425009027000044], [13.09824369200004, 52.42453401200004], [13.097974007000062, 52.423911274000034], [13.09741602500003, 52.42315191000006], [13.095999774000063, 52.42209679600006], [13.095514894000075, 52.421792983000046], [13.08833321800006, 52.41961143600008], [13.09011018600006, 52.41366996900007], [13.09012929000005, 52.41272468400007], [13.090183613000022, 52.41239055800003], [13.09034340900007, 52.41209915300004], [13.09063599700005, 52.411813884000026], [13.091112721000059, 52.41165962700006], [13.091679180000028, 52.41153043000003], [13.093125236000049, 52.41083332800008], [13.094277656000031, 52.41040351100003], [13.095459448000042, 52.40997304900003], [13.097294256000055, 52.40938448300005], [13.098515557000042, 52.41040194900006], [13.097626012000035, 52.41105109700004], [13.097221507000029, 52.41245465700007], [13.10082916600004, 52.412493631000075], [13.100835177000022, 52.411071684000035], [13.10322506500006, 52.41022242300005], [13.105670132000057, 52.41143134400005], [13.10586666200004, 52.41257349600005], [13.109692210000048, 52.41296065200004], [13.11157057500003, 52.413136620000046], [13.112596393000047, 52.410019076000026], [13.10793181400004, 52.40947752400007], [13.10967080200004, 52.40858263000007], [13.109100211000055, 52.40796157700004], [13.108457452000039, 52.40726195000008], [13.109901629000035, 52.406285711000066], [13.110605605000046, 52.40573948400004], [13.110912275000032, 52.405192887000055], [13.111276151000027, 52.40461804900008], [13.111635766000063, 52.40422328000005], [13.112292923000041, 52.40388503500003], [13.11571755500006, 52.402559686000075], [13.116732547000026, 52.40230361500005], [13.117500868000036, 52.40210690300006], [13.118154287000038, 52.40170571200008], [13.118664979000073, 52.401127649000045], [13.121068609000076, 52.39920345400003], [13.124875684000074, 52.39687959200006], [13.125906763000046, 52.39665008400004], [13.127108372000066, 52.39656982200006], [13.128036622000025, 52.39684649000003], [13.129930427000033, 52.397533975000044], [13.131227642000056, 52.39808151200003], [13.132028976000072, 52.39845092000007], [13.132793613000047, 52.398947114000066], [13.133396116000029, 52.399437857000066], [13.134742580000022, 52.39862220400005], [13.136390486000039, 52.39818128600007], [13.135013837000031, 52.39716237200008], [13.136356618000036, 52.396736211000075], [13.137961607000022, 52.39626002800003], [13.138116669000055, 52.395392712000046], [13.132411919000049, 52.391423263000036], [13.131076139000072, 52.391470523000066], [13.127464902000042, 52.39159455400005], [13.127094379000027, 52.38928089900003], [13.128135741000051, 52.38872717600003], [13.13098952300004, 52.38722485300008], [13.133589439000048, 52.38691590500008], [13.134159512000053, 52.38861323500004], [13.132249470000033, 52.38940202800006], [13.141596237000044, 52.39602718700007], [13.142612288000066, 52.396544789000075], [13.143496981000055, 52.396579322000036], [13.143636927000045, 52.396207279000066], [13.145944262000057, 52.39541856100004], [13.153146014000072, 52.39480978300003], [13.158888704000049, 52.39390889900005], [13.163271107000071, 52.39413580100006], [13.165897844000028, 52.39427552600006], [13.168892370000037, 52.394910981000066], [13.171521556000073, 52.39583346300003], [13.17135668900005, 52.39776296300005], [13.169008635000068, 52.39736518400008], [13.165947642000049, 52.39710017200008], [13.16306139300002, 52.39680421200006], [13.16026439600006, 52.39652420500005], [13.158608271000048, 52.39638088000004], [13.157827476000023, 52.396362158000045], [13.159450348000064, 52.399673936000056], [13.159345751000046, 52.40287994900007], [13.195566840000026, 52.415094828000065], [13.198480508000046, 52.415578405000076], [13.205149886000072, 52.415860456000075], [13.212241473000063, 52.417527506000056], [13.218126102000042, 52.419185448000064], [13.222287982000068, 52.42035668200003], [13.225344693000068, 52.42013392500007], [13.23869867600007, 52.42062972600007], [13.245797292000077, 52.42080114700008], [13.247368098000038, 52.417179744000066], [13.247926193000069, 52.41547508500008], [13.24826792400006, 52.41427722200007], [13.249082122000061, 52.41142297300007], [13.249265377000029, 52.40932051300007], [13.248975292000068, 52.40817951000008], [13.249844004000067, 52.404964790000065], [13.251551795000069, 52.40556372000003], [13.252325191000068, 52.405834940000034], [13.253196175000028, 52.40612097300004], [13.254165625000041, 52.40633274600003], [13.254849831000058, 52.406452056000035], [13.255678230000058, 52.40652305900005], [13.256563205000077, 52.40655675900007], [13.25784383000007, 52.406563375000076], [13.259105347000059, 52.40649841900006], [13.25974859200005, 52.40642965100005], [13.260359134000055, 52.40630763300004], [13.260981608000066, 52.406140340000036], [13.261761296000032, 52.40589743400005], [13.262900595000076, 52.40552026100005], [13.263996899000063, 52.40516206400008], [13.265185219000045, 52.40486473700008], [13.266188034000038, 52.40466166500005], [13.267417332000036, 52.40455236300005], [13.268872012000031, 52.40451885300007], [13.269961562000049, 52.40452974100003], [13.270862864000037, 52.40458995800003], [13.272210524000059, 52.40472986900005], [13.27301230300003, 52.404846364000036], [13.274457570000038, 52.40513699100006], [13.275714608000044, 52.40547694700007], [13.276706617000059, 52.40581401500003], [13.278115380000031, 52.406465429000036], [13.282022287000075, 52.40872396000003], [13.285294544000067, 52.41070909100006], [13.290902861000063, 52.41380987300005], [13.294171021000068, 52.41547988000008], [13.295675232000065, 52.41623687500004], [13.29613013200003, 52.41645128600004], [13.296782318000055, 52.41581513300008], [13.296925435000048, 52.41480383600003], [13.296871182000075, 52.41393212600008], [13.298548322000045, 52.41203014400003], [13.305868786000076, 52.405289620000076], [13.307197807000023, 52.403925783000034], [13.311926097000025, 52.399185473000045], [13.314126978000047, 52.40076269700006], [13.327320222000026, 52.40547080200008], [13.331015800000046, 52.40690477800007], [13.336446847000047, 52.40901768900005], [13.343248653000046, 52.41161993900005], [13.343172672000037, 52.410258345000045], [13.343028478000065, 52.407674170000064], [13.35259852200005, 52.40194836500007], [13.359201922000068, 52.39842538400006], [13.365949345000047, 52.39602358900004], [13.37213521600006, 52.39382382500003], [13.371609274000036, 52.392146969000066], [13.370454231000053, 52.38846390000003], [13.377369238000028, 52.38825345100008], [13.378798535000044, 52.38829120500003], [13.387216841000054, 52.388584164000065], [13.38799847200005, 52.38220217400004], [13.388520782000057, 52.37796846700007], [13.391497612000023, 52.37783382400005], [13.39438689900004, 52.37771021800006], [13.397770132000062, 52.37745587500007], [13.401235221000036, 52.37717594500003], [13.402086892000057, 52.377133290000074], [13.407829382000045, 52.376845529000036], [13.417902540000057, 52.37634008200007], [13.420984876000034, 52.37624714200007], [13.424484771000039, 52.381445245000066], [13.427431721000062, 52.38581968500006], [13.427585365000027, 52.386823993000064], [13.423810365000065, 52.39505233400007], [13.418433070000049, 52.40718055800005], [13.418772686000068, 52.40991740700008], [13.419935190000047, 52.410141175000035], [13.42130693300004, 52.410413848000076], [13.428176437000047, 52.41193872800005], [13.431780084000025, 52.412579900000026], [13.436018042000057, 52.413691492000055], [13.438863647000062, 52.41444097700003], [13.447176458000058, 52.416631530000075], [13.449784909000073, 52.417374421000034], [13.452966725000067, 52.41828049600008], [13.457602657000052, 52.419606584000064], [13.462321603000078, 52.42062443700007], [13.468337476000045, 52.41943196700004], [13.474151739000035, 52.408748580000065], [13.477557664000074, 52.40306584900003], [13.477990500000033, 52.40204705000008], [13.478503721000038, 52.40090924800006], [13.478753874000063, 52.40002098200006], [13.479195588000039, 52.398470916000065], [13.479884998000045, 52.39599663400003], [13.48325329100004, 52.39686711000007], [13.486660175000054, 52.39743051200003], [13.489692726000044, 52.39789512600004], [13.494137643000045, 52.398576494000054], [13.497461156000043, 52.39898866000004], [13.500666608000074, 52.39939468400007], [13.51204569600003, 52.40100011000004], [13.515165086000025, 52.40143491300006], [13.518388999000024, 52.40145297300006], [13.521480697000072, 52.40147427000005], [13.526652154000033, 52.39896122500005], [13.528263238000022, 52.39839621600004], [13.531102435000037, 52.39860364500004], [13.538379367000061, 52.40067906500008], [13.537509326000077, 52.39890987600006], [13.535779281000032, 52.39529921700006], [13.535083882000038, 52.39349859300006], [13.53479203300003, 52.39135473400006], [13.535224395000057, 52.39019184600005], [13.535663613000054, 52.38901045500006], [13.547177687000044, 52.388685029000044], [13.554590717000053, 52.38847659400005], [13.558857659000068, 52.38848501600006], [13.564905286000055, 52.38828584100003], [13.570759741000074, 52.389351462000036], [13.587519316000055, 52.39238729400006], [13.592762117000063, 52.394169688000034], [13.593051246000073, 52.39366717400003], [13.593602887000031, 52.39313089400008], [13.593942092000077, 52.39250107000004], [13.59400084300006, 52.391644436000036], [13.593917055000077, 52.390854481000076], [13.593962819000069, 52.389809153000044], [13.594735909000065, 52.38757491700005], [13.595228554000073, 52.38682411500008], [13.595815643000037, 52.38637692000003], [13.59657291800005, 52.38605135300003], [13.597458804000041, 52.385884488000045], [13.598695264000071, 52.38568156700006], [13.599481877000073, 52.38535522300003], [13.600842047000071, 52.38460000500004], [13.602066294000053, 52.383794272000046], [13.602762068000061, 52.38321821300008], [13.603238806000036, 52.382665813000074], [13.603659278000066, 52.38215087000003], [13.604621586000064, 52.38138788200007], [13.605570831000023, 52.38043619500007], [13.606295661000047, 52.37964332700005], [13.605632422000042, 52.37770717700005], [13.606249930000047, 52.37654099000008], [13.606063886000072, 52.375650310000026], [13.604438755000047, 52.37420620200004], [13.61123419300003, 52.37636586700006], [13.612462230000062, 52.37676452900007], [13.627949924000063, 52.38179067000004], [13.631747851000057, 52.37802806000008], [13.633391387000074, 52.37628389000008], [13.64170070800003, 52.37720629100005], [13.643364633000033, 52.37739092600003], [13.642229225000051, 52.37478370500003], [13.641696955000043, 52.370953943000075], [13.642775964000066, 52.370610645000056], [13.64359018600004, 52.37050279200008], [13.64680609100003, 52.37016052700005], [13.646723128000076, 52.36941961400004], [13.646951879000028, 52.36872582900003], [13.647136897000053, 52.36777016100007], [13.647105428000032, 52.366875468000046], [13.646833393000065, 52.36610140200003], [13.645933350000064, 52.36524852800005], [13.644394214000044, 52.36460292500004], [13.642507344000023, 52.363716330000045], [13.64201283400007, 52.36348396000005], [13.641005932000041, 52.36288154500005], [13.640173507000043, 52.36210307500005], [13.639234643000066, 52.36113684900005], [13.638637533000065, 52.36016167900004], [13.638373644000069, 52.35950170500007], [13.638520465000056, 52.358536310000034], [13.638485116000027, 52.358435652000026], [13.638287646000038, 52.35779168400006], [13.638104488000067, 52.35719437200004], [13.637939390000042, 52.35660900200003], [13.637749025000062, 52.34831451300005], [13.636681166000074, 52.348170948000075], [13.636291071000073, 52.34703792500005], [13.636905166000076, 52.34513555900003], [13.637951370000053, 52.34382067100006], [13.638405939000052, 52.34345769400005], [13.640819057000044, 52.34192740900005], [13.642000818000042, 52.34068811100008], [13.642645204000075, 52.34001231800005], [13.643288921000021, 52.33998897400005], [13.644537977000027, 52.339943669000036], [13.64506188300004, 52.339252325000075], [13.645392413000025, 52.338816148000035], [13.647409794000055, 52.33830594500006], [13.64840072100003, 52.338241836000066], [13.650717924000048, 52.33890505000005], [13.65172295800005, 52.33945761600006], [13.651077889000021, 52.34266639300006], [13.651939655000035, 52.34364408600004], [13.652461405000054, 52.34443064000004], [13.652734277000036, 52.34499508700003], [13.653292644000032, 52.34563777300008], [13.653938193000045, 52.34619242200006], [13.654723509000064, 52.34674339400004], [13.655512843000054, 52.34735141600004], [13.65591752000006, 52.34779806600005], [13.656002117000071, 52.34833887600007], [13.656133302000057, 52.34887846100003], [13.656552008000062, 52.34952480600003], [13.65664662200004, 52.35020825600003], [13.65669865500007, 52.35094998800008], [13.656975622000061, 52.35157147900003], [13.657651875000056, 52.351896656000065], [13.658605667000074, 52.35218594400004], [13.65906101400003, 52.35268841200008], [13.659188242000027, 52.353170936000026], [13.660202685000058, 52.35365868100007], [13.661209134000046, 52.35403230500003], [13.661889464000069, 52.35441451400004], [13.662395471000025, 52.35497279800006], [13.662455624000074, 52.35582863700006], [13.662505753000062, 52.356541836000076], [13.663064403000021, 52.35718447200003], [13.663655621000032, 52.35762618200005], [13.664573010000026, 52.35805928900004], [13.665258374000075, 52.35823227800006], [13.665887636000036, 52.35839110100005], [13.665940514000056, 52.35851573200006], [13.665951263000068, 52.35866847900007], [13.66600347700006, 52.35982833500003], [13.666140222000024, 52.360517867000056], [13.666272676000062, 52.36093745800008], [13.666448530000025, 52.36134690200004], [13.666667784000026, 52.36174619900004], [13.666915763000077, 52.36213573600003], [13.667290017000028, 52.362647966000054], [13.667707677000067, 52.36315004700003], [13.668042470000046, 52.36351928700003], [13.668391946000042, 52.36388813900004], [13.668992722000041, 52.36448440200007], [13.669622236000066, 52.36507090200007], [13.67053306500003, 52.365893018000065], [13.671080361000065, 52.36635565700004], [13.671543507000024, 52.36666748700003], [13.671879731000047, 52.36684764100005], [13.672425888000078, 52.36708526000007], [13.673264350000068, 52.367297146000055], [13.674159631000066, 52.367480519000026], [13.675026830000036, 52.36768263100004], [13.675433296000051, 52.36781590900006], [13.675811042000078, 52.36795894800008], [13.676725383000075, 52.368411852000065], [13.677678701000048, 52.368791704000046], [13.678532533000066, 52.36901215000006], [13.679189832000077, 52.36915677800005], [13.680318766000028, 52.369315914000026], [13.681216085000074, 52.36931914500008], [13.682568507000042, 52.369103263000056], [13.682784875000038, 52.36904351600003], [13.68320292900006, 52.368924409000044], [13.683605667000052, 52.36879670500008], [13.683806081000057, 52.36871937600006], [13.68399181600006, 52.36864243500003], [13.684346696000034, 52.36846198600006], [13.685378783000033, 52.36787648900008], [13.685733652000067, 52.36769603700003], [13.685920015000022, 52.36762807800005], [13.686105742000052, 52.36755113400005], [13.686523774000023, 52.367432016000066], [13.686957118000066, 52.36732149100004], [13.68717474500005, 52.36727970600003], [13.687638716000038, 52.36718637000007], [13.688105233000044, 52.367128972000046], [13.688324131000059, 52.36710515400006], [13.688558981000028, 52.36709891600003], [13.688764474000038, 52.367093458000056], [13.688986557000021, 52.367114564000076], [13.689208639000071, 52.36713567000004], [13.689430722000054, 52.36715677500007], [13.689668121000068, 52.36718647500004], [13.690115474000038, 52.36727360900005], [13.690564104000032, 52.36737871100007], [13.690774697000052, 52.36744512900003], [13.691180570000029, 52.36756936900008], [13.69137648700007, 52.367636176000076], [13.691573042000073, 52.36771196700005], [13.691740879000065, 52.36779752400008], [13.691909354000074, 52.36789206600008], [13.692064426000059, 52.36800496700005], [13.692204821000075, 52.36811825900003], [13.692456893000042, 52.36835460700007], [13.692990403000067, 52.368826521000074], [13.69333948700006, 52.369186314000046], [13.694008950000068, 52.36991566300003], [13.694358688000023, 52.370284438000056], [13.694974573000025, 52.37088017900004], [13.695493460000023, 52.37135247200007], [13.695633874000066, 52.371465759000046], [13.695774927000059, 52.371588031000044], [13.696025122000037, 52.37179741700004], [13.696572113000059, 52.37225095300005], [13.69744591600005, 52.37295684000003], [13.697819955000057, 52.37325294300007], [13.698983393000049, 52.37410523700004], [13.699997283000073, 52.37512134100007], [13.700507629000072, 52.37795234200007], [13.699737795000033, 52.37788284000004], [13.696875512000076, 52.377553996000074], [13.69863315300006, 52.38158504100005], [13.694882660000076, 52.380973736000044], [13.690982611000038, 52.38275426800004], [13.689753063000069, 52.38331555100007], [13.688061986000037, 52.38291036600003], [13.687741018000054, 52.38386183700004], [13.685747783000068, 52.384075875000065], [13.686117546000048, 52.38489967100003], [13.686711976000026, 52.38581835000008], [13.687122403000046, 52.386117083000045], [13.687404480000055, 52.38625250100006], [13.687676448000047, 52.38624528200006], [13.68827540600006, 52.38592030600006], [13.688703856000075, 52.38553085500007], [13.689013524000075, 52.38533359500008], [13.689627630000075, 52.385216967000076], [13.690103968000074, 52.38534721800005], [13.690664760000061, 52.385570494000035], [13.691228933000048, 52.38584131200008], [13.691720469000074, 52.386185510000075], [13.692257618000042, 52.386623764000035], [13.692830254000057, 52.387013436000075], [13.693406276000076, 52.38745065100005], [13.693744122000055, 52.38782274600004], [13.694355640000026, 52.38821137700006], [13.695141879000062, 52.38876243400006], [13.696342297000058, 52.389325574000054], [13.696791675000043, 52.38962323900006], [13.697119422000071, 52.389852689000065], [13.697376224000038, 52.39017929600004], [13.697398203000034, 52.39048833700008], [13.69738639700006, 52.39086973000008], [13.697376284000029, 52.39127489400005], [13.697417653000059, 52.39148434900005], [13.697771647000025, 52.39190743900008], [13.698092651000024, 52.39204179600006], [13.698636653000051, 52.39202731000006], [13.698993340000072, 52.390163218000055], [13.702421776000051, 52.39202525600007], [13.703178154000057, 52.393478232000064], [13.704043202000037, 52.39359806500005], [13.704563613000062, 52.393798539000045], [13.70505195000004, 52.39409513700008], [13.705383161000043, 52.39437210800003], [13.70563835300004, 52.39467492500006], [13.705778666000072, 52.39500462400008], [13.708905199000071, 52.39545296800003], [13.712842428000044, 52.39803928600003], [13.716436629000043, 52.399527437000074], [13.717291362000026, 52.398721385000044], [13.719421146000059, 52.39866432600007], [13.720862229000033, 52.39926483200003], [13.721887711000022, 52.39899428200005], [13.723344804000021, 52.39858611500006], [13.72482834300007, 52.39957251900006], [13.728216161000034, 52.40022868900007], [13.73099277700004, 52.39995600100008], [13.734537746000058, 52.40197606900006], [13.73425657000007, 52.40368483800006], [13.735165969000036, 52.40600103500003], [13.738749108000036, 52.40732177700005], [13.737780499000053, 52.408148158000074], [13.737559131000069, 52.40853520600007], [13.737287896000055, 52.40909508500005], [13.737162549000061, 52.40951765400007], [13.736665402000028, 52.40996929100004], [13.736031528000069, 52.41025312200003], [13.73480210300005, 52.41055681200004], [13.73416467900006, 52.41072257400003], [13.73356872000005, 52.411100641000075], [13.73314466200003, 52.41170272800008], [13.732777952000049, 52.41229464400004], [13.732125060000044, 52.41304136100007], [13.73106995300003, 52.41413195900003], [13.730727820000027, 52.414492231000054], [13.730277823000051, 52.414990429000056], [13.729657097000029, 52.41592245100003], [13.729462960000035, 52.41668982900006], [13.72951353600007, 52.41739346700007], [13.729975292000063, 52.41818132600008], [13.730592583000032, 52.41896500200005], [13.731443683000066, 52.41953279400008], [13.731353199000068, 52.42073172000005], [13.73342047500006, 52.42281901200005], [13.737906269000064, 52.42687467800005], [13.739227516000028, 52.42661403400007], [13.740564093000046, 52.42636196400008], [13.741384526000047, 52.426915964000045], [13.74167716900007, 52.428114324000035], [13.742053909000049, 52.42966148900007], [13.739460975000043, 52.43005545700004], [13.740039524000053, 52.43215530200007], [13.73762326800005, 52.43234642300007], [13.737803685000074, 52.433214742000075], [13.737958595000066, 52.434137759000066], [13.743118130000028, 52.43399868900008], [13.744060180000076, 52.438069116000065], [13.75053611800007, 52.441458956000076], [13.754215103000035, 52.44161149900003], [13.752296088000037, 52.43708146100005], [13.754676625000059, 52.43680099800008], [13.757468086000074, 52.43650035300004], [13.759587219000025, 52.436271883000074], [13.760018934000072, 52.43734941200006], [13.760469284000067, 52.43848044600003], [13.757663671000046, 52.43879054300004], [13.759028644000068, 52.44257936500003], [13.756897115000072, 52.44284416000005], [13.75410721000003, 52.44317174400004], [13.754362952000065, 52.44572181900003], [13.754479059000062, 52.44687945000004], [13.75321991100003, 52.44759765900005], [13.746611878000067, 52.44834491900008], [13.745270335000043, 52.44849657800006], [13.738929962000043, 52.44903657400005], [13.734781533000046, 52.45075953500003], [13.732213280000053, 52.450081440000076], [13.729112161000046, 52.45059682400006], [13.720642113000054, 52.45657598000008], [13.716447655000024, 52.46219428900008], [13.713494298000057, 52.46226266900004], [13.711390876000053, 52.46332278500006], [13.703989139000043, 52.46686834800005], [13.701324133000071, 52.46814548200007], [13.699191031000055, 52.468202218000044], [13.699851611000042, 52.46692444800004], [13.702425692000077, 52.46519969000008], [13.704051924000055, 52.46423824100003], [13.705151737000051, 52.46044631400008], [13.705332653000028, 52.45943140400004], [13.705626321000068, 52.457783885000026], [13.705365294000046, 52.45576642800006], [13.704443749000063, 52.45426427900003], [13.701249320000045, 52.454699239000036], [13.698432701000058, 52.45508021900008], [13.697162985000034, 52.45876858200006], [13.697532677000027, 52.46002796600004], [13.697700269000052, 52.460725626000055], [13.697754662000023, 52.46128227200006], [13.697725270000035, 52.46169712200003], [13.697543039000038, 52.46224205400006], [13.69714401300007, 52.46305378900007], [13.69699693900003, 52.463471765000065], [13.696824930000048, 52.46416044600005], [13.694841668000038, 52.464249134000056], [13.686753036000027, 52.465111757000045], [13.682599380000056, 52.46618485100004], [13.679135011000028, 52.469084860000066], [13.678786951000063, 52.46937309700007], [13.674500114000068, 52.470863472000076], [13.670661020000068, 52.473061991000066], [13.666980239000054, 52.474167058000035], [13.66463159600005, 52.47367976900006], [13.660004370000024, 52.47411640900003], [13.657740356000033, 52.47503995400007], [13.654862575000038, 52.476879662000044], [13.648215010000058, 52.47878196000005], [13.643316561000063, 52.47914402400005], [13.640613124000026, 52.47948463300003], [13.63961438900003, 52.478484567000066], [13.63772061900005, 52.47754383600005], [13.634900402000028, 52.47579011500005], [13.631966262000049, 52.47514642700003], [13.628814904000023, 52.47350019900006], [13.62580803800006, 52.473713356000076], [13.625508627000045, 52.468356508000056], [13.622639179000032, 52.46849697300007], [13.621027780000077, 52.468562828000074], [13.62111173900007, 52.470405862000064], [13.61712794600004, 52.47119320300004], [13.615171227000076, 52.469758710000065], [13.611517293000077, 52.47062733400003], [13.613586270000042, 52.47243616600008], [13.616397385000027, 52.47489353000003], [13.613538252000069, 52.47575062000004], [13.61410836300007, 52.47771535900006], [13.615010815000062, 52.48082505600007], [13.62522732800005, 52.48929115400006], [13.629630912000039, 52.493020165000075], [13.630800435000026, 52.49412005100004], [13.626544409000076, 52.494635507000055], [13.624670748000028, 52.495184263000056], [13.626525283000035, 52.498393401000044], [13.628300471000045, 52.50333379700004], [13.629363203000025, 52.50630348200008], [13.633318830000064, 52.51182618800004], [13.63466601600004, 52.51315926700005], [13.636691702000064, 52.514699688000064], [13.638223243000027, 52.51571289900005], [13.640017177000061, 52.516890269000044], [13.644040011000072, 52.519341593000036], [13.646982858000058, 52.52069589400003], [13.655998444000033, 52.524465460000044], [13.65857246400003, 52.525811152000074], [13.658294149000028, 52.526259494000044], [13.657963237000047, 52.52679922300007], [13.657663505000073, 52.527572158000055], [13.65721420500006, 52.52873604900003], [13.656943278000028, 52.52949922500005], [13.656895568000039, 52.52986951200006], [13.655336540000064, 52.52994635200008], [13.650130344000047, 52.53020858600007], [13.642614945000048, 52.53058484600007], [13.631381540000064, 52.530769289000034], [13.627081927000063, 52.530277897000076], [13.625906814000075, 52.53014637500007], [13.626732385000025, 52.537748572000055], [13.630576233000056, 52.538044815000035], [13.631941233000077, 52.53814436000005], [13.635069541000064, 52.54087125400008], [13.635358749000034, 52.54162879300003], [13.629868287000022, 52.54206852000004], [13.61973548900005, 52.542877901000054], [13.618857568000067, 52.54294798500007], [13.610827433000054, 52.54423557700005], [13.607879269000023, 52.544725655000036], [13.60315053200003, 52.54551352800007], [13.586905050000041, 52.54821677100006], [13.585985821000065, 52.548375313000065], [13.585387118000028, 52.54847164300003], [13.585653875000048, 52.54891483700004], [13.58604113900003, 52.54960695700004], [13.586372553000047, 52.55034550900007], [13.586819656000046, 52.55147711600006], [13.587299235000046, 52.55243688200005], [13.587519088000022, 52.553484301000026], [13.587550300000032, 52.554365543000074], [13.587494309000022, 52.55526701900004], [13.587314195000033, 52.55608166800005], [13.587114258000042, 52.556608811000046], [13.586325521000049, 52.55759204600008], [13.585614716000066, 52.558398606000026], [13.585025037000037, 52.55891377900008], [13.584627096000077, 52.55937641700007], [13.58435107300005, 52.55990737600007], [13.58414351600004, 52.56086522600003], [13.58407724500006, 52.56160514000004], [13.583890674000031, 52.562300503000074], [13.583772294000028, 52.56285124000004], [13.58373192700003, 52.56339998300007], [13.583665645000053, 52.56413989500004], [13.583409223000046, 52.564956109000036], [13.583186892000072, 52.56570001000006], [13.583180617000039, 52.56617644000005], [13.58323463000005, 52.56696090200006], [13.583319472000028, 52.56762550800005], [13.58308730500005, 52.56822677800005], [13.582749551000063, 52.56899744100008], [13.581539702000043, 52.570881943000074], [13.578049884000052, 52.57104305800004], [13.577133138000022, 52.57274950100003], [13.57556293600004, 52.573761578000074], [13.570629934000067, 52.57291523600003], [13.569745178000062, 52.57315376200006], [13.567569499000058, 52.573740128000054], [13.566948972000034, 52.57438592200003], [13.564007091000065, 52.57802475900007], [13.562179540000045, 52.57981719600008], [13.559860799000035, 52.58177506000004], [13.557273329000054, 52.58326267700005], [13.555780385000048, 52.58411951000005], [13.54711210000005, 52.58788476600006], [13.541627633000076, 52.58915714700004], [13.533764365000025, 52.59087609800008], [13.527307869000026, 52.59220824100004], [13.522430212000074, 52.592852503000074], [13.508153615000026, 52.592183257000045], [13.50508334400007, 52.596539860000064], [13.500113113000054, 52.60359045100006], [13.499003893000065, 52.60516361400005], [13.49675228500007, 52.60509353900005], [13.497293418000027, 52.60677204400008], [13.498545980000074, 52.61068279300008], [13.500218077000056, 52.61379113100003], [13.502445059000024, 52.617452627000034], [13.50324351100005, 52.61877371600008], [13.505351602000076, 52.61955823200003], [13.50549518300005, 52.62154685200005], [13.505565003000072, 52.62251380200007], [13.505817351000076, 52.625828382000066], [13.508040785000048, 52.62656971700005], [13.512277922000067, 52.62798931400005], [13.517698658000029, 52.629635919000066], [13.518484202000025, 52.63163221100007], [13.519876618000069, 52.634479741000064], [13.522071333000042, 52.63896721700007], [13.522481854000034, 52.64159955200006], [13.522917740000025, 52.64426481100003], [13.523100123000063, 52.645430195000074], [13.52049882800003, 52.645252267000046], [13.519397673000071, 52.64669272500004], [13.518873170000063, 52.64747079400007], [13.517495989000054, 52.64723520900003], [13.512781529000051, 52.64556195000006], [13.51193365100005, 52.645934072000045], [13.509777873000075, 52.64687874700007], [13.507083140000077, 52.648340318000066], [13.505395262000036, 52.64925571200007], [13.504278933000023, 52.649598455000046], [13.503046219000055, 52.64997107800008], [13.499850834000028, 52.65108538700008], [13.490831410000055, 52.65472873400006], [13.487978816000066, 52.656995143000074], [13.485294839000062, 52.65913131900004], [13.487234472000068, 52.666706085000044], [13.487604149000049, 52.66814946900007], [13.487955903000056, 52.66952278400004], [13.488219322000077, 52.67055116600005], [13.479001915000026, 52.667745911000054], [13.475647695000077, 52.66628065700007], [13.475632082000061, 52.66671300400003], [13.475512550000076, 52.66878186500003], [13.475644588000023, 52.66958817200003], [13.47601125600005, 52.67038870200008], [13.476614150000046, 52.671207226000035], [13.478789977000076, 52.67345252100006], [13.480055494000055, 52.67464638200005]]]}}]}