{"type": "FeatureCollection", "features": [{"type": "Feature", "properties": {"shapeName": "München, Kreisfreie Stadt", "shapeISO": "", "shapeID": "24449704B26987939880812", "shapeGroup": "DEU", "shapeType": "ADM3"}, "geometry": {"type": "Polygon", "coordinates": [[[11.41245077700006, 48.127115049000054], [11.415614264000055, 48.128257431000065], [11.419959996000046, 48.13085521700003], [11.423274023000033, 48.13284119700006], [11.424961882000048, 48.13547009900003], [11.42747038500005, 48.13673454000008], [11.43003919900002, 48.13762981800005], [11.435596692000047, 48.136033663000035], [11.436723616000052, 48.13572422300007], [11.437199544000066, 48.13645754700008], [11.438843275000067, 48.13569886800008], [11.439982369000063, 48.13517308000007], [11.439331037000045, 48.134560201000056], [11.44281059900004, 48.13403275200005], [11.44489917200002, 48.13373256700004], [11.447615111000061, 48.133391043000074], [11.44751721800003, 48.13294939100007], [11.447536979000063, 48.13258062400007], [11.447959664000052, 48.13151613600007], [11.448075317000075, 48.13124543300006], [11.448589551000055, 48.13147501700007], [11.449104380000051, 48.13237829700006], [11.449498908000066, 48.13333683600007], [11.451457463000054, 48.13302734200005], [11.454344817000049, 48.13252168200006], [11.458051609000051, 48.132191368000065], [11.45993538600004, 48.13202345500008], [11.459237908000034, 48.13069001100007], [11.460017288000074, 48.13068357900005], [11.464540304000025, 48.12920514500007], [11.464829421000047, 48.127512453000065], [11.464684137000063, 48.12558084500006], [11.464534986000047, 48.12395747200003], [11.464564033000045, 48.12219261700005], [11.465231634000077, 48.12063145900004], [11.465713598000036, 48.11782230700004], [11.465182885000047, 48.11554475600008], [11.463321106000024, 48.11538415800004], [11.463351899000031, 48.11444719600007], [11.463442150000049, 48.10811365700005], [11.463023817000021, 48.10523287900003], [11.469641744000057, 48.10526452400006], [11.46959074800003, 48.10608306700004], [11.471841415000029, 48.10518214200005], [11.473874349000027, 48.104813515000046], [11.47422823900007, 48.10370460100006], [11.47520439300007, 48.102841881000074], [11.47167044500003, 48.09855802000004], [11.474035530000037, 48.09531864500008], [11.47256524100004, 48.09115326300008], [11.474149930000067, 48.09049698800004], [11.47349265300005, 48.089575170000046], [11.472905924000031, 48.088628938000056], [11.47378767500004, 48.08833568600005], [11.474741817000051, 48.088113142000054], [11.47576741100005, 48.08791374000003], [11.471017295000024, 48.083128084000066], [11.47245342900004, 48.08247708400006], [11.47171843600006, 48.081944203000035], [11.47284122000002, 48.08105324600007], [11.473862874000076, 48.08183529200005], [11.484147992000032, 48.07719921900008], [11.486539614000037, 48.07626703100004], [11.489105679000033, 48.075253202000056], [11.490703009000072, 48.07463646900004], [11.49895581800007, 48.07147811200008], [11.502979468000035, 48.06962424400007], [11.503792903000033, 48.069249425000066], [11.502996993000068, 48.06836671100007], [11.502722693000067, 48.06675105000005], [11.504293721000067, 48.062232781000034], [11.508732247000069, 48.06155377500005], [11.511401994000039, 48.064217143000064], [11.513928563000036, 48.063842082000065], [11.514602898000021, 48.06557219800004], [11.51641489800005, 48.06542674600007], [11.518287286000032, 48.06527641400004], [11.51911410300005, 48.06728747500006], [11.521760605000054, 48.06690610800007], [11.522613587000023, 48.06678317700005], [11.523800236000056, 48.06838129400006], [11.52612017000007, 48.068359617000056], [11.527625090000072, 48.06848936800003], [11.528568903000064, 48.06972051900004], [11.528796586000055, 48.07200254900005], [11.528806626000062, 48.07304516000005], [11.53044840900003, 48.07474548000005], [11.530701781000062, 48.07498095900007], [11.533166204000054, 48.077526127000056], [11.536097497000071, 48.077849093000054], [11.538252600000021, 48.07782138700003], [11.540487099000075, 48.07778968800005], [11.542280116000029, 48.077763564000065], [11.542402097000036, 48.07465188000003], [11.544313418000058, 48.07179288200007], [11.542986201000076, 48.06839256000006], [11.54408537300003, 48.06833244100005], [11.545898908000026, 48.071935249000035], [11.547411534000048, 48.071651376000034], [11.548902827000063, 48.07133570600007], [11.550491954000051, 48.074293745000034], [11.555366616000072, 48.084807984000065], [11.558728829000074, 48.08435451100007], [11.562480863000076, 48.08386281600008], [11.562885159000075, 48.085189427000046], [11.585985238000035, 48.093666995000035], [11.59134903100005, 48.08431050000007], [11.593562470000052, 48.08471941400006], [11.596203630000048, 48.08520821500008], [11.602587183000026, 48.086650949000045], [11.603416888000027, 48.08509500500003], [11.606635176000054, 48.086690934000046], [11.607663642000034, 48.08669482100004], [11.612232888000051, 48.08691191200006], [11.611852961000068, 48.087913669000045], [11.61371603200007, 48.08841620600003], [11.616490949000024, 48.08829810700007], [11.62239321800007, 48.088043853000045], [11.622196785000028, 48.08721333300008], [11.623722523000026, 48.08708254100003], [11.626410737000072, 48.086742], [11.63300967300006, 48.08599812400007], [11.632963251000035, 48.08453375200003], [11.642340967000052, 48.08370387300005], [11.644649491000052, 48.08329449800004], [11.649487846000056, 48.08222109500008], [11.652052042000037, 48.080945145000044], [11.65433764900007, 48.080507941000064], [11.657633513000064, 48.07980107900005], [11.663619027000038, 48.07832959600006], [11.66489358900003, 48.07820070200006], [11.66761338300006, 48.07792560300004], [11.67325984200005, 48.07797840100005], [11.673843713000053, 48.07883521600007], [11.677006556000038, 48.07845798200003], [11.685724965000077, 48.07750276500008], [11.68358819100007, 48.08164447300004], [11.681360926000025, 48.08202527800006], [11.681138726000029, 48.08312186100005], [11.681022418000055, 48.08419351800006], [11.681898313000033, 48.08687593800005], [11.682463515000052, 48.08918035500005], [11.682515731000024, 48.09135544700007], [11.68304388200005, 48.092113932000075], [11.684368380000024, 48.09250421100006], [11.685937204000027, 48.09245130700003], [11.687513590000037, 48.09215556100003], [11.688913632000038, 48.09233819000008], [11.687509096000042, 48.093639015000065], [11.688749049000023, 48.09385934000005], [11.68927971100004, 48.09471666500008], [11.691628857000069, 48.09585094000005], [11.694277217000035, 48.097143739000046], [11.696495016000028, 48.09728141100004], [11.699824979000027, 48.098998186000074], [11.70234023200004, 48.09977080800007], [11.709219060000066, 48.102239533000045], [11.713126559000045, 48.10502841200008], [11.71401147000006, 48.10934305100005], [11.71230024600004, 48.11104229000006], [11.709057855000026, 48.11426158100005], [11.710296786000072, 48.11496358000005], [11.697893610000051, 48.11764486100003], [11.693015586000058, 48.11864946800006], [11.697183506000044, 48.121188534000055], [11.694103910000024, 48.12320897600006], [11.695905326000059, 48.12429569900007], [11.697851634000074, 48.12546974400004], [11.699728737000044, 48.124293944000044], [11.703168549000054, 48.12213905200008], [11.703775608000058, 48.12230930000004], [11.704316237000057, 48.12262450500003], [11.705001567000068, 48.12304516300003], [11.705755035000038, 48.12334613100006], [11.706645926000022, 48.123455283000055], [11.707461116000047, 48.123374960000035], [11.708201763000034, 48.12315272600006], [11.708763058000045, 48.122861097000055], [11.711018284000033, 48.12354987800006], [11.711920900000052, 48.124134611000045], [11.712893991000044, 48.124694772000055], [11.71512322600006, 48.12864267500004], [11.71348609000006, 48.12936643900008], [11.712036620000049, 48.13000720100007], [11.714094364000061, 48.13121619000003], [11.71284428000007, 48.13277125700006], [11.714709816000038, 48.13348806300007], [11.715499839000074, 48.13265712900005], [11.719995477000055, 48.13413569700003], [11.71959275100005, 48.13522804200005], [11.723082533000024, 48.13675361700007], [11.720263743000032, 48.13899668000005], [11.718056920000038, 48.137753485000076], [11.714755850000074, 48.13967240200003], [11.713462908000054, 48.14056684600007], [11.71423671100007, 48.142974425000034], [11.711906034000037, 48.14480233000006], [11.71341783500003, 48.145570647000056], [11.710263877000045, 48.148028700000054], [11.708672996000075, 48.14867071900005], [11.698237942000048, 48.147380758000054], [11.69000496800004, 48.146362268000075], [11.685083938000048, 48.14575318000004], [11.678060111000036, 48.14485342100005], [11.678541986000027, 48.15298319200008], [11.674398756000073, 48.155264147000025], [11.67408625400003, 48.155576730000064], [11.674096470000052, 48.156004805000066], [11.67480146500003, 48.15683972700003], [11.682826714000043, 48.16466109800007], [11.685183713000072, 48.16692107600005], [11.686026612000035, 48.16795866600006], [11.686621548000062, 48.16915105800007], [11.686502288000042, 48.17010387700003], [11.68615840800004, 48.17129638100005], [11.68605827700003, 48.17160315000007], [11.68918426700003, 48.171362585000054], [11.689786351000066, 48.17124817900003], [11.693170147000046, 48.17055516600004], [11.696008214000074, 48.17450727700003], [11.69387262400005, 48.17598366100003], [11.693213705000062, 48.176356258000055], [11.690533809000044, 48.17787176300004], [11.692964398000072, 48.17887471100005], [11.695495366000046, 48.179952351000054], [11.69340862100006, 48.18124438400008], [11.690968091000059, 48.182755334000035], [11.689229692000026, 48.182690611000055], [11.688943671000061, 48.18142598500003], [11.686919557000067, 48.18000032100008], [11.663087915000062, 48.18209855900005], [11.66173488000004, 48.182041500000025], [11.661192048000032, 48.18124170100003], [11.661157228000036, 48.17976719100005], [11.664302453000062, 48.17740266900006], [11.665936896000062, 48.176709437000056], [11.665242765000073, 48.176348173000065], [11.660392600000023, 48.175887001000035], [11.648272726000073, 48.17495335800004], [11.648503291000054, 48.173890036000046], [11.645260378000046, 48.17393550000003], [11.641490073000057, 48.17403501500007], [11.641113676000032, 48.17345452300003], [11.636349407000068, 48.17494240100007], [11.634083469000075, 48.175774972000056], [11.634971988000075, 48.17699753800008], [11.630844211000067, 48.17838969100006], [11.629497547000028, 48.179193729000076], [11.629048942000054, 48.17722036600003], [11.627746761000026, 48.177296668000054], [11.628529838000077, 48.17978806800005], [11.629706407000072, 48.181793998000046], [11.630803633000028, 48.182949472000075], [11.630271789000062, 48.183162208000056], [11.629270021000025, 48.183570469000074], [11.628348223000046, 48.183946125000034], [11.629024822000076, 48.18470066800006], [11.63065120500005, 48.186715209000056], [11.631549603000053, 48.18802401600004], [11.632482142000072, 48.189463258000046], [11.635257747000026, 48.19396081000008], [11.637332979000064, 48.19777384100007], [11.637651291000054, 48.19832213500007], [11.637917830000049, 48.19901013900005], [11.638039592000041, 48.19955965100007], [11.63813170700007, 48.200294969000026], [11.638120495000067, 48.20155544700003], [11.638263714000061, 48.20263963800005], [11.638627908000046, 48.20354373100008], [11.639066229000036, 48.20435953700007], [11.639744015000076, 48.20504322000005], [11.640494975000024, 48.205610816000046], [11.642514708000022, 48.20680124300003], [11.644781511000076, 48.20809851900003], [11.645203350000031, 48.20834865000006], [11.646671293000054, 48.20917993900008], [11.647645486000044, 48.20993499200006], [11.648268864000045, 48.210515557000065], [11.648728812000058, 48.21096144300003], [11.649104511000075, 48.21146901000003], [11.649485281000068, 48.212079403000075], [11.649741986000038, 48.212727459000064], [11.649894413000027, 48.213551874000075], [11.650106011000048, 48.21461455800005], [11.650274981000052, 48.21567614200006], [11.650342888000068, 48.21676904900005], [11.650368951000075, 48.217328982000026], [11.647999995000077, 48.218194666000045], [11.643166912000027, 48.22015003000007], [11.642307635000066, 48.220806312000036], [11.640290828000047, 48.22143673200003], [11.638602129000049, 48.222655529000065], [11.637153285000068, 48.22394393800005], [11.637945607000063, 48.22618142600004], [11.632317618000059, 48.22734146600004], [11.629676436000068, 48.22788574800006], [11.624745757000028, 48.228872412000044], [11.623069585000053, 48.22871799700005], [11.621651136000025, 48.22830159600005], [11.61514560300003, 48.22922186800008], [11.614330884000026, 48.22763041500008], [11.613780848000033, 48.22655592800004], [11.613246704000062, 48.22522734800003], [11.608469917000036, 48.22564360800004], [11.607724511000072, 48.22774841000006], [11.609306378000042, 48.22904435100003], [11.608159601000068, 48.23029292900003], [11.60627824900007, 48.22795962400005], [11.605863818000046, 48.22690685100008], [11.608815137000022, 48.22270632400006], [11.611913086000072, 48.21890042500007], [11.606980317000023, 48.21900064600004], [11.606881654000063, 48.21842210900007], [11.604971240000054, 48.21838598100004], [11.605012338000051, 48.217542629000036], [11.602029641000058, 48.21682052800003], [11.601836225000056, 48.21359470900006], [11.595661918000076, 48.21361142300003], [11.587705327000037, 48.213695459000064], [11.585285531000068, 48.21372090300008], [11.585355786000036, 48.215290253000035], [11.585253101000035, 48.22031066200003], [11.585205725000037, 48.221507673000076], [11.58507809100007, 48.22304127500007], [11.584663635000027, 48.225859239000044], [11.583886862000043, 48.226152359000025], [11.58328857600003, 48.22646750400003], [11.58294154500004, 48.22687532800006], [11.582200026000066, 48.22827485400006], [11.581330413000046, 48.229808312000046], [11.576871405000077, 48.22942384000004], [11.568062970000028, 48.228772236000054], [11.563893047000022, 48.22857474400007], [11.560686821000047, 48.22848675200004], [11.553385519000074, 48.22836657800008], [11.550108133000037, 48.22827896000007], [11.547079930000052, 48.22818887300008], [11.54637125000005, 48.228361015000075], [11.544133269000042, 48.22888655100007], [11.54257614900007, 48.22911191500003], [11.540992508000045, 48.22937654500004], [11.53945851100002, 48.22965398800005], [11.537029381000025, 48.230069634000074], [11.534003914000039, 48.23059863000003], [11.53392808600006, 48.23147146400004], [11.531282073000057, 48.231712075000075], [11.53067782000005, 48.23208843400005], [11.526167061000024, 48.24105029700007], [11.523376279000047, 48.24238622300004], [11.521753900000022, 48.242689006000035], [11.515542937000077, 48.244859252000026], [11.511022535000052, 48.24643843900003], [11.505915763000075, 48.247510197000054], [11.499817843000073, 48.24814577700005], [11.499806802000023, 48.24760349500008], [11.490713764000077, 48.24572625600007], [11.490325538000036, 48.24413591200005], [11.490315946000067, 48.24366022600003], [11.490591691000077, 48.24320576200006], [11.491111401000069, 48.242487425000036], [11.491353928000024, 48.24215220100007], [11.491310159000022, 48.24174818900008], [11.491088843000057, 48.24136956600006], [11.490831924000076, 48.24099126200008], [11.490824246000045, 48.24061071400007], [11.491066766000074, 48.240275491000034], [11.49165812800004, 48.23958029700003], [11.49148690000004, 48.23815452800005], [11.48952390900007, 48.23793430900008], [11.490133607000075, 48.23638257400006], [11.490229385000077, 48.23583457700005], [11.49014763300005, 48.23531196700003], [11.489853714000049, 48.23486262900008], [11.488180170000021, 48.23309353700006], [11.487814127000036, 48.23259726600003], [11.487662163000039, 48.23212286200004], [11.487759396000058, 48.23164622200005], [11.488103400000057, 48.23098108100004], [11.488453077000031, 48.22965477000008], [11.488052546000063, 48.226328538000075], [11.488386873000024, 48.225123206000035], [11.488910621000059, 48.223234836000074], [11.489062197000067, 48.22268830300004], [11.48566067300004, 48.22193956600006], [11.484343635000073, 48.22164962800008], [11.480083904000026, 48.220618728000034], [11.478017291000072, 48.22010955700006], [11.476646639000023, 48.219921912000075], [11.474335280000048, 48.21968549300004], [11.473161768000068, 48.21954635600008], [11.471892535000052, 48.219314825000026], [11.470917643000064, 48.218999765000035], [11.467602186000022, 48.217534931000046], [11.462716822000061, 48.21542458400006], [11.461663031000057, 48.21506131800004], [11.460949432000064, 48.21497231200004], [11.46033228500005, 48.214300380000054], [11.459670241000026, 48.21347924200006], [11.458804562000068, 48.21241398800004], [11.457684933000053, 48.210636332000036], [11.457051725000042, 48.20957312000007], [11.456700185000045, 48.20883438300007], [11.451719140000023, 48.20808390700006], [11.444182892000072, 48.20759578700006], [11.439988698000036, 48.20739977800008], [11.43571696600003, 48.20737415100007], [11.432179632000043, 48.20759420200005], [11.430947460000027, 48.20765736800007], [11.430828038000072, 48.205840187000035], [11.43077211700006, 48.20479084400006], [11.426053811000031, 48.204210319000026], [11.419738094000024, 48.20378681100004], [11.418722836000029, 48.20271642700004], [11.417954010000074, 48.20259697800003], [11.416400538000062, 48.20295157400005], [11.406726675000073, 48.20172615600006], [11.40510243600005, 48.20163677200003], [11.402939601000071, 48.20312066200006], [11.40271705400005, 48.20190495000003], [11.402453149000053, 48.20144859800007], [11.40196395700002, 48.20117390400003], [11.401395410000077, 48.20097178300006], [11.400452015000042, 48.20086263400003], [11.393485724000072, 48.200534524000034], [11.392159411000023, 48.20047456100008], [11.392044706000036, 48.19974530500008], [11.390713703000074, 48.19433170100007], [11.390559348000068, 48.19366690500004], [11.390337732000035, 48.193216739000036], [11.390115259000027, 48.19271900600006], [11.389927930000056, 48.192197201000056], [11.389811317000067, 48.19165103600005], [11.389719084000035, 48.19048620500007], [11.392362993000063, 48.189393764000044], [11.392248824000035, 48.18828886600005], [11.392182981000076, 48.18762410700003], [11.392050810000057, 48.18626762400004], [11.39151475500006, 48.18557230400006], [11.39075647900006, 48.18491158900008], [11.391643080000051, 48.18441007500007], [11.392426471000022, 48.183966929000064], [11.390947265000023, 48.182297670000025], [11.390301005000026, 48.18162830500006], [11.389899128000025, 48.181378460000076], [11.389288962000023, 48.18107416500004], [11.388536983000051, 48.18079479900007], [11.387961537000024, 48.18044264100007], [11.387527489000036, 48.180041766000045], [11.387199277000036, 48.17959246000004], [11.386798661000057, 48.17907237600008], [11.386365063000028, 48.17869527900007], [11.384820095000066, 48.177827603000026], [11.383470685000077, 48.177894921000075], [11.382657123000058, 48.17825208000005], [11.381963547000055, 48.178554329000065], [11.381194383000036, 48.178389680000066], [11.380132051000032, 48.17819825400005], [11.378930295000032, 48.17806617100007], [11.377181294000025, 48.17798124600006], [11.375743186000022, 48.17799271200005], [11.374134948000062, 48.17820471600004], [11.372750776000032, 48.17797182700008], [11.372037909000028, 48.17788227600005], [11.37138854400007, 48.17736400700005], [11.370597762000045, 48.17689459400003], [11.369679703000031, 48.17633882100006], [11.36912385000005, 48.17600233100006], [11.369798096000068, 48.17431223800003], [11.369760760000077, 48.17399435400006], [11.369628301000034, 48.17367722800003], [11.36926601500005, 48.17291646900003], [11.36910073000007, 48.17253596300003], [11.36903094400003, 48.17217591600007], [11.368708490000074, 48.170078500000045], [11.368606434000071, 48.169460453000056], [11.368333686000028, 48.16886892200006], [11.367666044000032, 48.167801766000025], [11.365952208000067, 48.16481853800008], [11.36562697000005, 48.164354444000026], [11.365239828000028, 48.163975684000036], [11.364757958000041, 48.16361887800008], [11.364183599000057, 48.16341127900006], [11.362720678000073, 48.16305492500004], [11.360877208000034, 48.15808879800005], [11.364107560000036, 48.15853067200004], [11.365923794000025, 48.158706668000036], [11.367631303000053, 48.158764561000055], [11.369371841000032, 48.158679445000075], [11.371190485000056, 48.15837656400004], [11.370098343000052, 48.15692947300005], [11.372049835000041, 48.15631458100006], [11.373918505000063, 48.155843031000074], [11.374444699000037, 48.15410689200007], [11.373833269000045, 48.15344601700008], [11.378180170000064, 48.15321155500004], [11.378522295000039, 48.15372374900005], [11.38258623300004, 48.15333157400005], [11.383089503000065, 48.15166621800006], [11.38363376500007, 48.14881906800008], [11.385457466000048, 48.14970237500006], [11.387206223000021, 48.14727093800008], [11.389030241000057, 48.14784954600003], [11.39051917200004, 48.146067919000075], [11.38933961600003, 48.14489826500005], [11.391406218000043, 48.14181587400003], [11.38958109500004, 48.141165398000055], [11.391829504000043, 48.13759080800003], [11.39236234200007, 48.13676464900004], [11.39128486800007, 48.13636390100004], [11.387966946000063, 48.13508315900003], [11.388450943000066, 48.13362285000005], [11.388939255000025, 48.13213650500006], [11.387894261000042, 48.12912390900004], [11.389449548000073, 48.12794203400006], [11.392628487000025, 48.12848261600004], [11.394346427000073, 48.12547495200005], [11.40055833200006, 48.12519044800007], [11.408965876000025, 48.12601119800007], [11.410760182000047, 48.12646381600007], [11.41245077700006, 48.127115049000054]]]}}]}