{"type": "FeatureCollection", "features": [{"type": "Feature", "properties": {"shapeName": "Paris", "shapeISO": "", "shapeID": "29444166B33792924009837", "shapeGroup": "FRA", "shapeType": "ADM2"}, "geometry": {"type": "Polygon", "coordinates": [[[2.331898060637624, 48.817010929647054], [2.331996248625253, 48.81700068563245], [2.332144938408537, 48.816981729783336], [2.333711090278114, 48.816771017573465], [2.334935049873801, 48.81669418910563], [2.335146299956006, 48.81668187318901], [2.335581090336555, 48.81665461037929], [2.336103080781858, 48.81662423266737], [2.336332045048367, 48.8166111136313], [2.336555562032481, 48.81659796393157], [2.336674118000442, 48.81659232602123], [2.336750435527921, 48.816588252467106], [2.337275148209404, 48.81655788474471], [2.337509547626264, 48.81654569296678], [2.338007023640429, 48.816515171119754], [2.338644774759566, 48.816484523810495], [2.339542877317385, 48.81643552505832], [2.340319779160497, 48.81638585092471], [2.340511984457828, 48.81637162169162], [2.341029645177583, 48.81636008569078], [2.341683722695742, 48.81633041155318], [2.341798294308862, 48.81631665216863], [2.342185914881535, 48.816249532771], [2.342876711334013, 48.81611572551908], [2.343013285918382, 48.81608499759023], [2.343156782515659, 48.81604531368638], [2.343297668596648, 48.81599662142543], [2.343424947979885, 48.81594695489403], [2.343584954991723, 48.81589387036898], [2.343765705165507, 48.815815716708215], [2.343902504744146, 48.81576700130204], [2.344036580527388, 48.8157182707951], [2.344229494850482, 48.81564737824274], [2.344344437439911, 48.815603938756375], [2.344448463099662, 48.81556223807286], [2.34446419379562, 48.815610891104626], [2.344355599882103, 48.816015918163], [2.344469729186359, 48.816037229793544], [2.344552650710487, 48.81604937639358], [2.344755273215883, 48.816072971602445], [2.344996127409928, 48.81608868145544], [2.345190828033564, 48.81609244606854], [2.345376109124035, 48.81608716494833], [2.345543732189824, 48.816078189350804], [2.346027784265767, 48.81603137177266], [2.346186021179197, 48.816010651939955], [2.346371448422839, 48.81599367808161], [2.346541772031783, 48.81598651461866], [2.346633022377526, 48.815986113912906], [2.346751373074082, 48.815996653817514], [2.346919974440823, 48.816018260704304], [2.347039461823858, 48.81604679421691], [2.347177687748715, 48.81610151206492], [2.348046857382352, 48.81651367550496], [2.348600538375941, 48.81678021267647], [2.348677711556632, 48.816816608433356], [2.348763033183108, 48.81685484728766], [2.349029960601779, 48.81696422685844], [2.350488624689272, 48.81761431895232], [2.35087864588324, 48.8177918165698], [2.351253779116588, 48.817962037037276], [2.352391840207208, 48.81855100593643], [2.353049262700183, 48.8180338226871], [2.353166067048313, 48.817949912700364], [2.353366712003787, 48.8178043986637], [2.353377706979411, 48.81779636368416], [2.353926056197361, 48.81739730395355], [2.354735454698258, 48.81681257906498], [2.35540670558521, 48.816274771111594], [2.355852301315165, 48.81592281549823], [2.35623201503909, 48.8159428482594], [2.356339528858111, 48.8159488233971], [2.356545035221203, 48.81595982275864], [2.356785970093019, 48.815969213597796], [2.356894890172978, 48.81597159826695], [2.357466681971601, 48.815987263785324], [2.358423747028376, 48.81601398837665], [2.358949272393267, 48.81602670037783], [2.359423050356637, 48.81603913283773], [2.35995808660781, 48.81605369012309], [2.360158246336462, 48.81605656019859], [2.360525816939211, 48.816067520493704], [2.360557126882433, 48.816068587329426], [2.360678292349534, 48.81607193342168], [2.36110441978891, 48.81608320503067], [2.363328923996346, 48.8161481345928], [2.36420428117288, 48.81639832400089], [2.36438332498556, 48.8164577357951], [2.365028986478497, 48.816670722470064], [2.365641023901097, 48.81684935069132], [2.366712905126914, 48.817179709524396], [2.366927252430261, 48.81724829823254], [2.367102293227545, 48.817301389014], [2.367501106783893, 48.817432110885235], [2.367815816506703, 48.817535405319894], [2.368441186891433, 48.81773927212631], [2.368932306814356, 48.81789565932246], [2.36948437512311, 48.81808024667168], [2.370356799093812, 48.81835285932001], [2.370643203501613, 48.818432613229355], [2.37082367773841, 48.818487525825205], [2.37095800143098, 48.81852960404119], [2.371496606021114, 48.818702419153404], [2.371889993887892, 48.81883309758972], [2.371984955477795, 48.81886417529739], [2.37200665852426, 48.818871484322216], [2.372607558629133, 48.81907430102534], [2.372665902279628, 48.819092594729135], [2.372732384690139, 48.81911362923801], [2.372895191699047, 48.81916574782949], [2.372990154493846, 48.819196824729666], [2.373528913175678, 48.819357939392475], [2.373705308042322, 48.81941282618821], [2.373977942707531, 48.81950599053942], [2.374014659295746, 48.81951067965796], [2.374052780947823, 48.81951177860445], [2.374121901841233, 48.81954002117106], [2.374173426378141, 48.819559177811854], [2.374257517234202, 48.81958839802661], [2.374447575570881, 48.81963975769453], [2.37458872533113, 48.819680968089784], [2.375596723554163, 48.82001001232611], [2.375679486351845, 48.82003652645091], [2.37571211780496, 48.820041193713905], [2.375760973479089, 48.82005583883042], [2.37584783286315, 48.82008147484462], [2.376077120333644, 48.82015552110129], [2.376525981159313, 48.820318851049336], [2.377883819134931, 48.82078010902894], [2.379083321889079, 48.82115778650588], [2.379478291160395, 48.82127315829752], [2.380767116748347, 48.82170074780262], [2.381524148119775, 48.82241067606712], [2.383142198331909, 48.82299013731688], [2.383303633971221, 48.82304493249241], [2.383337544863622, 48.823056799249684], [2.384022522695706, 48.823298664029345], [2.384537917595144, 48.82348389087836], [2.384597579269297, 48.82350668229935], [2.385225588159262, 48.82372935997468], [2.386941338175521, 48.82446306388984], [2.38717597127342, 48.824548807659724], [2.387893505889206, 48.824805206564676], [2.388669614427151, 48.8250619005164], [2.388799862307387, 48.82510573619299], [2.38944542518818, 48.8253446696295], [2.390072014511326, 48.82569232682492], [2.390939253073785, 48.82607898008138], [2.390951448461554, 48.8260844384248], [2.391021896745785, 48.82611717458681], [2.391309243970533, 48.8262391533546], [2.39153830758529, 48.82633655184045], [2.391650812371772, 48.82638389154476], [2.391845983177664, 48.826467626428176], [2.391878515202915, 48.826481282437676], [2.392046623822552, 48.82654959004699], [2.392176783895111, 48.82660151585331], [2.39276227174747, 48.82685541486027], [2.393992757067967, 48.827401279162515], [2.394339872457587, 48.82753884258791], [2.39517910037702, 48.827644718689875], [2.395445621290342, 48.82768473921558], [2.395706662977831, 48.827727429569336], [2.396843018582163, 48.828054241275694], [2.397894167659855, 48.828329348990984], [2.398047670363725, 48.82836609650486], [2.39812102690902, 48.828383553732415], [2.398195766374802, 48.82839921913388], [2.398218859934769, 48.828404731557875], [2.398316682660713, 48.82842680862041], [2.39842808505903, 48.82845255138864], [2.398551736188293, 48.82847925502178], [2.398650921306333, 48.82850133865959], [2.398811245982199, 48.82853722011518], [2.398911783064243, 48.8285602097001], [2.399012320234954, 48.82858319920003], [2.399099288182465, 48.82860162358967], [2.399205253246101, 48.828626438936844], [2.399336932813713, 48.828665773253384], [2.399464546948918, 48.828703288269644], [2.399775477677678, 48.82879118862954], [2.400072705448655, 48.828886214385186], [2.400679206268545, 48.82909521075063], [2.401026650227233, 48.82920667436495], [2.401508451268693, 48.8293619790812], [2.402237349716066, 48.8295895672114], [2.402470904475507, 48.829535872844524], [2.402681353938133, 48.829477565783456], [2.402871422397042, 48.82941465975136], [2.403206566386744, 48.82929221974302], [2.403337835463661, 48.829248805648874], [2.403551181973209, 48.82917522223898], [2.40372505703706, 48.82909874355283], [2.403814047852145, 48.82905961498086], [2.403981327437226, 48.82896421629486], [2.404051299509554, 48.82892049591609], [2.40447207039581, 48.828695051561844], [2.404813383430775, 48.8285087825293], [2.404928550228594, 48.8284437016791], [2.404994403687227, 48.82840265834996], [2.40507677680935, 48.828346407885654], [2.405145395288331, 48.82830178074869], [2.405266255860331, 48.82821514302334], [2.405351424404527, 48.82815261067953], [2.405376157666399, 48.82813384690045], [2.405815894710641, 48.82779697019763], [2.406247750587866, 48.82743397095206], [2.406396258547601, 48.82731149450184], [2.406508972984572, 48.82722211692162], [2.406550193647732, 48.827190843528534], [2.406890894669909, 48.826937112605115], [2.407448546501513, 48.826530663487375], [2.407532296517471, 48.826472619347065], [2.407588631465794, 48.82642972864218], [2.407706677790518, 48.82635026937132], [2.407875426181227, 48.82624407991367], [2.408085331507646, 48.826112012176594], [2.408285568754853, 48.825991588045014], [2.408674960546763, 48.825766872628485], [2.409175132460024, 48.8255022315781], [2.409379135117874, 48.82540970468422], [2.409648687584266, 48.825302211737], [2.409730745333062, 48.82527293754224], [2.409818302001615, 48.82523919357266], [2.409955145964196, 48.825183208450866], [2.410104166452181, 48.82513447820677], [2.410269520772101, 48.82508672769753], [2.410449836696662, 48.82504084946216], [2.410635549558315, 48.824999494409816], [2.410822613982786, 48.824959045099284], [2.410907282795905, 48.82493967604413], [2.411139313730769, 48.82489764899615], [2.411364452974871, 48.82486278254726], [2.411578685631939, 48.82482876138115], [2.411757414268485, 48.824802659535976], [2.411931955241784, 48.824785530545725], [2.412419992792227, 48.82474925652107], [2.412460883648101, 48.824746759315346], [2.412623085017662, 48.82473676366258], [2.413110929286841, 48.824717573929036], [2.413785106197646, 48.824722679419466], [2.414411400604169, 48.824746433443856], [2.414938217958817, 48.82477419440097], [2.415082510945974, 48.82478209522247], [2.415248656759778, 48.82478470650045], [2.415303127328632, 48.82478587220954], [2.415657291919883, 48.82478400583384], [2.415976094429698, 48.82477746886051], [2.416233716898834, 48.8247607393166], [2.416513222032045, 48.82473602165078], [2.416861089157998, 48.824688253058206], [2.417131220375363, 48.82464909830096], [2.417465596863688, 48.8245895703717], [2.417763188274805, 48.82453076178574], [2.41787247039753, 48.82450251393073], [2.418067789813694, 48.824453999148545], [2.418233094541387, 48.82440983488909], [2.41860331160646, 48.82431180517004], [2.418914650479386, 48.82424136872771], [2.419242242363507, 48.824179104749824], [2.419386884881163, 48.82415552408766], [2.419744259478014, 48.82410959201878], [2.419962519541093, 48.82408007225143], [2.420329137132225, 48.824060265038135], [2.420677968534262, 48.824047565509126], [2.421462449379508, 48.82405406144441], [2.421718495045437, 48.82405619926745], [2.421826072954111, 48.8240585181834], [2.422878161027141, 48.82413015372422], [2.422955755226633, 48.82413412565788], [2.42305785549442, 48.82413911514567], [2.423351908353471, 48.82415312465412], [2.423449922693297, 48.82415809410392], [2.423625581060776, 48.824162538356966], [2.423884261913609, 48.82417277857938], [2.424332280975856, 48.82418213110469], [2.424516101584394, 48.824187512711624], [2.424653634008314, 48.82419087260083], [2.424837534048814, 48.82418905912863], [2.425131776070185, 48.82418597712025], [2.425480577413107, 48.82417596155309], [2.425670034352096, 48.82416428041901], [2.426232966554127, 48.824128309752375], [2.426575194682028, 48.82409667455754], [2.426982996027741, 48.8240473651966], [2.427420879060437, 48.82398740603445], [2.427741530761156, 48.82393587803593], [2.427958492642778, 48.8239000418875], [2.428318858027208, 48.8238289161513], [2.428768027745991, 48.823733031181916], [2.429226897097741, 48.82362190151594], [2.42937581636627, 48.823580341782986], [2.429694192167297, 48.823487426624816], [2.429860963974269, 48.82343246086036], [2.430014105783506, 48.823378329267314], [2.430269808521484, 48.823286912567866], [2.430565164841366, 48.82318129421122], [2.430628080921096, 48.823157310770554], [2.43037098941349, 48.822877281275716], [2.430403941923842, 48.82285315521179], [2.430465711835114, 48.82280938021869], [2.432194835497048, 48.82161963979934], [2.432634430984658, 48.82190053173316], [2.432890021773652, 48.82169308982855], [2.43248024229773, 48.82142583087871], [2.433093787310493, 48.82099074676378], [2.433280367057621, 48.82086661836464], [2.434107829815102, 48.82029673720223], [2.434287751289356, 48.82015818569431], [2.434261834796675, 48.819910735392], [2.434144075250625, 48.81921586161086], [2.434353594907106, 48.81936165215479], [2.434407640770513, 48.81940148026185], [2.43446171597879, 48.81943861035987], [2.434655187346717, 48.81955734322209], [2.434768951783175, 48.81961634033975], [2.434901851098009, 48.81966913216109], [2.435170386036825, 48.81964791659806], [2.436027653556641, 48.819592604336854], [2.436331907696514, 48.81954277467737], [2.436435702337469, 48.819516282710104], [2.436502638623519, 48.81949771132375], [2.43692491658807, 48.81936479453963], [2.437236793244596, 48.81923945107551], [2.437344953868419, 48.81918689702409], [2.437387511554405, 48.81915561918927], [2.437420468169279, 48.81913059178388], [2.437431460169089, 48.81912164976111], [2.437442471570391, 48.81911090908079], [2.437403319816507, 48.81882652268931], [2.437334899886153, 48.81822541867074], [2.437328614686424, 48.81817682286433], [2.43745251361453, 48.8181801039655], [2.437576383457783, 48.818186082925244], [2.438447510274185, 48.81823244788224], [2.439400339937337, 48.81828008894531], [2.439727077526854, 48.818291513508456], [2.439853739221728, 48.81829120756729], [2.439936889337019, 48.81828440207307], [2.44013736126348, 48.81825925905123], [2.441012128685444, 48.81809337000919], [2.441855394935067, 48.817943516267945], [2.442096739080841, 48.81791676199733], [2.442325672531203, 48.8179043393485], [2.442686608207405, 48.81790152534103], [2.443731293079062, 48.8178920000601], [2.44418090156304, 48.81787520404955], [2.444713170131853, 48.817897463350185], [2.445957624591825, 48.81792841865603], [2.446618136646436, 48.817929678656256], [2.446707989538549, 48.81793279259405], [2.447409099584877, 48.817958519177814], [2.447573825309133, 48.8179646765873], [2.447786272701002, 48.81796565793018], [2.448385683123888, 48.817949537855725], [2.448934733550395, 48.817930484570816], [2.449422529215229, 48.817908448603035], [2.449670555127019, 48.8178934016909], [2.449753722306276, 48.81788479070733], [2.449836898946705, 48.817875280335635], [2.450169681068156, 48.81783004362716], [2.450558421156089, 48.81777337128214], [2.450806758669985, 48.81772864410865], [2.451239473535738, 48.817634397817784], [2.451314544744705, 48.81761855360132], [2.452244419215034, 48.817388080440345], [2.452360486259382, 48.81735893275472], [2.452525711109092, 48.81731741881056], [2.452700355199984, 48.81728674024242], [2.452731752687149, 48.81727968896108], [2.453001997808052, 48.81722336563415], [2.453283089776461, 48.817171588164186], [2.453332181373584, 48.81716551700324], [2.453452200812278, 48.81714897756611], [2.453978137082168, 48.81712529862785], [2.454073511635533, 48.817121237259364], [2.454202941109536, 48.81711643189779], [2.454388252261232, 48.81710738453793], [2.454662128704556, 48.81709424399174], [2.454688003291218, 48.81709436200066], [2.454833793289463, 48.81708783182268], [2.455102212840572, 48.81707556476263], [2.455919276695358, 48.817081983643284], [2.458053997051857, 48.81701972850329], [2.458717081488417, 48.81703442398824], [2.459119228635603, 48.816996671384416], [2.45941357657735, 48.81684780710748], [2.459115403967742, 48.81736539730278], [2.459540902052885, 48.81757147911813], [2.460530369825204, 48.81802743277823], [2.461205214252256, 48.81835514915891], [2.462452056780199, 48.81894895048636], [2.462696062752353, 48.81905977056918], [2.462653372042782, 48.819105446696646], [2.46258308226595, 48.81918607426924], [2.462529348017552, 48.81924609066157], [2.462696960503023, 48.81936915850377], [2.462784389082918, 48.81974009240091], [2.462867047647515, 48.820177558136855], [2.46315839593887, 48.82071758961972], [2.46319718783961, 48.82078611593136], [2.463403193342943, 48.821149486802504], [2.463724635577016, 48.82167795962245], [2.463751319439641, 48.82173204147251], [2.463801935694713, 48.8218428909174], [2.463870035557541, 48.82197540358568], [2.463944779099117, 48.8221241346296], [2.464004828140454, 48.82224491929353], [2.464026027775454, 48.82230257394725], [2.465044244672474, 48.8240842854221], [2.465052186014251, 48.82410680513996], [2.465093540859406, 48.824191530689916], [2.465122665434857, 48.82427350341321], [2.465157201244621, 48.82435909779479], [2.465186418264485, 48.82443207722861], [2.465240895636577, 48.82456542722375], [2.465299394785839, 48.82470509072998], [2.465189202930904, 48.824957320142516], [2.465319736172734, 48.82497948864487], [2.465502853142915, 48.82558558104306], [2.465529328804514, 48.82566034678853], [2.465712037823177, 48.826173801959726], [2.465730572119004, 48.82622604799037], [2.465794430549394, 48.82637472863455], [2.46589416228231, 48.826611707279206], [2.466178324692476, 48.827327971479264], [2.465433505689705, 48.827566573714144], [2.465391059409463, 48.827587968734306], [2.465232235297585, 48.827667302121164], [2.465094593138125, 48.82754077548066], [2.464971773905715, 48.827562710205385], [2.464857117912068, 48.8275855806973], [2.464743842380539, 48.82760665852787], [2.464661941154306, 48.82762337987247], [2.464651159771186, 48.827744745868785], [2.464646704073336, 48.82778070051556], [2.464637118493171, 48.82791826041127], [2.464610827079943, 48.82835613323222], [2.464607627050192, 48.828535092395484], [2.464632015731461, 48.8288131050747], [2.464649617136646, 48.82895618272735], [2.464670118369935, 48.829082185427644], [2.464679062295359, 48.82913978473997], [2.464702177139617, 48.82927659147525], [2.464738811968145, 48.82942335169687], [2.464771526757094, 48.82955390580362], [2.464805613092892, 48.82968356665985], [2.464899058013574, 48.830002359329356], [2.464947851837453, 48.830159066778904], [2.465004468244835, 48.83034998496116], [2.465028230500576, 48.83042383899205], [2.465037516514103, 48.830448163319346], [2.465077154299844, 48.8305679558325], [2.465144936633405, 48.83073284230546], [2.465208909624013, 48.83087073081267], [2.465272790705598, 48.83101761247781], [2.465348867285402, 48.83117084413991], [2.465426352616533, 48.83131958521778], [2.465481400294531, 48.83139807572847], [2.465505790718533, 48.8314107757957], [2.46553293320731, 48.831420790070545], [2.4655614010233, 48.831434407708464], [2.465581612699126, 48.83145608270479], [2.465584180362069, 48.8314713833279], [2.465577074349572, 48.83150013115213], [2.465568633789725, 48.8315261749268], [2.465575149755092, 48.8315549836172], [2.465627464284061, 48.83163436119103], [2.465822578289197, 48.831869966137454], [2.466051795461354, 48.832101226153945], [2.466273218864985, 48.832295577093056], [2.466519228374958, 48.832483741720495], [2.466569253346513, 48.83252083863488], [2.466938823254062, 48.83274912522691], [2.467127134516121, 48.832851592095594], [2.467329087259266, 48.83295232068805], [2.467651793278927, 48.833101252538604], [2.467760304190909, 48.83314760282774], [2.467882336739519, 48.83320390613508], [2.467962286840511, 48.8332456323665], [2.468095144387775, 48.83330917848211], [2.468248335054884, 48.83338270780468], [2.468485472111639, 48.833506974153714], [2.468618156780551, 48.8335876067364], [2.468756135072831, 48.83368355179203], [2.46889120610101, 48.83379747096154], [2.469012572659205, 48.833919423361415], [2.469197169521043, 48.83411990051157], [2.469324827037553, 48.834293143947015], [2.469397245421389, 48.83440588512177], [2.469409341118772, 48.83442212724313], [2.469443242380142, 48.83443756672979], [2.469471685406375, 48.83445388135569], [2.469496032469829, 48.834471077166846], [2.469499917944532, 48.83449088029899], [2.469488708542684, 48.83452140878866], [2.469482994004041, 48.83454746485361], [2.469496296446822, 48.834579001418774], [2.469510961185397, 48.83461054402352], [2.469537639367605, 48.834666422595305], [2.469609262628322, 48.83485740428599], [2.469724350790882, 48.835195174038844], [2.469787974771502, 48.83550303663468], [2.469834017515897, 48.83579823017231], [2.469841147530554, 48.83616879719278], [2.46983898943172, 48.83624703174132], [2.469838477205296, 48.836297393495414], [2.469851066867315, 48.836399076694924], [2.469835303782603, 48.83647545221231], [2.469803238423912, 48.836547258676376], [2.469661828529987, 48.8367876595366], [2.469573293706516, 48.83691947246479], [2.469472533957363, 48.8370476336658], [2.469235747548336, 48.83728851022818], [2.468992403699485, 48.83750417518382], [2.468911255037571, 48.837579360874805], [2.468835619729405, 48.83764827549326], [2.468673394608693, 48.83779145205723], [2.468546929395536, 48.83790151108567], [2.468075517268972, 48.83830322665949], [2.468023306407836, 48.83834616356632], [2.467913269660948, 48.838448200739], [2.467786608412481, 48.83857714451481], [2.467621248579605, 48.8387598772651], [2.467319402317011, 48.83909938927572], [2.467189700650502, 48.839258896902], [2.466928748572963, 48.83959589187597], [2.466639265157901, 48.83992466479101], [2.466436743355435, 48.840143204210996], [2.466164109594404, 48.840422586498946], [2.466073332363315, 48.84050582132794], [2.465876734920338, 48.84067761972458], [2.465699348660685, 48.84083601327191], [2.465504258746295, 48.84099342808429], [2.465410865260515, 48.84106585843884], [2.465258517101661, 48.841173999356464], [2.464903241808691, 48.84140624272275], [2.464679822019387, 48.841535649440374], [2.464478376103009, 48.84164806638153], [2.464181057444528, 48.841808618685896], [2.463741475493356, 48.84202339315209], [2.463519810699625, 48.84211413332972], [2.46318597737142, 48.84224753876315], [2.462992978353152, 48.84233301046549], [2.462847962202229, 48.84238991801158], [2.462672906191356, 48.842452985928475], [2.462445908347604, 48.84253200855339], [2.462209409518417, 48.842607390621644], [2.461793922353881, 48.84273053215727], [2.461464604893391, 48.84282168347967], [2.461008304467565, 48.84293834307325], [2.459873497765623, 48.84318144621913], [2.459336924080816, 48.84328604538809], [2.458614645467267, 48.843428474059436], [2.458370345152385, 48.843466939756574], [2.457843527623447, 48.84354999193478], [2.456779071761001, 48.84370794602797], [2.45645703966083, 48.84375235030069], [2.455169018589405, 48.84391916698846], [2.454324563365998, 48.844016045663075], [2.453503390540452, 48.844101333159045], [2.452620580123384, 48.844216911003514], [2.452228901075268, 48.844275374856], [2.451865891066271, 48.84432857267122], [2.450813502906814, 48.84450181801257], [2.450371339412656, 48.84456633949158], [2.449992003485367, 48.84461675856113], [2.449526722303671, 48.84467667387498], [2.449090129484814, 48.84472952467411], [2.448653554808405, 48.84478057526037], [2.448268851168167, 48.84482286996228], [2.44785282741999, 48.844863220176364], [2.447455935881398, 48.84489826119663], [2.446969039372333, 48.8449400796912], [2.446497282929874, 48.84496757661606], [2.446646486889991, 48.84580196618306], [2.444920679114487, 48.84586861758068], [2.444286978123055, 48.84587556858616], [2.444135703949514, 48.845877563877146], [2.442269940068898, 48.845906653274334], [2.441832429345914, 48.84591630443674], [2.44085635514205, 48.84595581481634], [2.44075815339398, 48.84596434933394], [2.440681366302255, 48.84524720654426], [2.44086390998716, 48.84525165724382], [2.440801139730464, 48.84487903180947], [2.440704312198335, 48.844886673352136], [2.440615688866213, 48.84489165511907], [2.440607909361443, 48.84485474527265], [2.440600207091122, 48.84481064096161], [2.440592398650244, 48.84477642903518], [2.440576916945585, 48.84469541486634], [2.440519707011924, 48.84443973102235], [2.440334247985238, 48.84445325320881], [2.440171951937438, 48.8444668835022], [2.439994658265582, 48.84448134272583], [2.439713724857317, 48.84450341052961], [2.439488703517968, 48.84452124288219], [2.438767196121514, 48.844585311773905], [2.43861442732519, 48.844599884004396], [2.43837981897427, 48.84462216605231], [2.438172470882146, 48.84464367631086], [2.437958319623623, 48.844664254895896], [2.437940155768809, 48.8445796303439], [2.437914282329583, 48.84445180059251], [2.437896138019327, 48.8443653774017], [2.437541681997126, 48.84261446730329], [2.4372817171976, 48.841326266941735], [2.437184204443509, 48.8408932178423], [2.435776725652443, 48.84101969235421], [2.435546277971638, 48.84103659233209], [2.434157914406086, 48.84115864123015], [2.433669709036991, 48.84119770136311], [2.433572042847849, 48.84115766726639], [2.433560279288979, 48.84111174438191], [2.433544643445916, 48.841046017312934], [2.433454624414471, 48.841054584582004], [2.432915783985954, 48.84111408702317], [2.432487613868868, 48.841145332708685], [2.43233490237445, 48.84115540041465], [2.432248999683828, 48.84116128824106], [2.431532950269272, 48.841228037491554], [2.430718812462053, 48.84129341635582], [2.43063972161067, 48.841299335444205], [2.428351124513046, 48.841507863981974], [2.428244744502208, 48.84151724850745], [2.428130169985212, 48.84152839247845], [2.427575156761254, 48.8415707057995], [2.427303780868215, 48.84159189084562], [2.425818628737498, 48.8417151783742], [2.425279762847905, 48.841775545693885], [2.425182928889207, 48.84178407400448], [2.425095651972973, 48.84179084945313], [2.42500427772606, 48.84179850450081], [2.424919695918368, 48.84180799084557], [2.424829614606771, 48.8418219474724], [2.424738150931653, 48.84183769609733], [2.424652097345379, 48.84185706809918], [2.424534597793657, 48.841886181695926], [2.424464863838393, 48.84190833013738], [2.424400589618051, 48.841929605451625], [2.424347225006843, 48.84195003387269], [2.424195116954184, 48.84202844520575], [2.424095030739684, 48.842084622880826], [2.424023605893132, 48.842136441688396], [2.42394800402987, 48.84219633454606], [2.423880556955076, 48.842258065339585], [2.423806187977489, 48.84232965567315], [2.423726299278978, 48.842407514861634], [2.423643605821189, 48.8424925553296], [2.423569156612503, 48.842571339967044], [2.423491922523838, 48.84265550726982], [2.423413216258988, 48.84274956033883], [2.423283341302334, 48.84291171773742], [2.423152967854647, 48.843118840362244], [2.423043319611246, 48.84329998145359], [2.422965715186558, 48.84341742274145], [2.422944958988702, 48.84344610200076], [2.422902054143753, 48.84350615185606], [2.422853619496059, 48.843573369859094], [2.422765094224837, 48.84369255701604], [2.422653126853874, 48.843836812913985], [2.422534595380905, 48.843958553127685], [2.422435387811295, 48.84405790263026], [2.422325349452309, 48.84415090425973], [2.422225007899309, 48.844229562934466], [2.422112483071239, 48.84430096783076], [2.422019252758617, 48.844352680029466], [2.421923317151381, 48.84440258037212], [2.421847988927573, 48.84443729119556], [2.421700291351149, 48.84436283022479], [2.421448168812278, 48.84424379570883], [2.421003628269745, 48.8440284978827], [2.420262261349782, 48.84367146082271], [2.420114528184451, 48.84360059507176], [2.420056300570065, 48.8435679360077], [2.419859968239216, 48.843456363315184], [2.419865327082177, 48.84334217111042], [2.41986606785358, 48.84327562236503], [2.419865686374399, 48.84318748362934], [2.41986206937262, 48.843145196355586], [2.419848924917878, 48.843101963520546], [2.419823548067881, 48.8430559732903], [2.419784646448259, 48.84300092389523], [2.419734915066901, 48.842939526461414], [2.419582435801276, 48.8428056820299], [2.419469248987137, 48.84269181390963], [2.419441037510714, 48.8426557027442], [2.419390134732614, 48.842577211685494], [2.419370138333729, 48.84253754294386], [2.419356954364107, 48.842497907263166], [2.419354680263449, 48.84245742517706], [2.419357555615491, 48.8423216362718], [2.419371841680655, 48.84214003553305], [2.419382280642246, 48.84205914407576], [2.419393871653109, 48.84199714470071], [2.419442499539575, 48.84179052857353], [2.419469538255405, 48.84168723371185], [2.419538952900591, 48.84144924085478], [2.419634904840926, 48.84127523104848], [2.419713896051174, 48.841155999686826], [2.41977603702379, 48.84108165442025], [2.420019821334009, 48.84084630551322], [2.420132581698629, 48.84075331893757], [2.420222160312097, 48.84066201861391], [2.420303634051087, 48.840564383434725], [2.420393582068758, 48.84043980850816], [2.420475365118683, 48.8403142945883], [2.420522687346351, 48.84022458800454], [2.420565932154412, 48.840133962286934], [2.420613354031453, 48.8400352625522], [2.420719456350945, 48.839805540612424], [2.420772547136299, 48.83968708234809], [2.420930485621125, 48.839329002811134], [2.421062063196677, 48.83889075240115], [2.421073451730373, 48.838846738908885], [2.421087684873328, 48.8387919468674], [2.421254093592629, 48.83816140160259], [2.421399159894271, 48.837489381954875], [2.421447122003682, 48.83721890641052], [2.421475736306939, 48.8370958323871], [2.421512524488783, 48.83697279787503], [2.421585771008497, 48.83675640609878], [2.421690280536159, 48.83654646092148], [2.421801471133152, 48.836348239610935], [2.421991639117929, 48.836030784749404], [2.422138636243514, 48.83579766096038], [2.422038224535489, 48.835761201345754], [2.421675906213893, 48.83563174070069], [2.421016385376026, 48.83539831340199], [2.420915945249886, 48.83536455077383], [2.420846708088572, 48.835342630856616], [2.420621447102114, 48.83526239605715], [2.420386670788107, 48.83518031599032], [2.420222454034239, 48.83512375964007], [2.419796237439636, 48.83498319108712], [2.419349709161045, 48.834831730031404], [2.418225726669396, 48.83446922122505], [2.417997648546866, 48.83439796131375], [2.417337888379132, 48.834188794968696], [2.416996956303084, 48.83409809667267], [2.416608457114134, 48.83399727239079], [2.416456276936897, 48.8339614548461], [2.416198022348806, 48.833908930858854], [2.41596829499726, 48.83386374051868], [2.415752049454575, 48.83383120668345], [2.415470466512807, 48.83379385634516], [2.415166997155564, 48.83376449260278], [2.414898855796042, 48.83374339518876], [2.414633378560053, 48.83372770639498], [2.41440187689856, 48.833719378273166], [2.414200304373577, 48.83371479374672], [2.413921063446627, 48.8337116270567], [2.413505425613419, 48.83372308016081], [2.413170099598751, 48.8337403220675], [2.412954691917735, 48.833754554209634], [2.412742018752124, 48.83376790002622], [2.412586590425243, 48.833778828525645], [2.412301504825286, 48.83381070455579], [2.412083209826149, 48.83383931077028], [2.411844419906813, 48.833873211992504], [2.411628818451133, 48.833904528716275], [2.411471874927622, 48.83392893877813], [2.412245612562639, 48.834538914678525], [2.412852033331908, 48.83621650676287], [2.413017056524079, 48.83668498494791], [2.413203191666156, 48.83721472284068], [2.413571497493247, 48.83826428454739], [2.413576795197299, 48.8382778009268], [2.414022856085411, 48.83968388767919], [2.414046530133938, 48.83975954982694], [2.414248164600637, 48.8404881187325], [2.414849601173434, 48.842378814349296], [2.414913959728252, 48.84259317610072], [2.415068999715945, 48.84310476887678], [2.415099237006264, 48.84320294657033], [2.415112367454111, 48.84324707923027], [2.415138678876488, 48.84333084800581], [2.415164950017218, 48.84341821399685], [2.415200395510431, 48.84353800164365], [2.415270146448818, 48.84375778546203], [2.415299092607447, 48.843849661242146], [2.415588650567442, 48.84476032448928], [2.415612339279209, 48.8448350866772], [2.415663673457238, 48.84499632196302], [2.415736548076175, 48.84530245851013], [2.41575222322788, 48.84536279182209], [2.415767656458796, 48.84544470845622], [2.41578781412454, 48.84559140167269], [2.415859682299911, 48.84598746847177], [2.415864779782866, 48.84601897075343], [2.415914835855735, 48.84629441745364], [2.415937890768933, 48.8464258356607], [2.415963529871942, 48.84656985741314], [2.415971110769568, 48.84662295628228], [2.415983930397751, 48.84669496714521], [2.416026185035229, 48.846937099470736], [2.416082541956762, 48.8472584436266], [2.416349838517878, 48.8486996111611], [2.416341130298895, 48.84923378355704], [2.416325962628901, 48.84937131032445], [2.416321602687409, 48.84939557154028], [2.41630995601098, 48.84946206671665], [2.416305626273584, 48.849483630023634], [2.416295473172902, 48.84953844091462], [2.416292566526907, 48.8495546150554], [2.416292395280994, 48.849569903189824], [2.416287995013768, 48.84959776160807], [2.416282181708712, 48.84963010988725], [2.416276408690783, 48.84965886095744], [2.416266154787504, 48.84972266485628], [2.416202227882442, 48.850076697205225], [2.416157072995073, 48.850336389210646], [2.41604752505516, 48.85099148096691], [2.416002207346144, 48.8512655615105], [2.415997857174139, 48.85128892337263], [2.415986159266819, 48.851359914907086], [2.415842449810515, 48.85214434542848], [2.415476353848527, 48.85416519193267], [2.415442850796509, 48.85435748861723], [2.415437076791711, 48.8543862395247], [2.415418129624172, 48.85449586733038], [2.415370655098158, 48.85471867348281], [2.415367717605381, 48.85473754541908], [2.415286455935682, 48.8551778283337], [2.415121455219415, 48.85615730944208], [2.415117043674978, 48.85618606694878], [2.414946756430612, 48.85727164383932], [2.414865052972925, 48.85775059516106], [2.414777613619788, 48.85825469981633], [2.41475298984724, 48.85838408495887], [2.414739673209085, 48.85847755161993], [2.414711878934122, 48.85864649235738], [2.414701692063775, 48.858704000544705], [2.414419985069013, 48.86024229811034], [2.414370428780846, 48.86064945777057], [2.414265538788356, 48.86209868337593], [2.41424435380272, 48.86228564263895], [2.414245595466344, 48.86229644080869], [2.414136707359646, 48.863373317846865], [2.414120439789225, 48.863486555066096], [2.414117481122138, 48.86350722540364], [2.414105383472701, 48.86361328830134], [2.41409484097336, 48.86370227134337], [2.414020883147005, 48.864218130237376], [2.414012057473055, 48.86427564475067], [2.413994203750112, 48.86440865956257], [2.413985388130426, 48.86446527477425], [2.413951255837119, 48.86471242591996], [2.413975532755114, 48.86497784979472], [2.413977335687163, 48.865181109189784], [2.413979138633279, 48.8653843685475], [2.414003064371064, 48.86604459998885], [2.41400352714293, 48.866124643334274], [2.414009854516088, 48.86628925314468], [2.41400932848738, 48.86633601613415], [2.414009710343823, 48.866423253763855], [2.414011728438981, 48.8664862172816], [2.413996810038716, 48.866721770678105], [2.413999182197128, 48.866753259103014], [2.413999020337852, 48.86676764770934], [2.413994394833126, 48.86681528994439], [2.413981727024356, 48.86709312313608], [2.413960644948422, 48.86751301028419], [2.413956477652903, 48.86921633249775], [2.41393808585335, 48.8693970088529], [2.413930460508067, 48.869468918336686], [2.41393245838964, 48.86953368025364], [2.413932326856992, 48.86954537096681], [2.413926297384811, 48.86959660354719], [2.413918823766367, 48.8696550237343], [2.413868647460327, 48.87011613683572], [2.413837163536686, 48.87049100516856], [2.413832679230656, 48.87052605724955], [2.413812498274286, 48.87074449665097], [2.413787704269942, 48.870888268687914], [2.413720181761155, 48.87155794167296], [2.413704967044372, 48.871819573181654], [2.413699048431472, 48.87186091352425], [2.413691675458417, 48.871910340740705], [2.413660280284813, 48.8722771148678], [2.413658471607939, 48.87231667665789], [2.413649310091609, 48.87240386707167], [2.413646198880089, 48.87243802647964], [2.413431063629795, 48.87314025051152], [2.413149061161167, 48.87408946213774], [2.412940718869717, 48.87479261693681], [2.41282022351126, 48.87520122146911], [2.412719624294485, 48.87553797692035], [2.412668536044865, 48.87571579367639], [2.412453090020587, 48.87644319370212], [2.412208384325074, 48.876742368492486], [2.411648466507143, 48.87742580612456], [2.410820319151064, 48.87843617581535], [2.41068219651571, 48.878592878384545], [2.409929745359618, 48.87953796272843], [2.409415210652019, 48.88018204176997], [2.409359835767223, 48.880255513389756], [2.408440118802962, 48.88043623371721], [2.408354026028352, 48.88045289549202], [2.408280224879402, 48.880467819303995], [2.408068396152383, 48.880509939827526], [2.407856546632825, 48.88055385852693], [2.407411010438594, 48.88064338536728], [2.407174586520525, 48.88068987919958], [2.407077544145843, 48.88071008314304], [2.406917638313953, 48.8807425661781], [2.406761832965059, 48.88077416999172], [2.405612426937694, 48.88100679049722], [2.40457585141299, 48.88126873962043], [2.403965958291773, 48.88153999935629], [2.403709676262499, 48.88165293761746], [2.403654858139889, 48.88167694638392], [2.403494493982591, 48.88174899291014], [2.403467089977941, 48.88176054760886], [2.403232724957177, 48.881864600778805], [2.403158703907276, 48.88189840618208], [2.403047703077026, 48.88194641637552], [2.402905145386395, 48.88201135627895], [2.402629666381498, 48.88213318971946], [2.402540583986401, 48.88217231554063], [2.402247274312455, 48.88230305236782], [2.402025238063837, 48.8824017687467], [2.401737410896384, 48.88252983371632], [2.401507160545184, 48.882631206054434], [2.401343288081368, 48.88277068153983], [2.401008650422906, 48.883055892590306], [2.400979747165696, 48.883079130439505], [2.400581844136197, 48.883410788589714], [2.400508810029978, 48.88347697296666], [2.400492240382726, 48.88349487649757], [2.400106665255306, 48.88382119875486], [2.399964639527468, 48.884075895243306], [2.399893615779398, 48.884204142674704], [2.399797518782036, 48.88437812989987], [2.399745978178279, 48.884472300560695], [2.399686131518929, 48.884577221436125], [2.399523191633703, 48.88487138263544], [2.399498118211742, 48.8849171224012], [2.399486970997728, 48.88493775094096], [2.399467486685998, 48.884971827520566], [2.399280885994178, 48.885307238504225], [2.399251617609397, 48.88536195039042], [2.399247479471482, 48.88548423761902], [2.399241811713724, 48.88562090633206], [2.39923217171942, 48.88586547387517], [2.399227597744506, 48.886025530426316], [2.399224082004894, 48.886093861329805], [2.399220265375465, 48.886188271082034], [2.399215712086218, 48.886346529044395], [2.399206829247258, 48.886525449678814], [2.399202078751087, 48.886700793729155], [2.399196286232862, 48.886848253531724], [2.399189611731325, 48.88707215127189], [2.399183788008384, 48.88722230883382], [2.39917431346504, 48.88745248769998], [2.399171860301647, 48.88754690417658], [2.399169562774806, 48.88762783160108], [2.399139498914749, 48.888460452292485], [2.399135941386648, 48.88853238011739], [2.399119799374467, 48.888631224412116], [2.39911130594204, 48.88865816141504], [2.398941654577955, 48.88953234876759], [2.398903121545699, 48.889680543151634], [2.398772315958186, 48.89026084702538], [2.398769474282696, 48.89027072527236], [2.398236114786815, 48.89264044859626], [2.39799944260082, 48.89352868384395], [2.397882252664049, 48.89387343231392], [2.397770121226809, 48.89425238002987], [2.397667826349162, 48.89460619614394], [2.397609202840061, 48.89472191303625], [2.397390853554831, 48.89508593672748], [2.397192022187578, 48.895413186229725], [2.397044568009203, 48.89566155426343], [2.397007087405705, 48.89571802240866], [2.396943120266674, 48.89582381949854], [2.396919496928808, 48.89586147177186], [2.39680673105142, 48.89605875315269], [2.396738494301983, 48.89617981695213], [2.396700898365535, 48.89624617686043], [2.396539383644064, 48.896530445858595], [2.396015721245967, 48.89746219350318], [2.39598519344668, 48.89750700523258], [2.395962901268387, 48.897547361921866], [2.395932258596785, 48.89760206550691], [2.395905801534079, 48.89764869637111], [2.395866808247499, 48.897717746831816], [2.395838966272525, 48.897766169318025], [2.3957944544896, 48.897840587790874], [2.395786062202648, 48.89785853172246], [2.395761000117235, 48.89790247164231], [2.395713634991735, 48.89798766744261], [2.395669185473695, 48.89805669028936], [2.395610584956599, 48.89816970805669], [2.39551809460183, 48.89826456847116], [2.395055428238459, 48.89852213385689], [2.394629782616, 48.898762797606935], [2.394390875859688, 48.89889738601226], [2.393878739782337, 48.899185273228596], [2.393433851559661, 48.89943752631306], [2.392789745940771, 48.89981197362893], [2.392723865964706, 48.89984671277823], [2.392637421313149, 48.89989034072603], [2.392446579433899, 48.89999639091715], [2.392379314021241, 48.90003292146953], [2.392198039985452, 48.9001372211728], [2.391967367584056, 48.90026645055486], [2.391772304908399, 48.90038326996314], [2.391672092544936, 48.90043761902447], [2.391492232236024, 48.900537428257145], [2.391441406994442, 48.900567746616375], [2.391379606639099, 48.900603405052465], [2.39133010320764, 48.90063732732699], [2.391249196196807, 48.900673787903195], [2.391196964614367, 48.900707696254784], [2.39113238333548, 48.900747836982504], [2.39107744463727, 48.90077993289507], [2.391007512366607, 48.900811053232744], [2.390837239618765, 48.900907312964584], [2.390648764868561, 48.900927038368955], [2.38941853401164, 48.9011447015391], [2.389332400904481, 48.901161349320645], [2.389265395555089, 48.90117539664484], [2.388185332320259, 48.90138212175605], [2.385581611347943, 48.90193086258903], [2.385436663122645, 48.901960695504684], [2.385053788837779, 48.90203876899978], [2.384871915446142, 48.902076505440185], [2.384530045616338, 48.9021475933584], [2.383840066784666, 48.90212516024929], [2.383624527854535, 48.90212584984735], [2.383565863671846, 48.90212644724332], [2.383385842920003, 48.90212282265384], [2.38334493250573, 48.90212171271876], [2.383238559044116, 48.90211936637592], [2.383121273309046, 48.90211696373586], [2.38304353395085, 48.90211566400621], [2.382960349114633, 48.902113436860965], [2.382791240731127, 48.90210986759516], [2.382608492020509, 48.9021062277789], [2.382226626258507, 48.902098862883804], [2.382113443394346, 48.90209558110729], [2.382005706007042, 48.90209322663258], [2.381837951110512, 48.902090562315074], [2.381720665505002, 48.902088158303435], [2.38137835699287, 48.902080994896586], [2.381018326826204, 48.90207283961491], [2.380973324399999, 48.902071707721575], [2.380817856626233, 48.90206820616732], [2.380616001028825, 48.9020653638425], [2.380427807195329, 48.90206079322684], [2.380371892524332, 48.90205960465839], [2.380350078692645, 48.902058592492835], [2.380268247390568, 48.902057269790845], [2.379856384301887, 48.90204884280499], [2.379775917060788, 48.902047526829186], [2.378720359464077, 48.90202496916016], [2.378709447205109, 48.90202491255545], [2.378071209021053, 48.90201080837892], [2.377807993861653, 48.902005844062685], [2.377416592050434, 48.90199751497377], [2.377349765264714, 48.90199626827091], [2.376618784463551, 48.901980774865535], [2.376564233996427, 48.901979591618904], [2.375345017135831, 48.90195435356865], [2.373859880662742, 48.90192231734694], [2.37270611813658, 48.90189919320877], [2.372582024082345, 48.90189584527211], [2.372163343377752, 48.901887356103835], [2.372073339233639, 48.90188508564579], [2.372017414094195, 48.90188479243248], [2.371864675537414, 48.90188129356002], [2.371841497918339, 48.901880272691066], [2.371646474533444, 48.901876551763024], [2.37096186316497, 48.90186216638516], [2.370535009708818, 48.901852729285615], [2.370301804653316, 48.90184790618167], [2.370007218452392, 48.90184275977538], [2.369979948807781, 48.90184171702181], [2.36993766399035, 48.9018414945873], [2.369767182472127, 48.901838799011834], [2.369103054303869, 48.901822712158655], [2.369021212759208, 48.90182228102753], [2.368937974485927, 48.90182454041936], [2.368883380747902, 48.90182695069541], [2.368749728027093, 48.901824447729986], [2.368310577227931, 48.901816736510796], [2.367964169356939, 48.90181041243804], [2.367666877395985, 48.90180344736897], [2.366830905114833, 48.901784641905365], [2.366369952440562, 48.90177500968348], [2.366177668838694, 48.90177039502767], [2.365619903608481, 48.90175754961058], [2.365340322639595, 48.90175247119648], [2.364009288677851, 48.90172472650055], [2.363766525654217, 48.90172073922461], [2.36360151193412, 48.90171716460115], [2.362408212914533, 48.90169283181553], [2.362293646132468, 48.90169132255701], [2.361150806042094, 48.9016681452037], [2.359457013639584, 48.90163301852465], [2.35940381688157, 48.901632734011486], [2.359291989425714, 48.90163033721816], [2.359158337671854, 48.90162782354946], [2.359120156203542, 48.90162671993623], [2.359086055722875, 48.901626537462796], [2.359038326122734, 48.90162538272917], [2.358972875349338, 48.901623233817844], [2.358895126260151, 48.90162281766865], [2.358806487172401, 48.90162054454195], [2.358702843883925, 48.90161819101214], [2.358573284246299, 48.901615698601006], [2.35851873457333, 48.90161450713525], [2.35843417648961, 48.9016131549042], [2.358409624151637, 48.90161302338369], [2.357731840008278, 48.90159859891523], [2.357641825897837, 48.90159721686642], [2.357403167112321, 48.90159233938465], [2.357214965931255, 48.90158863154861], [2.357044497008982, 48.901585018609126], [2.356865844004008, 48.901581361480766], [2.356621729293644, 48.90157645314405], [2.356448532417542, 48.90157282470187], [2.356261695392359, 48.90156912269705], [2.356046225156754, 48.90156436714113], [2.355788459304858, 48.90156028302201], [2.355527976592666, 48.90155528441462], [2.355238871856175, 48.90154833253382], [2.355047931814116, 48.90154550586085], [2.354979742130545, 48.90154423933125], [2.354835189819925, 48.901540762816396], [2.354638804910827, 48.90153700684668], [2.354513337718505, 48.901534532092924], [2.354411047659314, 48.90153308145449], [2.354259675337649, 48.90152956748297], [2.35415330440419, 48.901527195307864], [2.354078283528919, 48.90152679074242], [2.354021017179394, 48.90152468326163], [2.35390099494807, 48.90152313654768], [2.353806900185463, 48.90152083028794], [2.353749622689755, 48.9015196219315], [2.353669156931065, 48.90151828841592], [2.353505508562932, 48.90151470724318], [2.353314579909617, 48.90151097855274], [2.353155023634654, 48.90150741899561], [2.352983191245182, 48.90150379290881], [2.352848176106213, 48.901501264829854], [2.352604050967087, 48.9014972475582], [2.352490860100926, 48.901494837041675], [2.352419942516376, 48.90149355430614], [2.351983536160429, 48.90148489871745], [2.351919438674254, 48.90148365258545], [2.348300009855396, 48.90141095340399], [2.348077709681767, 48.901407045655766], [2.347714950134087, 48.901399674667324], [2.346634833599941, 48.90137939826247], [2.345714295812388, 48.90136088329212], [2.345415645397357, 48.90135385553876], [2.34517697756419, 48.90134985294759], [2.344984697418347, 48.90134520426698], [2.344505997924759, 48.90133718942632], [2.344128257927195, 48.90132792694956], [2.34410916179737, 48.90132782237534], [2.344055965436121, 48.90132753104538], [2.343914131142866, 48.90132495554332], [2.343792768335562, 48.901321592721146], [2.343755951427352, 48.90132049168307], [2.343363207588415, 48.90131114458151], [2.343269090987228, 48.901310628549346], [2.343207699250371, 48.90131119122008], [2.342325356115518, 48.90129285963494], [2.34216033386627, 48.901290154723505], [2.341382974518393, 48.90127599003807], [2.340814297287776, 48.901263868346625], [2.340746131097113, 48.901260795206916], [2.340720226352347, 48.901259753299094], [2.340031516874215, 48.901246967101095], [2.339953768500651, 48.901246538656196], [2.339771003032622, 48.90124463198311], [2.338656815520172, 48.901222297140585], [2.338615906773836, 48.90122117192696], [2.337938121802096, 48.90120753469573], [2.337838572298443, 48.90120518573044], [2.337699455215792, 48.90120351720372], [2.337542651851238, 48.90119815342709], [2.337509927177313, 48.90119707310228], [2.337409013708171, 48.90119471623508], [2.337239911460498, 48.90119108265312], [2.336791234132825, 48.90118230377516], [2.336718953357934, 48.901181004189645], [2.33617210231542, 48.90116898131578], [2.335641619568375, 48.90115704673964], [2.335547514800854, 48.901155625387126], [2.335273407514963, 48.90114960780275], [2.335171130235882, 48.9011472414796], [2.335111125578976, 48.901146009066494], [2.334827458882608, 48.90114083670857], [2.334742913679455, 48.90113856849862], [2.334610639877139, 48.90113513576043], [2.331996389498468, 48.9010783155789], [2.331711359479876, 48.90107312823285], [2.331527254017837, 48.901069402864245], [2.331401777506931, 48.90106780315154], [2.331317232571729, 48.9010655325233], [2.331171307623034, 48.901062919084374], [2.330988566236083, 48.90105920050475], [2.330421234665914, 48.90104883558855], [2.330147116964155, 48.90104370552396], [2.329862087319423, 48.901038513776896], [2.329814358909924, 48.90103734739694], [2.329737986512133, 48.9010360207008], [2.329342496173721, 48.90102841085947], [2.328979718744675, 48.901022781628875], [2.328724708902853, 48.901016856043], [2.328316931267592, 48.90101007326248], [2.327926897327695, 48.90100248934464], [2.327854617024219, 48.90100118440941], [2.327733244398634, 48.900998704565595], [2.327630956144454, 48.90099723105538], [2.32726138237015, 48.900989759828846], [2.326534487849563, 48.90097668148764], [2.325836365736297, 48.90095386820078], [2.323269608756061, 48.90081258887796], [2.323081377762779, 48.90081152516024], [2.322553606246627, 48.900801346533925], [2.322174486647894, 48.900793805602966], [2.322073094515994, 48.9008283051328], [2.321803094208921, 48.90082138062903], [2.321331316873051, 48.90080611776666], [2.32049822285494, 48.9007780118461], [2.320434138736962, 48.90077584961216], [2.32030415835598, 48.90070136793793], [2.319887174744135, 48.9004597820956], [2.318520205834404, 48.89963812814688], [2.315106047800934, 48.89859432692203], [2.312451445254302, 48.89778231798387], [2.312318530256448, 48.897724897591424], [2.310673210920819, 48.89713087941697], [2.309534485272158, 48.89670343667195], [2.308675362659435, 48.8963810193657], [2.307687317214232, 48.896010186370226], [2.305715018811139, 48.895089551773225], [2.303774362351612, 48.89415377895442], [2.303743199037813, 48.89413830924048], [2.303440957190967, 48.8939953574942], [2.303380006812065, 48.89396352655814], [2.303319020408332, 48.89393439335652], [2.301836213826703, 48.8932395719327], [2.3017820963245, 48.89320688066117], [2.300588268146194, 48.89262884153035], [2.299608319530779, 48.89217255106242], [2.298628375977242, 48.89171715164238], [2.298109696243636, 48.89144431414667], [2.297994469142287, 48.89139237698391], [2.297528484196319, 48.89115671822705], [2.29734156289559, 48.89106119204135], [2.297326658916109, 48.89105390995651], [2.295579536585645, 48.8901497118755], [2.295475248871188, 48.8900960378908], [2.295013183223064, 48.88987478126655], [2.294959986671163, 48.88987536738554], [2.294570784210133, 48.88981282002974], [2.294041194889899, 48.88974404782285], [2.292940938649585, 48.88961884441294], [2.292747623772231, 48.88959342083648], [2.292710865105001, 48.88958870706405], [2.291779590675396, 48.88947348426213], [2.291633908192159, 48.889455535239186], [2.291147763745907, 48.88930157078027], [2.29052921525, 48.888956161749846], [2.288688176989798, 48.888052203099704], [2.287114077093996, 48.887278409200206], [2.28564161638002, 48.886554663565285], [2.284459571754662, 48.88563927820683], [2.284538198303594, 48.88557409667416], [2.281108010153241, 48.88304080641221], [2.281013519711559, 48.88297099007788], [2.280897352279332, 48.8827922237085], [2.280668770180329, 48.88176830401022], [2.280631551971274, 48.88159990421209], [2.280536086495831, 48.88110739261183], [2.279990437713355, 48.878755937308526], [2.279959643017464, 48.878616354341155], [2.279949332567544, 48.878573123987046], [2.279825200659237, 48.87857687400191], [2.279574720002907, 48.878547487345635], [2.279469949480847, 48.87853156801397], [2.279370794390896, 48.87850399096571], [2.277487029813821, 48.87796832085782], [2.270750115672039, 48.878834007593106], [2.264611303104791, 48.87962205068088], [2.261542031184247, 48.880001565768865], [2.258860650330937, 48.880333041153555], [2.258467171114177, 48.88038726309104], [2.256057163140736, 48.87555992449055], [2.255410336689475, 48.87426354268149], [2.254817140668558, 48.874080881374105], [2.24653328131267, 48.876141591171766], [2.246397777702424, 48.876177611391256], [2.24624979564664, 48.8762279424215], [2.245703788405577, 48.87645923248163], [2.245678236548144, 48.87643478913724], [2.24515691036051, 48.87590358680349], [2.243948457598492, 48.87471241995576], [2.24326867681199, 48.87401652610312], [2.243010273208006, 48.873784659127004], [2.242723387133835, 48.87354271850916], [2.241856061513683, 48.87290138870185], [2.241237339626035, 48.87250984873746], [2.240945304504729, 48.872341617518046], [2.240349927548229, 48.87203296092263], [2.239972015005246, 48.87186418217641], [2.239592597284357, 48.87170528548745], [2.239225056762461, 48.87157344356347], [2.238434063524161, 48.87131119922098], [2.238040417374283, 48.87119357709095], [2.237436253666629, 48.87102155093463], [2.236656637219516, 48.87082142233171], [2.235793010436581, 48.870586576867005], [2.23557581105711, 48.87052313465935], [2.234145928564209, 48.87004363306327], [2.233702274504687, 48.86989779649694], [2.232868454978849, 48.86958487669021], [2.232174877850841, 48.869284542257056], [2.23173635974686, 48.86906858161544], [2.231376025626286, 48.86872811125496], [2.230658982743392, 48.86807956693212], [2.230180814133666, 48.8675036035152], [2.229797308168969, 48.86707214387181], [2.229615132438551, 48.86685422676917], [2.228377351113232, 48.865380302593614], [2.228248359287424, 48.865161826525615], [2.22813877086302, 48.86492189083845], [2.227748529341865, 48.86384374171063], [2.227361445986879, 48.862829465030295], [2.227181294011469, 48.862384917775216], [2.226992086700438, 48.86199966929646], [2.226432833693757, 48.86092401834386], [2.225967898359756, 48.8600153555429], [2.225670292256979, 48.85940456240156], [2.225319584012276, 48.858515521364886], [2.224517586853296, 48.856538022553984], [2.224407449942075, 48.85615417946656], [2.224314779418416, 48.85569580206648], [2.224269304883469, 48.85508843570531], [2.224242958935111, 48.85420328886986], [2.224217174940928, 48.85373814925436], [2.224219105880447, 48.853516917562075], [2.225912135430609, 48.85303502945912], [2.22623348458705, 48.852962460531394], [2.226594150345919, 48.85281189994739], [2.227351684730698, 48.852642316896926], [2.229227704131867, 48.85222361974746], [2.230010953262444, 48.85206497793902], [2.231536662495809, 48.85174022205904], [2.232296652111729, 48.85158681212585], [2.233193699860402, 48.85138031378376], [2.233576415529299, 48.851303621593715], [2.234498100422845, 48.85108917698999], [2.235663190705886, 48.85081782157949], [2.237379106853175, 48.85043484797099], [2.237426957895583, 48.850424360548935], [2.237778292862653, 48.850349253661406], [2.238966278192639, 48.85009420059917], [2.239179626559883, 48.850042494757844], [2.239572636392844, 48.849912786163245], [2.239770051491471, 48.84983219822326], [2.240007900713618, 48.84968891103509], [2.240184049668478, 48.84957131322204], [2.240499842470816, 48.849316098961175], [2.241516051480364, 48.848407887660514], [2.241574563661168, 48.84832012042675], [2.241683779877297, 48.84821288842445], [2.241761224036451, 48.848135134143504], [2.241956924168444, 48.84798438085766], [2.242233905383634, 48.84777298495749], [2.242362313011173, 48.847657779525335], [2.242659105669377, 48.84758321224019], [2.243235014035359, 48.847431265540706], [2.245514981559115, 48.846855679095256], [2.24593492962924, 48.84674500613166], [2.246476586100555, 48.84660451974929], [2.246766541075142, 48.84653079858253], [2.247067460658852, 48.84645264886967], [2.247599534206474, 48.846314795204236], [2.247903163420554, 48.84623755980111], [2.248339503918155, 48.84612338396944], [2.249130050793303, 48.845920593796194], [2.249867271262905, 48.84573005522992], [2.250515688787809, 48.845555144489246], [2.250608573946109, 48.8455395376932], [2.250766770197565, 48.84553063545889], [2.251794599084775, 48.84550379132355], [2.252477551164905, 48.84548557637467], [2.252346879120349, 48.84519066571717], [2.251908753307213, 48.844291254096575], [2.25173479752875, 48.84397448682451], [2.25121623048677, 48.84289019704695], [2.251219763560905, 48.842739124585215], [2.251230934575343, 48.842720307683535], [2.251299357647797, 48.842130747390584], [2.251308552889278, 48.84205975446949], [2.251709308946857, 48.8388218162397], [2.251914920671709, 48.83864052903468], [2.251930255061036, 48.83861634178854], [2.252011052563391, 48.83849273319221], [2.252228618652613, 48.8382377713277], [2.252304927925927, 48.83814201510141], [2.252389565740778, 48.83803551835991], [2.253496801889639, 48.836734739961095], [2.253539754556531, 48.8366846429], [2.253546694861461, 48.83667569243998], [2.254830994989939, 48.83518353842222], [2.254950052155988, 48.83505117210693], [2.255072103122055, 48.83489993735982], [2.255144238417506, 48.83480954937467], [2.255303904911471, 48.834790757255405], [2.256537602212383, 48.83464283956144], [2.256994597220262, 48.834600710361876], [2.258502608424581, 48.83441850102334], [2.261405151319142, 48.834080306065005], [2.261492487377966, 48.834070052808585], [2.262791524526515, 48.83392337352912], [2.264992745234484, 48.83423731300498], [2.267475422198173, 48.83459250839906], [2.267788866344093, 48.83458543386231], [2.268101694609093, 48.8344281587163], [2.269889390560562, 48.83304684772497], [2.269930760703455, 48.83301112512243], [2.269645463710278, 48.83285738835996], [2.267338606820312, 48.831531984408755], [2.267625707632298, 48.827968595618195], [2.267826452957425, 48.827835816778205], [2.271099017149217, 48.82789178279021], [2.272793190186762, 48.827920084230804], [2.272852607332394, 48.8279573201825], [2.27292775495579, 48.82803872145983], [2.273075005441874, 48.82812685664373], [2.273310052391869, 48.82826858868033], [2.273417155918585, 48.82830521470322], [2.273460003286123, 48.82835853853629], [2.275275687274643, 48.82944611437502], [2.275304441773053, 48.82943549604931], [2.276297348984294, 48.83023206372399], [2.278827155788744, 48.8322925326446], [2.279051930653324, 48.83248995215073], [2.279110853401828, 48.8324651247331], [2.279164302435102, 48.83244206305254], [2.279944978334266, 48.832140977071646], [2.280391323890181, 48.83197907723867], [2.282670920956136, 48.83115275191212], [2.28358582721177, 48.83079578620694], [2.28468371260374, 48.830306799915725], [2.284719350405198, 48.83029082423809], [2.286693837737295, 48.82945180409926], [2.289407656009722, 48.8283338415895], [2.290235122003243, 48.82798889643309], [2.292191836480192, 48.827141584940556], [2.292292946367538, 48.8271187994265], [2.296970964406001, 48.82608422266646], [2.300177424536503, 48.82537543037823], [2.301315418488453, 48.82512576084684], [2.301866006231317, 48.82500216362484], [2.302099583430174, 48.82495316164459], [2.302120073693152, 48.82494878431644], [2.302330424148417, 48.824905042625296], [2.302551694332125, 48.82485956548828], [2.303185478490668, 48.824727453572734], [2.303886369460058, 48.824567848125106], [2.304002511210753, 48.82454064331091], [2.304066717016068, 48.82452662687369], [2.304947948752646, 48.82432579364496], [2.306016340072642, 48.824082869897175], [2.306863399755385, 48.82388991868041], [2.306959037060226, 48.823867988436156], [2.308315537176648, 48.823570052484584], [2.308348319891004, 48.823563047045205], [2.309081878490734, 48.82340270072457], [2.311614502997653, 48.822846199290275], [2.312147253873084, 48.822728747755924], [2.314145699672971, 48.82229053544684], [2.314615601049386, 48.82218710254785], [2.320597164441616, 48.82086676725861], [2.321039743668692, 48.82076765080374], [2.3216612560727, 48.82062907567994], [2.323964127671358, 48.820124072863955], [2.325503436242079, 48.81978740260211], [2.325562171287674, 48.81977424315431], [2.329296396286017, 48.81895072636294], [2.330413636639578, 48.8187042612137], [2.332461042459755, 48.81824713008821], [2.331898060637624, 48.817010929647054]]]}}]}