{"type": "FeatureCollection", "features": [{"type": "Feature", "properties": {"shapeName": "Stockholm", "shapeISO": "", "shapeID": "70781695B5805413017960", "shapeGroup": "SWE", "shapeType": "ADM2"}, "geometry": {"type": "MultiPolygon", "coordinates": [[[[18.190257443238067, 59.24419981922557], [18.18919047842394, 59.244181631805304], [18.187358516217103, 59.24499354139283], [18.185282292203283, 59.24599278755386], [18.182351151415048, 59.24711690505251], [18.175145432144348, 59.249240136926915], [18.171115114570966, 59.24980214677163], [18.165619226154433, 59.253860831245106], [18.158657768691, 59.257357156431965], [18.155726627902766, 59.2613525172452], [18.149253694053755, 59.26609640020848], [18.1458340296511, 59.26996592080718], [18.141193058008696, 59.27271176546225], [18.1359414322975, 59.27576937731595], [18.131056197949817, 59.278265183407484], [18.122629170541472, 59.28288194268799], [18.118232459808212, 59.28462866127518], [18.11749967528482, 59.294483465173414], [18.11713328212494, 59.29953450518104], [18.112614440937136, 59.30115566758394], [18.106996422065833, 59.30171682127366], [18.101256272740386, 59.302901448461114], [18.09905791737367, 59.30414838014542], [18.10017573045451, 59.31447491924922], [18.09536173369861, 59.31447491924922], [18.093723831478883, 59.31549651490957], [18.08480636383871, 59.31633234307236], [18.077526798417807, 59.31698241743737], [18.070975189539297, 59.31846825502345], [18.06678943942228, 59.31958259059627], [18.06278567844089, 59.32060403278257], [18.055870091291354, 59.32060403278257], [18.051502352038767, 59.32060403278257], [18.046770634515383, 59.31948973069376], [18.040219025636702, 59.31930401012755], [18.036397253790824, 59.31911828854703], [18.03166553626727, 59.318189665422835], [18.025477905659727, 59.317539614142504], [18.022202101220273, 59.31698241743737], [18.01747038369706, 59.31596086642577], [18.012556677038106, 59.315682256277114], [18.00946286173422, 59.31456779285048], [18.001091361500414, 59.31493928471832], [17.99271986126638, 59.31521790095542], [17.9874421763364, 59.31503215705129], [17.983984382761605, 59.31354616928428], [17.982710458813017, 59.31150283006008], [17.977978741289633, 59.31075976717045], [17.967787349700473, 59.30973802918487], [17.95486612107868, 59.30880914983061], [17.946494620844874, 59.30750867610993], [17.94358279467656, 59.30630104884062], [17.937031185797878, 59.30537207560843], [17.93011559864817, 59.304164372473394], [17.924837913718193, 59.30304953151801], [17.920288185330207, 59.30239919075353], [17.913554587316128, 59.301377201573814], [17.910642761147813, 59.300262269268615], [17.90827690238632, 59.29812521354472], [17.90827690238632, 59.295895099228574], [17.906275021895453, 59.29338604589458], [17.90299921745617, 59.29264258715398], [17.894627717222136, 59.292549653669425], [17.887166162666063, 59.291434432057315], [17.879886597245218, 59.29031917389756], [17.873698966637676, 59.28548596619345], [17.87206106441795, 59.28241838223363], [17.870787140469588, 59.28046613942087], [17.869695205656285, 59.27795594844844], [17.86914923824969, 59.27693322499459], [17.87151509701158, 59.27553855259782], [17.873698966637676, 59.27423680682335], [17.874790901450638, 59.27274903643456], [17.877040353366397, 59.27119925868146], [17.88513516377219, 59.27101942183435], [17.89585068440124, 59.27125748118192], [17.901907282353648, 59.27411406815668], [17.907963881204353, 59.277446449831984], [17.92473599978564, 59.28173046179103], [17.936849196588753, 59.28196844672698], [17.943837579256126, 59.28101649746003], [17.950360070464455, 59.27625635092227], [17.959212021663348, 59.27197165061801], [17.964802728156656, 59.26721024000199], [17.96806397286241, 59.26459118034893], [17.976450032602145, 59.26292440105749], [17.98996090557955, 59.26125754021916], [18.003471779455083, 59.259352456940974], [18.013721407726507, 59.25673279316601], [18.025368712172053, 59.25292201365505], [18.032357094839426, 59.24887259343615], [18.04586796871513, 59.246728588158135], [18.055651704628985, 59.24363145317943], [18.068696685248824, 59.24029576278406], [18.078946313520248, 59.23672144656757], [18.084157955218018, 59.2343747374012], [18.09844726330482, 59.233562575414794], [18.104553805790374, 59.23399989595174], [18.108828385170966, 59.23549923795218], [18.11408001088199, 59.237373322999474], [18.1189652452299, 59.23918484085823], [18.129468497550363, 59.23918484085823], [18.145711899196556, 59.238685121214644], [18.15108565626042, 59.23787306140571], [18.156459413324285, 59.23624888423677], [18.160733992704877, 59.23456215704044], [18.164153656209407, 59.232875345968466], [18.168335866832365, 59.23068491165117], [18.168202885116045, 59.2308323159005], [18.17303697118814, 59.23112325882363], [18.1815677126894, 59.23126872935467], [18.185833082541592, 59.23286886379367], [18.192657675383202, 59.23694159437542], [18.19294203349324, 59.23883233987766], [18.19294203349324, 59.24217724764924], [18.190098453292194, 59.24406770288209], [18.190257443238067, 59.24419981922557]]], [[[18.062311190207993, 59.32887556094278], [18.061842207776976, 59.327639504404715], [18.062233026469585, 59.32592489993141], [18.061764044038398, 59.32428996393537], [18.062154862731006, 59.322934103697605], [18.06106057039159, 59.322615069898575], [18.059340968143943, 59.3221763935353], [18.059262804405535, 59.321777591928424], [18.06043526048336, 59.32145854727389], [18.063170991331788, 59.32109961845816], [18.06473426610239, 59.32165795053385], [18.066219377134416, 59.32197699331681], [18.067469996950877, 59.32233591286797], [18.068642453028872, 59.322734707924155], [18.069658581629653, 59.32365191879654], [18.070205727799305, 59.32440959606555], [18.07176900256991, 59.324888120374794], [18.072472476216717, 59.32564577008526], [18.07176900256991, 59.326722401145105], [18.069580417891075, 59.32767937789805], [18.067548160689455, 59.32859645533176], [18.06629754087305, 59.32951350801642], [18.064187119932797, 59.32951350801642], [18.062311190207993, 59.32887556094278]]], [[[17.94810515177744, 59.38425227084889], [17.950788690822492, 59.386074444824715], [17.95496308469251, 59.38759284871162], [17.959137478562752, 59.390781274835945], [17.963610043936967, 59.39184401690278], [17.967188095697452, 59.39214765143879], [17.97080390190746, 59.39356378994637], [17.970841441563095, 59.39357849243555], [17.971064318961965, 59.39366578286217], [17.967188095697452, 59.39761260707593], [17.962715531221534, 59.40201429122038], [17.960926504892143, 59.405201360884064], [17.95883930795702, 59.40702240933615], [17.952875887757443, 59.408084642164965], [17.94810515177744, 59.408843359441164], [17.94243990308206, 59.41020900789613], [17.937967337707846, 59.41096767758944], [17.93200391750821, 59.412333240396265], [17.927531353032293, 59.41430562290799], [17.924847813987412, 59.416429598477805], [17.92156793283266, 59.41855344083274], [17.918288051678076, 59.42007038939846], [17.91709536835691, 59.422042321296374], [17.914709999917818, 59.425530842254034], [17.912920973588427, 59.42735079733859], [17.909342921827943, 59.43023219326528], [17.9051685279577, 59.432203532825326], [17.89920510775829, 59.433416608208915], [17.892943516952982, 59.4335682393459], [17.887874610367135, 59.432355169854986], [17.883998387102793, 59.430990414412975], [17.88101667655377, 59.42901900372976], [17.881091245110042, 59.428336309869735], [17.88131484805797, 59.426289168726385], [17.883998387102793, 59.42431748465276], [17.883700215598935, 59.420222080791405], [17.883700215598935, 59.416277890093795], [17.881613018663472, 59.413395306686255], [17.880420335342308, 59.41005727164412], [17.877140454187895, 59.40717415872683], [17.87356240242724, 59.40413903764136], [17.869388007658927, 59.40095186804075], [17.868195324337535, 59.398067980117105], [17.867002640117903, 59.39685363779955], [17.858952022983544, 59.394273016575426], [17.85507579971886, 59.39229946745809], [17.84941055102331, 59.38941484315296], [17.845832499263167, 59.38713733445735], [17.84106176328305, 59.38561891062625], [17.837185540018538, 59.38394856558904], [17.833011146148294, 59.383493002826924], [17.82973126499354, 59.38485967320793], [17.826749555342985, 59.38577075588654], [17.826153213233283, 59.38744101115469], [17.82227698996877, 59.390629451559334], [17.82168064785901, 59.39275491189329], [17.818698938208456, 59.39563925242419], [17.81392820222851, 59.39746081439762], [17.809455636854295, 59.397764398617255], [17.80528124298405, 59.39639824844028], [17.80140501971954, 59.39579105280444], [17.79752879735338, 59.3944248230751], [17.79514342891423, 59.39321035066638], [17.79067086443831, 59.39047762806035], [17.788285495999162, 59.38926301375608], [17.785766901305124, 59.38819426051447], [17.793652574089037, 59.38349300270227], [17.806772098072656, 59.376506938302896], [17.819295280057418, 59.369823269061555], [17.829433094044816, 59.364353832819006], [17.84732335402282, 59.35584406827638], [17.85358494501503, 59.35310833364747], [17.86402093000231, 59.350068369916244], [17.86998434999515, 59.34870029742842], [17.877438624985643, 59.34626803244987], [17.881613018980545, 59.344443719378546], [17.887874609972926, 59.34125093567144], [17.89353985896588, 59.33623309766716], [17.899205107958835, 59.332431211726146], [17.904572185952247, 59.3295414938537], [17.910833776944628, 59.32786838696478], [17.919480735933973, 59.32771628225373], [17.92842586592286, 59.32589097261496], [17.93170574691885, 59.32300069850942], [17.934985627914784, 59.32011017860401], [17.941247218907165, 59.31752371558997], [17.944527099903098, 59.317067260511976], [17.946614296900577, 59.31752371558997], [17.955559426889465, 59.31752371558997], [17.96122467588242, 59.317675865920876], [17.964206385879038, 59.318893044052516], [17.968977121873024, 59.32026231735898], [17.971660660869702, 59.322392188430115], [17.974344199866437, 59.32482616338291], [17.97643139686369, 59.32847679900124], [17.9767295678634, 59.331670783481684], [17.978518593861168, 59.337753732916894], [17.97971127785985, 59.340946845378255], [17.983587500855037, 59.34429168886544], [17.98507835585326, 59.344747778362944], [17.98555988675588, 59.344554866024396], [17.989252749848163, 59.34307542025783], [17.994619827841404, 59.339274300097486], [18.00147776083304, 59.335624824507306], [18.00654666782674, 59.33212704247086], [18.012211916819865, 59.33060615534691], [18.01877167881156, 59.32923729872863], [18.02592778280291, 59.32847679900124], [18.047097923776846, 59.32847679900124], [18.054552198767738, 59.3295414938537], [18.060515618760178, 59.329845686255624], [18.06498818375485, 59.330454062890226], [18.075722339741503, 59.32999778143545], [18.083176614732338, 59.32999778143545], [18.086158324728785, 59.33091033821796], [18.088841863725463, 59.3293893966316], [18.093314428719907, 59.32695574848549], [18.098383335713606, 59.32497828103027], [18.101663216709767, 59.3228485720108], [18.104644926705987, 59.32193579872097], [18.108819320700718, 59.32087086556885], [18.111502859697623, 59.3199580391684], [18.118062621689546, 59.319197331775854], [18.123429699682788, 59.319197331775854], [18.129989461674654, 59.32087086556885], [18.133567513670528, 59.32330494946365], [18.13476019766881, 59.327259964035306], [18.133567513670528, 59.331518695790635], [18.130883974673623, 59.33486446774134], [18.126113238679636, 59.337905792697995], [18.120149818686798, 59.341859108090546], [18.110310175699112, 59.34565993898218], [18.10375041370702, 59.34915632771572], [18.095103454717673, 59.35265235644073], [18.08556198272936, 59.35797170945318], [18.079896733736575, 59.363138282804925], [18.072442458745513, 59.367392517359065], [18.064391841755423, 59.37134240043923], [18.057533908763958, 59.37529182366592], [18.057688395815887, 59.375413442667536], [18.053991636848536, 59.37616671045771], [18.05396483549805, 59.37616272841262], [18.049411730882753, 59.375486245038246], [18.042541871035723, 59.37227815156916], [18.038916111547167, 59.37111149706351], [18.03643532855, 59.369069754673774], [18.03643532855, 59.36469417913884], [18.036816987680083, 59.360998809004855], [18.037389475925693, 59.358664683610755], [18.03357288732144, 59.35409322331475], [18.031664592570053, 59.351953179267184], [18.026321368344497, 59.351466787180186], [18.02155063236438, 59.35117494840006], [18.017352384630215, 59.35020213404226], [18.014871602531514, 59.34825642216049], [18.010864183913043, 59.34679706473253], [18.007810912670266, 59.34514305085662], [18.005711788803012, 59.344364663427655], [17.999986905447372, 59.34387816262512], [17.991972069108954, 59.34426736391623], [17.986438015767305, 59.34475385960138], [17.98588357174617, 59.34462821656092], [17.985376526901803, 59.345963986884044], [17.97643139705167, 59.350828386160856], [17.969871634742276, 59.35432424313524], [17.965842042266445, 59.35583046801412], [17.965399070266358, 59.355996046903385], [17.963013701827265, 59.35736382544184], [17.961522847001845, 59.35918744473008], [17.96062833428641, 59.36085900898496], [17.95764662373756, 59.36268244048159], [17.955857598306466, 59.36496159139136], [17.953770400473047, 59.365873209168], [17.946614296952248, 59.367544444586144], [17.94124721886243, 59.367544444586144], [17.933792943837602, 59.36875983653198], [17.929022207857656, 59.369519434445806], [17.925145984593144, 59.3710385797105], [17.92544415609717, 59.37757012807151], [17.926935010922534, 59.381215096287804], [17.931407576296806, 59.38227813826069], [17.93945819253321, 59.3831892907661], [17.944527100017183, 59.38334114690781], [17.94810515177744, 59.38425227084889]]]]}}]}