{"type": "FeatureCollection", "features": [{"type": "Feature", "properties": {"shapeName": "Kuala Lumpur", "shapeISO": "", "shapeID": "92858781B79427410842699", "shapeGroup": "MYS", "shapeType": "ADM2"}, "geometry": {"type": "Polygon", "coordinates": [[[101.73060465900005, 3.035991304000049], [101.73084268300005, 3.039794322000034], [101.73060465900005, 3.054768575000026], [101.74940848600005, 3.054768575000026], [101.74964650900006, 3.069980301000044], [101.74988453200007, 3.072594794000054], [101.74893243900004, 3.07520928100007], [101.74798034700007, 3.076873043000035], [101.74702825500003, 3.078536801000041], [101.74488604600003, 3.07996287800006], [101.74321988500009, 3.08257734700004], [101.74536209300004, 3.086617878000027], [101.75226476300008, 3.09422354000003], [101.75226476300008, 3.096362623000061], [101.75202674000008, 3.098739377000072], [101.75131267100005, 3.10040310100004], [101.75178871700007, 3.101591474000031], [101.75369290200007, 3.103255194000042], [101.75393092500008, 3.104918911000027], [101.75226476300008, 3.105869606000056], [101.75178871700007, 3.108246338000072], [101.75345487900006, 3.109672375000059], [101.75464499400005, 3.112049098000057], [101.75440697100004, 3.114663488000076], [101.75226476300008, 3.11680252900004], [101.75012255500008, 3.116564858000061], [101.74702825500003, 3.116327187000024], [101.74393395400006, 3.109197029000029], [101.74107767700008, 3.110860737000053], [101.73869744500007, 3.11347513000004], [101.73845942200006, 3.11822855500003], [101.73893546900007, 3.119179237000026], [101.74107767700008, 3.123694967000063], [101.73988756100005, 3.12702233400006], [101.73822139900005, 3.130112023000038], [101.73679326000007, 3.132964035000043], [101.73584116800004, 3.13676670600006], [101.73584116800004, 3.139381034000053], [101.73917349200008, 3.141995356000052], [101.74083965300008, 3.146273323000059], [101.74107767700008, 3.15055127200003], [101.74512407000009, 3.149838282000076], [101.74702825500003, 3.151501925000048], [101.74940848600005, 3.153640891000066], [101.74988453200007, 3.15577985300007], [101.74964650900006, 3.15815647200003], [101.74940688800007, 3.158323952000046], [101.74726627800004, 3.159820102000026], [101.74345790800004, 3.161246068000025], [101.74060163000007, 3.162196712000025], [101.73631721400005, 3.162672033000035], [101.73512709900007, 3.169801826000025], [101.73250884400005, 3.172416071000043], [101.73227082100004, 3.174554994000061], [101.73250884400005, 3.176456255000062], [101.73512709900007, 3.177644542000053], [101.73917349200008, 3.177644542000053], [101.74202976900006, 3.177169227000036], [101.74988453200007, 3.175743283000031], [101.75274080900004, 3.178832827000065], [101.75440697100004, 3.181209393000074], [101.75654917900005, 3.183823609000058], [101.75773929500008, 3.18620016400007], [101.75750127200007, 3.188101403000076], [101.75678720200006, 3.193092141000022], [101.75535906400006, 3.195943980000038], [101.75464499400005, 3.198795811000025], [101.75274080900004, 3.201647634000039], [101.75083662400004, 3.202835891000063], [101.74750430100005, 3.202835891000063], [101.74655220800008, 3.204737100000045], [101.74679023100003, 3.207588907000058], [101.74560011600005, 3.210440706000043], [101.74345790800004, 3.212817198000039], [101.74155372300004, 3.214718389000041], [101.74012558400005, 3.216619575000038], [101.74012558400005, 3.218520759000057], [101.74012558400005, 3.22184782100004], [101.74060163000007, 3.223986641000067], [101.74179174600005, 3.226600748000067], [101.74321988500009, 3.22873955700004], [101.74298186200008, 3.230165428000021], [101.74155372300004, 3.231591297000023], [101.73845942200006, 3.234680672000025], [101.73822139900005, 3.231591297000023], [101.73227082100004, 3.231353652000053], [101.72989059000008, 3.233254808000027], [101.71965559600005, 3.223273701000039], [101.71775141100005, 3.225887810000074], [101.71632327200007, 3.224224287000027], [101.71441908700007, 3.222323114000062], [101.71370501800004, 3.219946644000061], [101.71465711000008, 3.218283111000062], [101.71560920300004, 3.217094872000075], [101.71608524900006, 3.214956037000036], [101.71513315700008, 3.21353014500005], [101.71275292600006, 3.21353014500005], [101.71037269400006, 3.214956037000036], [101.70704037100006, 3.215431334000073], [101.70204188500009, 3.216619575000038], [101.70204188500009, 3.218283111000062], [101.69942363100006, 3.219233701000064], [101.69989967700008, 3.223748994000061], [101.69632933000008, 3.223273701000039], [101.69466316900008, 3.228264267000043], [101.69061677600007, 3.228264267000043], [101.68680840600007, 3.228026621000026], [101.68347608200008, 3.228026621000026], [101.67871562000005, 3.228026621000026], [101.67252701900009, 3.227788976000056], [101.67109888000005, 3.235631247000072], [101.66919469500004, 3.237770038000065], [101.66800457900007, 3.240621752000038], [101.66633841700008, 3.242760533000023], [101.66419620900007, 3.244424025000058], [101.66062586300006, 3.242285249000076], [101.65824563100006, 3.239195896000069], [101.65562737700009, 3.237057109000034], [101.65253307700004, 3.234918316000062], [101.64967679900008, 3.234680672000025], [101.64658249900003, 3.233730096000045], [101.64372622100007, 3.23182894200005], [101.64134599000005, 3.230403073000048], [101.63753762000005, 3.228977203000056], [101.63777564300005, 3.225650164000058], [101.63872773600008, 3.223273701000039], [101.63848971300007, 3.220897233000073], [101.63753762000005, 3.21733252000007], [101.63515738900009, 3.216619575000038], [101.63349122700004, 3.216619575000038], [101.63349122700004, 3.214243092000061], [101.62968285700003, 3.209965406000038], [101.62896878800007, 3.204974751000066], [101.62658855700005, 3.200934679000056], [101.62349425600007, 3.198320506000073], [101.61920984000005, 3.198082854000063], [101.61920984000005, 3.186437819000048], [101.61920984000005, 3.179308141000035], [101.61897181700004, 3.173842020000052], [101.61825774800008, 3.171703096000044], [101.61754367800006, 3.16932650800004], [101.61682960900004, 3.165999276000036], [101.61611554000007, 3.162909694000064], [101.61540147000005, 3.160295424000026], [101.61516344700004, 3.156255177000048], [101.61492542400003, 3.153640891000066], [101.61635356300008, 3.150788935000037], [101.61778170100007, 3.148174636000022], [101.62016193300008, 3.145560330000023], [101.62230414100009, 3.142946017000043], [101.62539844100007, 3.141757691000066], [101.62706460300006, 3.13985636600006], [101.62944483400008, 3.135340706000022], [101.62920681100007, 3.13058735900006], [101.63206308800005, 3.131062694000036], [101.63396727300005, 3.132251033000045], [101.63515738900009, 3.132726368000021], [101.63729959700004, 3.132251033000045], [101.63967982800006, 3.131062694000036], [101.64158401300006, 3.129399018000072], [101.64420226700008, 3.128210677000027], [101.64610645200008, 3.128210677000027], [101.64848668400003, 3.127497671000071], [101.64777261400008, 3.124407975000054], [101.64563040600007, 3.123457297000073], [101.64396424400007, 3.121080599000038], [101.64658249900003, 3.119654578000052], [101.64943877600007, 3.11846622500002], [101.65277110000005, 3.110147720000043], [101.65753156200009, 3.11276211400002], [101.66276807100007, 3.088043943000059], [101.66181597800005, 3.086617878000027], [101.66062586300006, 3.085667166000064], [101.65991179300005, 3.08257734700004], [101.65657947000005, 3.079012160000048], [101.65324714600007, 3.076635363000037], [101.64801063700008, 3.072357113000066], [101.65015284500004, 3.069267256000046], [101.65181900700009, 3.067841165000061], [101.65205703000004, 3.065464342000041], [101.65015284500004, 3.063800563000029], [101.65015284500004, 3.061423732000037], [101.65134296100007, 3.059522263000076], [101.65277110000005, 3.058333843000071], [101.65467528500005, 3.057858474000057], [101.65657947000005, 3.057620790000044], [101.65895970100007, 3.057620790000044], [101.65895970100007, 3.055481630000031], [101.65895970100007, 3.053104779000023], [101.65800760800005, 3.049064122000061], [101.65443726200004, 3.050252552000075], [101.65396121500004, 3.046211885000048], [101.67490725000005, 3.04478576300005], [101.67609736500003, 3.04193351400005], [101.67966771200008, 3.04193351400005], [101.68109585100007, 3.042646577000028], [101.68347608200008, 3.044310389000032], [101.68633235900006, 3.04573651100003], [101.68752247500004, 3.044072701000061], [101.69061677600007, 3.043597327000043], [101.69394909900006, 3.045261137000068], [101.69704340000004, 3.045498824000049], [101.69894758500004, 3.046449571000039], [101.69894758500004, 3.04811337700005], [101.70037572300004, 3.049064122000061], [101.70323200100006, 3.050014867000073], [101.70632630100005, 3.04811337700005], [101.70727839400007, 3.045974198000067], [101.70894455600006, 3.046924945000058], [101.70965862500003, 3.048588750000022], [101.70989664800004, 3.050965610000048], [101.71037269400006, 3.053104779000023], [101.71251490200007, 3.05405552000002], [101.71441908700007, 3.05405552000002], [101.71560920300004, 3.051678667000033], [101.71679931900007, 3.04882643600007], [101.71894152700008, 3.047162631000049], [101.72013164200007, 3.045261137000068], [101.72179780400006, 3.042884264000065], [101.72322594300005, 3.039794322000034], [101.72560617400006, 3.036942060000058], [101.72798640500008, 3.036942060000058], [101.73060465900005, 3.036704371000042], [101.73060465900005, 3.035991304000049]]]}}]}