{"type": "FeatureCollection", "features": [{"type": "Feature", "properties": {"shapeName": "Seoul", "shapeISO": "KR-11", "shapeID": "68945753B55100681051852", "shapeGroup": "KOR", "shapeType": "ADM1"}, "geometry": {"type": "Polygon", "coordinates": [[[127.11588992667885, 37.5505764840176], [127.12508833196102, 37.57889516937661], [127.12446821523599, 37.603312282735715], [127.11402957560449, 37.62555898755727], [127.10741499180847, 37.65739166948998], [127.09025841739208, 37.680801093395814], [127.05429162036205, 37.683126533362895], [127.02307905515431, 37.67720958155701], [127.00313195187812, 37.66028554933871], [126.98907596198615, 37.63666941985787], [126.96602827418553, 37.61341502558304], [126.92117313023584, 37.61000438089752], [126.91538536963913, 37.59413971587526], [126.91373172413978, 37.57693146371611], [126.89254438741364, 37.566699531458255], [126.86877322830196, 37.56029165323724], [126.8367338398948, 37.57579458305361], [126.80872521379763, 37.5772156854556], [126.79373904791873, 37.551661688735976], [126.81740685424302, 37.52866567598022], [126.83725060383233, 37.506212267382296], [126.84252159959226, 37.47750600839561], [126.86246870286845, 37.467067368764106], [126.89140750495244, 37.460142727504945], [126.92075971908582, 37.429472765555715], [126.96365115827439, 37.428310045572175], [126.98194461515197, 37.43068716148338], [126.99951460161765, 37.43869700836029], [127.02431928860437, 37.44484650326359], [127.04933068206537, 37.44944570635431], [127.06080284957193, 37.428516751147185], [127.09015506370531, 37.440247301072134], [127.11868045463939, 37.445518296832006], [127.1446220240872, 37.45776561069442], [127.15413048683251, 37.47083974955484], [127.17128706304754, 37.489443263895566], [127.16322553932719, 37.4966262884725], [127.16291548096478, 37.51471303977502], [127.17810835241858, 37.522722887551254], [127.19206098772452, 37.528329780095305], [127.19474816289744, 37.54323842980972], [127.18710005122648, 37.55778534611687], [127.16673953680026, 37.5575528021202], [127.14327843605099, 37.55083486643599], [127.11588992667885, 37.5505764840176]]]}}]}