{"type": "FeatureCollection", "features": [{"type": "Feature", "properties": {"shapeName": "Sydney", "shapeISO": "", "shapeID": "25037944B98854570895907", "shapeGroup": "AUS", "shapeType": "ADM2"}, "geometry": {"type": "Polygon", "coordinates": [[[151.2142729420001, -33.92431947799997], [151.21397703200012, -33.92404434799994], [151.213679672, -33.923814137999955], [151.2131619920001, -33.923452417999954], [151.21278615200004, -33.92319699799998], [151.21254171200007, -33.923007017999964], [151.21228431200007, -33.92281648799997], [151.21204060200012, -33.922553576999974], [151.21176192200005, -33.92218639699996], [151.21153336200007, -33.92180956699997], [151.21137929200006, -33.92144415699994], [151.21127450300003, -33.92108991699996], [151.21123241300006, -33.920726136999974], [151.21122625300006, -33.92042517699997], [151.21124574300006, -33.920194186999936], [151.2112601230001, -33.92000028699994], [151.21128925300002, -33.91979319699993], [151.21137385300005, -33.91932752699995], [151.21142831300006, -33.91904459699998], [151.21152577300006, -33.91860258699995], [151.21157008300008, -33.91827129699993], [151.21176411300007, -33.91731954699998], [151.21186916300007, -33.91686442699995], [151.21187427300003, -33.91682311699998], [151.21199596300005, -33.91635798699997], [151.21218569300004, -33.915613786999984], [151.21238764300006, -33.91489036699994], [151.2124808630001, -33.91457319699998], [151.2125701430001, -33.91427088699993], [151.21269975300004, -33.91373592699995], [151.21282287300005, -33.91312329699997], [151.21289090300002, -33.91270047799998], [151.2129483230001, -33.91228924799998], [151.21296076300007, -33.912200077999955], [151.21300646400005, -33.911628667999935], [151.21305362400005, -33.91108929799998], [151.21310833400003, -33.91034302799994], [151.21314965400006, -33.90970272799996], [151.21317494400012, -33.90931072799998], [151.21318542400002, -33.90924832799993], [151.2132451340001, -33.90880896799996], [151.21326543400005, -33.90866831799997], [151.21341435400007, -33.90773670799996], [151.21343742400006, -33.90761530799995], [151.21344855400002, -33.907560657999966], [151.2135594440001, -33.90699160799994], [151.2135925440001, -33.90663277799996], [151.2136433940001, -33.90627579799997], [151.2136641940001, -33.90612966799995], [151.21367248400009, -33.90607198799995], [151.21377544400002, -33.90556095799997], [151.21393542400006, -33.90510632799993], [151.21404843400012, -33.904636307999965], [151.21408241400002, -33.90449532799994], [151.21412785400003, -33.90424444799993], [151.21421676400007, -33.90409548799994], [151.2142632340001, -33.903962467999975], [151.21429579400012, -33.903832027999954], [151.2155210940001, -33.903998927999965], [151.21655671400003, -33.90413999799995], [151.2171724640001, -33.90422359799993], [151.21779161400002, -33.90430763799998], [151.21840977400007, -33.904391577999945], [151.21948068400002, -33.904536967999945], [151.22066164300008, -33.90469795799993], [151.22132466300002, -33.90478795799993], [151.22208697300005, -33.904893277999975], [151.22217541300006, -33.90473230799995], [151.22218344300006, -33.90447330799998], [151.22258742300005, -33.90453232799996], [151.22316240300006, -33.904617317999964], [151.223281433, -33.90463031799993], [151.223544413, -33.90370759799998], [151.22345148300008, -33.903514307999956], [151.22325442300007, -33.90310430799997], [151.22305644300002, -33.90269303799994], [151.22271422300003, -33.90198120799994], [151.22264618300005, -33.901764577999984], [151.22258928400004, -33.901513567999984], [151.2225788840001, -33.90145073799994], [151.22256158400012, -33.90134922799996], [151.22255523400008, -33.90128747799997], [151.22328482300009, -33.90099156799994], [151.22344502300007, -33.90105104799994], [151.22390908300008, -33.901110727999935], [151.22397278300002, -33.90111559799993], [151.2240365030001, -33.901112927999975], [151.22409950300005, -33.90110393799995], [151.2243945030001, -33.901035917999934], [151.22453944300003, -33.900976268999955], [151.22460601300008, -33.90093819899994], [151.2246870130001, -33.90087951899994], [151.22472449300005, -33.900846918999946], [151.22695640300003, -33.89868589899993], [151.22700841300002, -33.89862390899998], [151.22705334300008, -33.898558898999966], [151.2270923630001, -33.89849088899996], [151.22712437300004, -33.89841990899998], [151.22715517300003, -33.898323078999965], [151.22717237300003, -33.89822389899996], [151.22717737300002, -33.89812290899994], [151.22716835300002, -33.898022898999955], [151.22715879300006, -33.897973338999975], [151.227138243, -33.89789979899996], [151.2270053430001, -33.89769089899994], [151.2269683730001, -33.89765389899998], [151.22690858300007, -33.897602448999976], [151.2267733530001, -33.89751290899994], [151.22669871300002, -33.89747590899998], [151.22644237400004, -33.89737689899994], [151.226994654, -33.89682762899997], [151.22714258300005, -33.89689350899994], [151.22736687300005, -33.89696450899993], [151.22754255300003, -33.89702293899995], [151.22773260300005, -33.89704920899993], [151.2279763130001, -33.897049838999976], [151.22820637300003, -33.89702661899997], [151.22842636300004, -33.89697973899996], [151.22861857300006, -33.89691772899994], [151.22889217300008, -33.89679081899993], [151.2290193030001, -33.89672485899996], [151.22908730300003, -33.89668386899996], [151.22915329300008, -33.89663985899995], [151.22930732300006, -33.89652185899996], [151.2294193030001, -33.89641885899994], [151.22949592300006, -33.89633613899997], [151.2295432630001, -33.89627886899996], [151.22963028300012, -33.896159858999965], [151.2304996030001, -33.894821898999965], [151.23049419300003, -33.89480452899994], [151.2305002930001, -33.89478731899993], [151.23050785300006, -33.89478049899998], [151.23051686300005, -33.89477571899994], [151.2305276630001, -33.89477329899995], [151.2305409930001, -33.89477408899995], [151.23172899300005, -33.89296419899995], [151.23218871300003, -33.892196318999936], [151.23218112300003, -33.892177688999936], [151.23218367300012, -33.89216769899997], [151.23219374300004, -33.89215526899994], [151.23221714300007, -33.892148608999946], [151.23272978300008, -33.891292448999934], [151.2327636230001, -33.89124491899997], [151.23276975300007, -33.891177598999946], [151.23292108400005, -33.89017480899997], [151.23293177400012, -33.89011911899996], [151.23291772400012, -33.889844248999964], [151.23290944400003, -33.889709068999935], [151.2333234240001, -33.88961368899993], [151.23353906400007, -33.88960711899995], [151.23372087400003, -33.88962348899997], [151.23347424400004, -33.88952789899997], [151.23304766400008, -33.88935159899995], [151.23301850400003, -33.88933188899995], [151.232860124, -33.889225238999984], [151.2328226740001, -33.88920525899994], [151.23262360400008, -33.88904171899998], [151.23218330400005, -33.88866183899995], [151.23196478400007, -33.88845609899994], [151.23187587400002, -33.88837222899997], [151.23156806400004, -33.88810023899998], [151.2314784240001, -33.888021038999966], [151.23131482400004, -33.887860658999955], [151.23119977400006, -33.88774788899997], [151.2309503040001, -33.88752027899994], [151.2308279140001, -33.88741092899994], [151.23072527400006, -33.88733533899995], [151.23049598400007, -33.887179268999944], [151.22996812400004, -33.88681394899993], [151.22925936500008, -33.88632345899998], [151.22899481500008, -33.88612114899996], [151.22878238500004, -33.88595904899995], [151.22876147500006, -33.88594231899998], [151.22862459500004, -33.88583283899993], [151.2281675050001, -33.885467208999955], [151.22808687500003, -33.88540698899993], [151.22782838500007, -33.885271528999965], [151.2275256150001, -33.88513995899996], [151.2274939350001, -33.885131858999955], [151.22729811500005, -33.885082188999945], [151.226972315, -33.88502754899997], [151.22661841500008, -33.884999748999974], [151.22649566500002, -33.88498847899996], [151.22628220500008, -33.884969128999956], [151.22602550500005, -33.88494574899994], [151.22566732500002, -33.88491568899997], [151.22539839500007, -33.88488075799995], [151.22514457500006, -33.88482991799998], [151.22484111500012, -33.884754027999975], [151.22481447500002, -33.88474657799998], [151.22454769500007, -33.88466134799995], [151.22425342600002, -33.88455132799993], [151.22363114600012, -33.88431744799993], [151.2235170460001, -33.88427245799994], [151.22277145600003, -33.883978697999964], [151.22234666600002, -33.88381587799995], [151.2222464460001, -33.883786387999976], [151.22220665600003, -33.883774657999936], [151.22212526600003, -33.883758917999955], [151.22165977600002, -33.88364145799994], [151.221469726, -33.883572597999944], [151.22128860600003, -33.88349169799994], [151.22113884600003, -33.883419887999935], [151.2210463560001, -33.88335328799997], [151.2210175560001, -33.88332177799998], [151.22085195600005, -33.88313834799993], [151.22063773600007, -33.88289921799998], [151.22028934600007, -33.88248799799993], [151.22017981600004, -33.88235877799997], [151.21992204700007, -33.88205421799995], [151.21982057700006, -33.88196681799997], [151.219692387, -33.88186954799994], [151.21952967700008, -33.88176766799995], [151.21921000700002, -33.88161367799995], [151.2195220870001, -33.88144123799998], [151.2199171970001, -33.881305967999936], [151.22006249700007, -33.88128651799997], [151.22017123700005, -33.88129695799995], [151.22034223700007, -33.88134495799994], [151.22044983700005, -33.88135346799993], [151.22082169600003, -33.881358517999956], [151.22094412600006, -33.88135537799997], [151.22137536600007, -33.88135807799995], [151.22165119600004, -33.88122193799995], [151.2217071560001, -33.88118693799993], [151.2225173060001, -33.88066911799996], [151.22286288600003, -33.88044132799996], [151.22289026600004, -33.88040290799995], [151.22333056600007, -33.87978261799998], [151.2234003860001, -33.87970891799995], [151.22350368600007, -33.87961846799993], [151.22358544600002, -33.87956004799997], [151.22363292600005, -33.87954096799996], [151.2236999060001, -33.87951414799994], [151.2245046260001, -33.879164757999945], [151.2247490960001, -33.87903787799996], [151.22479213600002, -33.879015547999984], [151.2257332160001, -33.87885794799996], [151.22599101600008, -33.878834877999964], [151.22616482600006, -33.878822508999974], [151.22668005600008, -33.87880487899997], [151.2271494160001, -33.87891267899994], [151.22743728600005, -33.879000918999964], [151.22760953600005, -33.879053718999955], [151.22775961600007, -33.879056858999945], [151.2278434960001, -33.87904379899993], [151.2280155960001, -33.87886262899997], [151.22828448600012, -33.87858129899996], [151.22882443600008, -33.877795308999964], [151.22942715600004, -33.87691837899996], [151.2295225360001, -33.87678084899994], [151.2296863460001, -33.87663837899993], [151.22974792600007, -33.87656052899996], [151.22974934600006, -33.87649608899994], [151.2297248860001, -33.876434898999946], [151.2296841960001, -33.87637916899996], [151.22950588600008, -33.87633784899998], [151.22931984600007, -33.87630565899997], [151.229270906, -33.876298848999966], [151.2293779260001, -33.87620684899997], [151.22947789600005, -33.876134838999974], [151.22952089600005, -33.876092848999974], [151.22955286600006, -33.87604983899996], [151.22961987600002, -33.87593783899996], [151.2297333560001, -33.87572258899996], [151.23059785600003, -33.874082828999974], [151.2305284360001, -33.87393432899995], [151.23051040600012, -33.873876328999984], [151.23045441600004, -33.87380631899998], [151.2303924360001, -33.87372031899997], [151.23026943600007, -33.87352731899995], [151.2302124160001, -33.87340930899995], [151.23014642600003, -33.87324530899997], [151.23007043600012, -33.87305331899995], [151.2300744160001, -33.87303031899995], [151.23008142600008, -33.87300832899996], [151.23009342600005, -33.87298231899996], [151.2301104060001, -33.87295132899993], [151.23013441600006, -33.87292631899993], [151.23015142600002, -33.87291632899996], [151.23055230600005, -33.872734098999956], [151.23100041600003, -33.872530318999964], [151.23103439600004, -33.87249131899995], [151.2312124460001, -33.87241432899998], [151.23122343600005, -33.87239632899997], [151.2312354060001, -33.872379328999955], [151.23125839600004, -33.87235131899996], [151.23129840600006, -33.87231531899994], [151.23131742600003, -33.87229631899993], [151.2313344260001, -33.87227731899998], [151.23135340600004, -33.87224732899995], [151.23137041600012, -33.87221631899996], [151.23139841600005, -33.872151308999946], [151.231413416, -33.87211932899993], [151.231454406, -33.87204632899994], [151.23147842600008, -33.871997318999945], [151.23148641600005, -33.87197331899995], [151.23149842600003, -33.871925318999956], [151.23150543600002, -33.87190131899996], [151.2315144060001, -33.87187832899997], [151.23152842600007, -33.87185331899997], [151.23158343600005, -33.87178230899997], [151.2315974160001, -33.87175631899993], [151.2316074460001, -33.87172932899995], [151.23161741600006, -33.871673328999975], [151.23162343600006, -33.87164531899998], [151.23163343600004, -33.87161832899994], [151.23164643600012, -33.87159630899998], [151.23166143600008, -33.87157431899993], [151.23167643600004, -33.87154432899996], [151.23168844600002, -33.871503308999934], [151.231695456, -33.871483318999935], [151.2317034460001, -33.87146431899998], [151.23173041600012, -33.871422318999976], [151.23177644600003, -33.871362328999965], [151.23181042600004, -33.871314318999964], [151.23181644600004, -33.87128030899993], [151.23181243600004, -33.87125931899993], [151.23180542600005, -33.87123831899993], [151.2317964460001, -33.87121731899998], [151.23178640600008, -33.87119831899997], [151.23176640600002, -33.871172308999974], [151.2317404160001, -33.87114831899993], [151.23171041600006, -33.871126318999984], [151.2316484360001, -33.87108631899997], [151.2316194560001, -33.87106931899996], [151.23158941600002, -33.87105231899994], [151.23152941600006, -33.87101531899998], [151.23150141600001, -33.870994318999976], [151.23146345600003, -33.87095532899997], [151.231413416, -33.870920318999936], [151.23136640600012, -33.87090032899994], [151.23126442600005, -33.87086631899996], [151.23121642600006, -33.87084631899995], [151.231199456, -33.870838308999964], [151.23118342600003, -33.87082931899994], [151.23113440600002, -33.87080432899995], [151.23111145600012, -33.87079031899998], [151.23104443600005, -33.87074630899997], [151.2310204160001, -33.87073332899996], [151.23099545600007, -33.87072131899998], [151.23096844600002, -33.87071132899996], [151.2309404460001, -33.87070131899998], [151.23093840600006, -33.87068231899997], [151.2309344260001, -33.87066331899996], [151.230923436, -33.87062531899994], [151.23090745600007, -33.87059031899997], [151.23089839600004, -33.87057331899996], [151.230876426, -33.87054030899998], [151.23086241600004, -33.87052530899996], [151.2308434360001, -33.87050832899996], [151.23082142700002, -33.87049132899995], [151.2307974470001, -33.870477318999974], [151.23077243700004, -33.87046431899995], [151.2307464170001, -33.87045432899998], [151.23071341700006, -33.870372318999955], [151.2307074370001, -33.87035131899995], [151.23070140700008, -33.87032332899997], [151.23069743700012, -33.870267328999944], [151.2306934170001, -33.87023931899995], [151.23068542700003, -33.87021332899997], [151.23067439700003, -33.87019230899995], [151.23066041700008, -33.87017230899994], [151.23064541700012, -33.87015330899993], [151.23061340700008, -33.87011630899997], [151.23059041700003, -33.87009231899998], [151.2305654170001, -33.870068318999984], [151.230511427, -33.87002430899997], [151.23046142700002, -33.86998830899995], [151.23041743700003, -33.86995831899998], [151.23039440700006, -33.86994531899995], [151.23036944700004, -33.86993432899993], [151.23034140700008, -33.86992431899995], [151.23031242700006, -33.869917328999975], [151.23028242700002, -33.86991230899997], [151.23022143700007, -33.86990431899994], [151.230192417, -33.86990132899996], [151.23013343700006, -33.86989732899997], [151.2300734270001, -33.86989530899996], [151.23003842700007, -33.86989231899997], [151.22996542700002, -33.86988332899995], [151.2299344370001, -33.86988431899994], [151.22990844700007, -33.86989330899996], [151.2298854170001, -33.869917328999975], [151.22986745700007, -33.86994631899995], [151.22983442700001, -33.86998930899995], [151.22980942700008, -33.870016318999944], [151.22978241700002, -33.87004330899998], [151.2297544170001, -33.870068318999984], [151.22972342700007, -33.87008931899993], [151.22967440700006, -33.87011431899998], [151.2296184170001, -33.87013430899998], [151.22955943700003, -33.87014831899995], [151.22949942700006, -33.87015732899994], [151.2294414370001, -33.870161318999976], [151.2293964270001, -33.87015932899993], [151.22935145700012, -33.87015530899998], [151.2293054370001, -33.870147318999955], [151.2292614170001, -33.870136308999975], [151.2292194370001, -33.870123328999966], [151.22919742700003, -33.87011530899997], [151.2291754570001, -33.870106318999945], [151.22915443700003, -33.87009630899996], [151.22911344700003, -33.87007431899997], [151.229022707, -33.87001150899994], [151.22870153700012, -33.86978913899998], [151.22784542700003, -33.869196328999976], [151.22779944700005, -33.869159328999956], [151.22775545700006, -33.86912132899994], [151.22771242700003, -33.86908030899997], [151.22767242700002, -33.86903831899997], [151.22758142700002, -33.86893031899996], [151.22755740700006, -33.868897308999976], [151.2275014170001, -33.868485318999944], [151.22754543700012, -33.86810332899995], [151.22755740700006, -33.86807431899996], [151.22756843700006, -33.86804430899997], [151.2275944270001, -33.86798930899994], [151.2276414370001, -33.86790931899998], [151.22771443700003, -33.867790328999945], [151.2278174370001, -33.86762831899995], [151.22783944700006, -33.86761531899998], [151.22788842700004, -33.86758931899993], [151.22807242700003, -33.86749731899994], [151.22825145700006, -33.86742431899995], [151.22833642700004, -33.86738332899995], [151.22841242700008, -33.86733431899995], [151.22846640700004, -33.867288308999946], [151.22851644700006, -33.867238318999966], [151.22856345700006, -33.86718531899993], [151.22860744700006, -33.867130318999955], [151.22864843700006, -33.86707531899998], [151.22868441700007, -33.867025308999985], [151.2287184070001, -33.86697432899996], [151.22875041700001, -33.86692132899998], [151.22877840700005, -33.866868318999934], [151.22880143700002, -33.86681431899996], [151.22882242700007, -33.86675030899994], [151.22883742700003, -33.86668331899995], [151.22884742700012, -33.866616318999945], [151.228851447, -33.86654830899994], [151.2288504270001, -33.86648231899994], [151.22874541700003, -33.865963318999945], [151.22836942800006, -33.86417631899997], [151.22856542800002, -33.863236308999944], [151.22874143800004, -33.86228231899997], [151.2288884180001, -33.861078318999944], [151.22953742800007, -33.86040031899995], [151.2295254180001, -33.86033332899996], [151.22966345800012, -33.86021131899997], [151.22982343800004, -33.86026931899994], [151.2299744080001, -33.86017031899996], [151.22997644800012, -33.86008031899996], [151.22991041800003, -33.860011318999966], [151.2306544380001, -33.859335328999975], [151.23074842800008, -33.85934731899994], [151.2308294180001, -33.85932631899993], [151.23085543800005, -33.85930531899993], [151.2308784380001, -33.85928331899993], [151.23088843800008, -33.85924931899996], [151.2308854480001, -33.859223328999974], [151.2308764280001, -33.859197318999975], [151.23086343800003, -33.859174318999976], [151.23084744800008, -33.85915731899996], [151.2299334180001, -33.85824332899995], [151.22985741800005, -33.85819931899994], [151.22977642800004, -33.85815831899998], [151.22969244800004, -33.85812331899996], [151.229605428, -33.85809230899997], [151.22951742800012, -33.85806831899998], [151.2294314280001, -33.858049318999974], [151.2293414180001, -33.858034318999955], [151.229251448, -33.85802531899998], [151.2291604180001, -33.858023328999934], [151.22907245800002, -33.85802831899997], [151.2290314280001, -33.85803331899996], [151.22899039800006, -33.85804032899995], [151.22894941800007, -33.858049318999974], [151.22890842800007, -33.85805932899996], [151.22886943800006, -33.85807031899998], [151.22874844800003, -33.858012318999954], [151.22857577900004, -33.85791651899996], [151.22835165900005, -33.857835018999936], [151.22793090800008, -33.85871800899997], [151.2275934390001, -33.85900931799995], [151.22740890800003, -33.85976647799998], [151.22686719800004, -33.86092618799995], [151.2270024280001, -33.861434317999965], [151.2270004180001, -33.86153632799994], [151.2275844180001, -33.86314031899997], [151.22631341800002, -33.863385327999936], [151.22577442800002, -33.86201430799997], [151.2257524480001, -33.86199530799996], [151.22571244800008, -33.86195131799997], [151.22569145800003, -33.861933317999956], [151.22566842800006, -33.861922307999976], [151.22562842800005, -33.861922307999976], [151.22557841800005, -33.86193431799995], [151.22552742800008, -33.861956317999955], [151.22548639800004, -33.861982327999954], [151.22546343800002, -33.862009317999934], [151.22394580800005, -33.86522559799994], [151.22328344800007, -33.86662931799998], [151.22170240800006, -33.86888531799997], [151.22144844800005, -33.86874930799996], [151.221362418, -33.86888032799993], [151.2214224180001, -33.86891231799996], [151.22128046800003, -33.86909242799993], [151.22122141800003, -33.86916731799994], [151.22061145800012, -33.86908332799993], [151.2222004580001, -33.866325307999944], [151.2224584380001, -33.865919307999945], [151.2218294280001, -33.865652317999945], [151.2202964280001, -33.86825432799998], [151.2201164480001, -33.86817630799993], [151.22005341800002, -33.868282317999956], [151.22013542800005, -33.868327327999964], [151.21987945800004, -33.868695327999944], [151.2198514580001, -33.86867530799998], [151.21982444800005, -33.86865331799993], [151.21977542800005, -33.868605327999944], [151.2197534180001, -33.868580307999935], [151.2197214480001, -33.86853631799994], [151.21969341800002, -33.86848930799994], [151.21967041800008, -33.86844032799996], [151.219654428, -33.86838931799997], [151.21964541800003, -33.868339307999975], [151.21964344800006, -33.86830732799996], [151.21964442800004, -33.868274317999976], [151.21964844800004, -33.86824031799995], [151.219654428, -33.86820831799997], [151.2196634080001, -33.86817630799993], [151.21969341800002, -33.86818231799998], [151.21972542800006, -33.86818131799998], [151.2197524380001, -33.86816931799996], [151.21977743800005, -33.868142327999976], [151.21978542800002, -33.86811531799998], [151.21977042800006, -33.86809231799998], [151.21974140800012, -33.868072317999975], [151.21972042800007, -33.86806130799994], [151.21970242800012, -33.868053317999966], [151.21959840800002, -33.86803731799995], [151.2200674290001, -33.86652131799997], [151.21993245900012, -33.86647532799998], [151.22001442900012, -33.866174317999935], [151.21990343900006, -33.866090327999984], [151.2199264290001, -33.86604730799996], [151.21989040900007, -33.86600231799997], [151.22000541900002, -33.865903327999945], [151.22024043900012, -33.86564232799998], [151.22028843900011, -33.86566831799996], [151.22045341900002, -33.86551130799995], [151.22043742900007, -33.865356317999954], [151.220464439, -33.86532730799996], [151.22048944900007, -33.86529731799993], [151.22053743900005, -33.86523532799998], [151.2205584290001, -33.86520331799994], [151.22057842900006, -33.865168317999974], [151.22062843900005, -33.86505831799997], [151.22064843900012, -33.86502331799994], [151.22067142900005, -33.86499030799996], [151.22072044900005, -33.86492631799996], [151.2207474590001, -33.86489531799998], [151.22077545900004, -33.86486532799995], [151.22080344900007, -33.86483931799995], [151.22089243900007, -33.86476431799997], [151.2209204390001, -33.864739327999985], [151.22097039900007, -33.86468931799993], [151.22106942900007, -33.86458031799998], [151.22112541900003, -33.86451532799998], [151.22115041900008, -33.86448231799994], [151.22117443900004, -33.86444831799997], [151.22119440900008, -33.864414317999945], [151.22121243900006, -33.86437831799998], [151.2212444490001, -33.864305317999936], [151.22125842900004, -33.86426931799997], [151.22126842900002, -33.86424032799994], [151.2212844490001, -33.86418232799997], [151.22129342900007, -33.86415331799998], [151.22130444900006, -33.86412532799994], [151.2213394590001, -33.86405731799994], [151.22135945900004, -33.864023317999965], [151.22138241900007, -33.86399230799998], [151.22140745900003, -33.86396132799996], [151.22143840900003, -33.863929317999975], [151.22147242900007, -33.86389831799994], [151.2215094390001, -33.86387032799996], [151.22154845900002, -33.863843317999965], [151.22158944900002, -33.863820317999966], [151.2216384290001, -33.86385631799993], [151.22241441900007, -33.863135317999934], [151.222359449, -33.86308331799995], [151.2225434490001, -33.86285831799995], [151.222758429, -33.86264031799993], [151.22278941900004, -33.86259132799995], [151.22282941900005, -33.86254631799994], [151.22287343900007, -33.86250132799995], [151.22291442900007, -33.862456307999935], [151.2229454190001, -33.86240732799996], [151.22297041900003, -33.86234932799994], [151.222988449, -33.862289317999966], [151.2230014490001, -33.862226317999955], [151.22300742900006, -33.86216432799995], [151.22300640900005, -33.86210331799998], [151.22285142900012, -33.86079130799993], [151.22283142900005, -33.860440307999966], [151.22280043900003, -33.860166327999934], [151.22278642900005, -33.86012830799996], [151.22277642900008, -33.860088307999945], [151.2227714590001, -33.86004731799994], [151.2227714590001, -33.86000631799993], [151.22277642900008, -33.85996732799998], [151.22278445900008, -33.859937317999936], [151.22279441900002, -33.85990630799995], [151.22280744900002, -33.859877317999974], [151.22282441900006, -33.85984930799998], [151.22284343900003, -33.85982431799994], [151.2228614290001, -33.859809317999975], [151.2229044290001, -33.85978531799998], [151.22292344900006, -33.859772317999955], [151.22293643900002, -33.85975630799993], [151.222943449, -33.85973231799994], [151.22294045900003, -33.85970330799995], [151.22293242900002, -33.85967231799998], [151.22292143900006, -33.859641317999944], [151.2229024190001, -33.85957931799993], [151.22289143900002, -33.85954631799996], [151.22285142900012, -33.85945031799997], [151.2228094190001, -33.85934331799996], [151.22279244900005, -33.85930831799993], [151.2227724490001, -33.85927431799996], [151.22275243900003, -33.85924432799993], [151.22272940900007, -33.85921431799994], [151.22270444900005, -33.859186327999964], [151.2226774390001, -33.85915931799997], [151.22264845900008, -33.85913531799997], [151.22260143900007, -33.859108307999975], [151.2225484490001, -33.859085317999984], [151.22249245900002, -33.85906731799997], [151.22243342900003, -33.859052317999954], [151.22237543900007, -33.859040327999935], [151.22233144900008, -33.85903231799995], [151.22228542900007, -33.85902631799996], [151.22223943900008, -33.85902232799998], [151.2221934490001, -33.85902032799993], [151.22214843900008, -33.85902132799998], [151.2220994590001, -33.859025317999965], [151.2220494190001, -33.85903231799995], [151.2220004390001, -33.85904232799993], [151.2219534190001, -33.85905530799994], [151.22190943900011, -33.859071307999955], [151.2218604190001, -33.85909732799996], [151.22181544900002, -33.85912930799998], [151.22177343900012, -33.85916630799994], [151.2216954390001, -33.859243327999934], [151.2216454390001, -33.85930132799996], [151.2216024390001, -33.85936431799996], [151.22156243900008, -33.859429327999976], [151.22142643900008, -33.85966832799994], [151.22139741900003, -33.859722327999975], [151.2213704090001, -33.859777307999934], [151.22134543900006, -33.859832307999966], [151.2213214290001, -33.859892327999944], [151.22129944900007, -33.859952317999955], [151.221262399, -33.86007432799994], [151.22124842900007, -33.860136317999945], [151.22110942900008, -33.86064430799996], [151.22093641900005, -33.86105330799995], [151.22062142900006, -33.86171830799998], [151.22044943900005, -33.86206631799996], [151.2202514290001, -33.86238330799995], [151.22021342900007, -33.86243930799998], [151.22013243900005, -33.862549307999984], [151.22008943900005, -33.86260231799997], [151.21999344900007, -33.86271231799998], [151.2199394590001, -33.86276831799995], [151.2198844190001, -33.86282331799998], [151.21982641900001, -33.862875317999965], [151.21976444900008, -33.86292532799996], [151.21966541900008, -33.86299530799994], [151.2196134390001, -33.86302831799998], [151.21955945900004, -33.863059317999955], [151.21950543900005, -33.86308830799993], [151.2193514490001, -33.86315531799994], [151.21918441900004, -33.863209317999974], [151.21901042900004, -33.863251307999974], [151.21883442900003, -33.86327832799998], [151.2186614190001, -33.86329030799993], [151.21846843900005, -33.863284317999955], [151.21826845900011, -33.86326031799996], [151.21807040900012, -33.863217307999946], [151.21788242900004, -33.86315831799993], [151.21771343900002, -33.863082317999954], [151.21757944900003, -33.86300131799993], [151.2174524290001, -33.862905327999954], [151.21733642900006, -33.86279931799993], [151.2172334290001, -33.86268532799994], [151.21714542000007, -33.86256631799995], [151.21708243000012, -33.862462327999935], [151.21702844000004, -33.86235132799993], [151.21698442000002, -33.862237307999976], [151.21695245000012, -33.862121317999936], [151.21693442000003, -33.862005317999945], [151.21693146000007, -33.86189331799994], [151.21694044000003, -33.861779327999955], [151.21696143000008, -33.861664307999945], [151.21699143000012, -33.861551307999946], [151.21702746000005, -33.86144030799994], [151.21705943000006, -33.861356317999935], [151.2172144100001, -33.86073331799997], [151.21724142000005, -33.86062131799997], [151.21725945000003, -33.86050631799998], [151.21726620000004, -33.86040762799996], [151.21726744000011, -33.86038932799994], [151.21726744000011, -33.86027330799993], [151.21725642, -33.860159317999944], [151.21724142000005, -33.860069317999944], [151.21721945000002, -33.85998030799993], [151.2171914500001, -33.85989132799995], [151.21715944000005, -33.85980331799993], [151.21712345000003, -33.85971731799998], [151.2170924300001, -33.85964730799998], [151.21705943000006, -33.85957732799994], [151.21702242000003, -33.85950831799994], [151.21698242000002, -33.85944130799993], [151.21693843000003, -33.85937731799993], [151.21688843000004, -33.85931230799997], [151.21683441000005, -33.859250316999976], [151.2167764500001, -33.85918932699997], [151.21671443000002, -33.85913132699994], [151.21665041000006, -33.859077326999966], [151.21658745000002, -33.859044316999984], [151.2164634600001, -33.85897631699993], [151.21640345000003, -33.85894230699995], [151.2162744300001, -33.85886631699998], [151.2161404300001, -33.85878431699996], [151.21607645000006, -33.85874030699995], [151.21601542000008, -33.85869431699996], [151.21594541000002, -33.858636316999934], [151.2158784400001, -33.85857532699998], [151.21581544000003, -33.858511316999966], [151.21575945000006, -33.85844430699996], [151.21571342000004, -33.85837332699998], [151.21569145000012, -33.85832631699998], [151.21567634000007, -33.85828409699997], [151.21565743000008, -33.858226326999954], [151.21564243000012, -33.85817531699996], [151.21562443000005, -33.858125316999974], [151.21560746000011, -33.85808931699995], [151.21557144000008, -33.85801830699995], [151.2155564300001, -33.85798332699994], [151.21554442000001, -33.85794632699998], [151.21553946000006, -33.857915316999936], [151.21553545000006, -33.85788331699996], [151.21553344000006, -33.857851306999976], [151.21553643000004, -33.85778831699997], [151.21575441000005, -33.856981306999955], [151.21577145000003, -33.85694630699993], [151.21579843000006, -33.85691432699997], [151.21583146000012, -33.85688231699993], [151.21586343, -33.856849316999956], [151.21588844000007, -33.85681530699998], [151.21591245000002, -33.856767316999935], [151.2159324600001, -33.85671631699995], [151.21594844000003, -33.85666431699997], [151.2159594300001, -33.85661230699998], [151.2159654200001, -33.85655932699996], [151.21590545100003, -33.856539306999935], [151.2159034010001, -33.856488326999965], [151.21589442100003, -33.856436316999975], [151.21587741100006, -33.85638531699993], [151.21585544100003, -33.856336306999935], [151.2158284310001, -33.85629131699994], [151.21579044100008, -33.856244326999956], [151.2157424410001, -33.85620131699994], [151.21568845100012, -33.85616131699993], [151.21563144100003, -33.85612731699996], [151.21557144100007, -33.85609932699998], [151.21551442100008, -33.85608132699997], [151.21545343100001, -33.856069316999935], [151.21539043100006, -33.85606132699996], [151.2153274310001, -33.85605730699996], [151.21526443100004, -33.85605531699997], [151.21520943100006, -33.85605730699996], [151.2151534410001, -33.85606132699996], [151.21509843100011, -33.856069316999935], [151.21504445100004, -33.856079326999975], [151.21499145100006, -33.85609131699994], [151.21494944100004, -33.85610331699996], [151.21490746100005, -33.856117326999936], [151.21486644100003, -33.85613230699994], [151.21482643100012, -33.85614930699995], [151.2147884410001, -33.856167306999964], [151.21462444100007, -33.856095306999975], [151.21424043100012, -33.85741431699995], [151.2141124210001, -33.85734331699996], [151.21409643100003, -33.857416316999945], [151.21407844100008, -33.85749031699993], [151.21405844100002, -33.85756331699997], [151.21403544100008, -33.85763532699997], [151.2139674110001, -33.857820326999956], [151.21392043100002, -33.857934316999945], [151.21386743100004, -33.858046316999946], [151.2138034510001, -33.85815132699997], [151.21372545100007, -33.85824632699996], [151.21363642100005, -33.858321316999934], [151.2135324410001, -33.85838531699994], [151.21342144100004, -33.858445306999954], [151.2133114610001, -33.85850631699998], [151.213209451, -33.85857430699997], [151.2131274310001, -33.85863731699993], [151.21304644100007, -33.85870230699993], [151.21296844100004, -33.85876931699994], [151.2128974410001, -33.85883931699993], [151.21285211100007, -33.85889415699995], [151.21283543100003, -33.85891431699997], [151.21278846100006, -33.85898432699997], [151.21274743100003, -33.85905732699996], [151.212711441, -33.85913332699994], [151.21268242100007, -33.85921031699996], [151.21266144100002, -33.85928731699994], [151.21264943100005, -33.85935931699993], [151.21264541100004, -33.85943231699997], [151.21264541100004, -33.859506316999955], [151.21265443100003, -33.85965331699998], [151.21265144100005, -33.85972232699993], [151.21265443100003, -33.85974432699993], [151.21266344100002, -33.859761326999944], [151.21268341100006, -33.85978132699995], [151.21270845100003, -33.85979632699997], [151.21263089, -33.860489136999945], [151.21260044000007, -33.86076631699996], [151.2125934400001, -33.86080531699997], [151.2125844200001, -33.860842316999936], [151.21256942000002, -33.86087631699996], [151.21254642000008, -33.860910316999934], [151.21251843000005, -33.86094332699997], [151.21248543000002, -33.860973316999946], [151.2124494400001, -33.86100032699994], [151.21211244000006, -33.86119631699995], [151.21218142100008, -33.86052231699995], [151.2119454210001, -33.86051031699998], [151.21190344000001, -33.86119731699995], [151.2115464310001, -33.86117431699995], [151.2116374310001, -33.86048731699998], [151.2114174410001, -33.860479306999935], [151.21133744100007, -33.86115231699995], [151.21102445100007, -33.86112530699995], [151.21111544100006, -33.860447326999974], [151.210907431, -33.86042632699997], [151.21081143100002, -33.86107632699998], [151.210810411, -33.86110830699994], [151.21052542100006, -33.86108531699995], [151.21052641100005, -33.86104031699995], [151.21061043100008, -33.860403306999956], [151.21039643100005, -33.86038231699996], [151.21029441100006, -33.861045316999935], [151.21001946100012, -33.86103230699996], [151.21012746100007, -33.86036031699996], [151.2099294510001, -33.86033831699996], [151.20981144100006, -33.861006316999976], [151.20977841100012, -33.86100831699997], [151.2097444310001, -33.86100431699998], [151.2097054510001, -33.86099131699996], [151.20968344100004, -33.86097830699998], [151.2096614310001, -33.86096232699998], [151.20964241100012, -33.86094432699997], [151.20962642100005, -33.86092632699996], [151.2096134310001, -33.86090832699995], [151.2096024110001, -33.86088932699994], [151.20959343100003, -33.86086932699993], [151.20958642100004, -33.86084830699997], [151.20958142100005, -33.86082731699997], [151.20958241100004, -33.86080131699998], [151.20982042100002, -33.85937332699996], [151.21006045100012, -33.85939431699995], [151.21044045100007, -33.857411326999966], [151.21031244100004, -33.85729131699998], [151.21038643100007, -33.85689030699996], [151.2102874410001, -33.856880316999934], [151.210275431, -33.85697131699993], [151.20963701100004, -33.85695285699995], [151.20961843100008, -33.85695231699998], [151.20928843100012, -33.85652831699997], [151.20924744100012, -33.856399316999955], [151.2092163110001, -33.85631188699995], [151.20919543200012, -33.85625331699998], [151.20916642200007, -33.856079326999975], [151.20932442200012, -33.855881316999955], [151.21012144100007, -33.85593831699998], [151.21012242100005, -33.855892306999976], [151.21016243100007, -33.85589130699998], [151.21020542100007, -33.85588031699996], [151.2102494410001, -33.855863316999944], [151.2102914510001, -33.85584331699994], [151.21033441100008, -33.85583031699997], [151.2103774510001, -33.85581530699994], [151.21041844100012, -33.85579631699994], [151.21045742100011, -33.855776316999936], [151.21049345100005, -33.85575231699994], [151.21052542100006, -33.85572932699995], [151.2105574310001, -33.85570231699995], [151.21058543100003, -33.855674326999974], [151.2106094410001, -33.85564431699993], [151.21062543100004, -33.85561330699994], [151.210633421, -33.85559131699995], [151.21063744100002, -33.85556831699995], [151.21063945100002, -33.85554432699996], [151.21063945100002, -33.85552030699995], [151.2106384210001, -33.85549731699996], [151.21063441100011, -33.85546331699993], [151.21062641100002, -33.85542930699995], [151.21061543100006, -33.85540531699996], [151.2106044410001, -33.85538831699995], [151.21059145100003, -33.85537230699998], [151.209867432, -33.85425731699996], [151.2097484420001, -33.854197316999944], [151.20956164200004, -33.85408931699993], [151.20939381200003, -33.85399096699996], [151.2086274620001, -33.853541306999944], [151.20805043200005, -33.853499316999944], [151.20768141200006, -33.85491831699994], [151.20720042200003, -33.85506332699998], [151.20661145200006, -33.85368631699998], [151.206220432, -33.85382232599994], [151.20679840200012, -33.85525031699996], [151.206804432, -33.85541632699994], [151.20656645200006, -33.85559630699993], [151.20634843200003, -33.85576432599993], [151.20624141200005, -33.85567432599993], [151.20558744200002, -33.85413532599995], [151.20517445200005, -33.85425931599997], [151.20589043200005, -33.85599131599997], [151.20589043200005, -33.856017315999964], [151.20588842200004, -33.85604432599996], [151.20588543200006, -33.85606731599995], [151.20587944200008, -33.856088315999955], [151.2058704320001, -33.85610931599996], [151.20586043200012, -33.85612930599996], [151.20584743200004, -33.85614930599996], [151.20583342200007, -33.85616631599993], [151.20575242200005, -33.85621032599994], [151.20544243200004, -33.85642331599996], [151.2054224320001, -33.85641931599997], [151.2053764420001, -33.85635430599996], [151.20554342200012, -33.85627131599995], [151.20548842200003, -33.85619332599998], [151.2054604220001, -33.85614031599994], [151.2048334320001, -33.85465030599994], [151.20464344200002, -33.85470630599997], [151.20461844200008, -33.854647315999955], [151.20463041200003, -33.854628315999946], [151.204823432, -33.85451831599994], [151.20479842200007, -33.85448732599997], [151.20456044200012, -33.85462231599996], [151.2045274520001, -33.854636325999934], [151.2041594520001, -33.85474732599994], [151.2041614320001, -33.854813315999934], [151.20391144200005, -33.854894325999965], [151.203926442, -33.854929305999974], [151.20395243200005, -33.854921315999945], [151.20403444200008, -33.85511632599997], [151.2040704320001, -33.85510631599993], [151.20463242200003, -33.85644331599997], [151.20464344200002, -33.85644331599997], [151.204646442, -33.85650030599993], [151.20467542200004, -33.85649931599994], [151.20467743200004, -33.85659230599998], [151.20464844200012, -33.856620315999976], [151.20418844200003, -33.85662531599996], [151.2041154420001, -33.856440315999976], [151.20409244200005, -33.85638431599995], [151.20426344200007, -33.85626632599997], [151.20378642200012, -33.855128315999934], [151.20360944200002, -33.85523131599996], [151.20356242200012, -33.855119325999965], [151.20314545300005, -33.855240315999936], [151.20362342200008, -33.85638331599995], [151.2035274220001, -33.856521305999934], [151.20349344200008, -33.856534315999966], [151.2034344220001, -33.85650532599993], [151.20331444200008, -33.85644430599996], [151.20287243200005, -33.85627331599994], [151.202790412, -33.856294315999946], [151.20266544300011, -33.855240315999936], [151.200181433, -33.85537031599995], [151.20030542300003, -33.85703630599994], [151.2001844230001, -33.85712231599996], [151.2000134230001, -33.857120315999964], [151.20065542200007, -33.86280830599998], [151.20081445200003, -33.862820315999954], [151.200823172, -33.86294955599993], [151.20088654200003, -33.86343780599998], [151.200885512, -33.86349049599994], [151.20099531200003, -33.86449641599995], [151.20107287100006, -33.86522146599998], [151.20113988100002, -33.86583198599993], [151.20126442100002, -33.86696531599995], [151.20149244100003, -33.86903132599997], [151.2015577310001, -33.86905977599997], [151.2016152210001, -33.869056015999945], [151.20162559100004, -33.86906016599994], [151.20141480100006, -33.86961172599996], [151.20125843100004, -33.869570315999965], [151.20116945100006, -33.86982332599996], [151.20125040100004, -33.86994531599993], [151.2022594110001, -33.87025232599996], [151.20238643100004, -33.87035630599996], [151.20231146100002, -33.87068631599993], [151.20219645100008, -33.87067832599996], [151.2021650910001, -33.870810225999946], [151.20182846000012, -33.87222530599996], [151.20175943000004, -33.872224305999964], [151.20164709000005, -33.87271228599997], [151.20154346000004, -33.873162315999934], [151.20080142000006, -33.87340930599993], [151.2004394500001, -33.87353131599997], [151.20032444000003, -33.87340930599993], [151.19989242100007, -33.87273331599994], [151.1999664110001, -33.87269332599993], [151.19964145100005, -33.872149315999934], [151.19946844100002, -33.87221432599995], [151.19954045100008, -33.871150315999955], [151.19920845100012, -33.870940315999974], [151.19922144100008, -33.87071531599997], [151.19926743100007, -33.870463315999984], [151.19928846100004, -33.870272315999955], [151.1992879810001, -33.870259905999944], [151.19926243100008, -33.86954832599997], [151.19925842100008, -33.86940631599998], [151.1990784410001, -33.86938032599994], [151.19908643100007, -33.86897532599994], [151.19922845100007, -33.868826325999976], [151.19927645100006, -33.868538315999956], [151.19920746100001, -33.86852530599998], [151.19919443100002, -33.868455325999946], [151.19888944100012, -33.86843932599993], [151.1988904210001, -33.86838132599996], [151.19862642100009, -33.86840132599997], [151.1986254310001, -33.86844731599996], [151.19829146100005, -33.86845432599995], [151.19823244100007, -33.86800131599995], [151.19833741200011, -33.86767031599993], [151.19899343200007, -33.86557132599995], [151.19784346200004, -33.86528630599997], [151.19776474200012, -33.865488245999984], [151.19777941200005, -33.86549148599994], [151.198019562, -33.86555458599997], [151.19758854200006, -33.866689605999966], [151.19708661200002, -33.86655729599994], [151.19700777200012, -33.866767455999934], [151.19747978200007, -33.86689177599993], [151.19716043200003, -33.86775030599995], [151.19612434200008, -33.86747906599993], [151.1961835520001, -33.86733335599996], [151.1961110620001, -33.867273215999944], [151.1961514620001, -33.86717695599998], [151.19678642200006, -33.86563231599996], [151.19706612200002, -33.86495336599995], [151.1976734420001, -33.86352431599994], [151.19752445200004, -33.86347530599994], [151.19737546200008, -33.86376930599994], [151.19696943200006, -33.86358331599996], [151.1966484520001, -33.863435315999936], [151.1957364220001, -33.86431232599995], [151.1956547320001, -33.86438232599994], [151.1951765120001, -33.86484752599995], [151.1946974120001, -33.86531032499994], [151.19444242200007, -33.86539231499995], [151.1941694420001, -33.865217324999946], [151.1941634520001, -33.86516432499997], [151.1942124420001, -33.865079314999946], [151.1961444630001, -33.86257831599994], [151.19522243300003, -33.86246631599994], [151.1937634530001, -33.864269314999945], [151.19359544300005, -33.86435231499996], [151.1933964430001, -33.86402731499993], [151.19341645300005, -33.86386932499994], [151.19344944300008, -33.863784314999975], [151.1942884330001, -33.862571324999976], [151.1942884330001, -33.86254731499997], [151.19428445300002, -33.862523314999976], [151.19427244300005, -33.86248331499996], [151.19425744300008, -33.86245531499998], [151.194238433, -33.862427314999934], [151.19421543300007, -33.86240330499993], [151.19419043300002, -33.862385304999975], [151.1941594430001, -33.86237231499996], [151.19412444300008, -33.86236331499998], [151.19408743300005, -33.86235831499994], [151.194050413, -33.86235831499994], [151.19401643300012, -33.86236331499998], [151.1920864230001, -33.86324331499998], [151.19160641300004, -33.863507314999936], [151.19095744300012, -33.86380131499993], [151.19091842300008, -33.86381731499995], [151.19088243300007, -33.863837314999955], [151.190817723, -33.86387958499995], [151.19078177300003, -33.863923934999946], [151.19097941300004, -33.86441231499998], [151.19101945300008, -33.86464731499996], [151.1912794430001, -33.86525130499996], [151.1912477630001, -33.86526351499998], [151.1912522130001, -33.865277204999984], [151.1912861630001, -33.86535168499995], [151.1913741630001, -33.86532482499996], [151.19140223300008, -33.86539192499998], [151.19124043300008, -33.86544132499995], [151.1912482030001, -33.865459474999966], [151.1911256730001, -33.86549578499995], [151.19113983300008, -33.86554025499993], [151.1910114630001, -33.86557232499996], [151.19095945300012, -33.86558231499998], [151.19090444300002, -33.86558932499997], [151.19084944300005, -33.86559431499995], [151.19079545300008, -33.86559631499995], [151.19074143300008, -33.86559631499995], [151.19063544300002, -33.86558530499997], [151.19053043300005, -33.86556031499998], [151.19040718300005, -33.86552122499995], [151.19032044300002, -33.865492304999975], [151.19021645300006, -33.86545932499996], [151.18999443300004, -33.865394314999946], [151.1895144130001, -33.86575332499996], [151.18924544300012, -33.86601931499996], [151.18907842300007, -33.86591031499995], [151.18869240300012, -33.86634920499995], [151.18812942300008, -33.86698930499995], [151.18837543300003, -33.86719632499995], [151.1874044230001, -33.868055314999935], [151.187350443, -33.86804630499995], [151.187309453, -33.868044304999955], [151.18728842300004, -33.86804530499995], [151.1872694430001, -33.868047324999964], [151.1872354630001, -33.868055314999935], [151.18720243300004, -33.86806732499997], [151.18709041300008, -33.86817430499997], [151.18705742300006, -33.868145314999936], [151.1869464230001, -33.86824331499997], [151.18725145300004, -33.86851531499997], [151.1872310130001, -33.86856186499995], [151.18607546300007, -33.868194304999975], [151.18602844300005, -33.86829050499995], [151.185990413, -33.86836831499994], [151.1871364430001, -33.86871532499998], [151.18719342300005, -33.86873632499993], [151.18721743300011, -33.86874830499994], [151.18724043300006, -33.86876231499997], [151.18726043300012, -33.86877831499993], [151.18728043300007, -33.86880130499998], [151.18729645300004, -33.86882832499998], [151.187309453, -33.86885730499995], [151.1873174430001, -33.86888631499994], [151.18733441300003, -33.86912631499996], [151.18734445300004, -33.86914931499996], [151.18737745300007, -33.86921731499996], [151.187435853, -33.869319754999935], [151.18741931300008, -33.86932097499994], [151.18730277300006, -33.869384544999946], [151.18729390300007, -33.869497904999946], [151.1872794830001, -33.86964983499996], [151.18724046300008, -33.86975502499996], [151.1879378330001, -33.869938504999936], [151.18800445300008, -33.87000331499996], [151.18809044300008, -33.87008232499994], [151.1881794630001, -33.87015832499998], [151.18827144300008, -33.87023232499996], [151.18833342300002, -33.870291314999974], [151.188432443, -33.87037530499998], [151.18850442300004, -33.87043030499996], [151.18854143300007, -33.870456314999956], [151.1886174330001, -33.870508324999946], [151.18867743300007, -33.87054732499996], [151.18873744300004, -33.87058432499998], [151.188799452, -33.87062032499995], [151.18886241200005, -33.87065530499996], [151.18892643200002, -33.87068930499993], [151.18986543200003, -33.87104831499994], [151.18999545200006, -33.87112731499997], [151.19008144200006, -33.871181314999944], [151.19016944200007, -33.871240314999966], [151.19025544200008, -33.87130030499998], [151.19034143200008, -33.871360324999955], [151.1904264420001, -33.871421314999964], [151.1905134220001, -33.87148131499998], [151.19057244200008, -33.87152031499994], [151.1906944220001, -33.871597304999966], [151.19075242200006, -33.87163732499994], [151.19080644200005, -33.87168131499993], [151.19085342200003, -33.871728304999976], [151.19089842200003, -33.87177831499997], [151.19094043200005, -33.871830314999954], [151.19097843200007, -33.87188431499993], [151.19101146200012, -33.871938314999966], [151.19094043200005, -33.871983314999966], [151.1911054520001, -33.87229231499998], [151.1913704420001, -33.87236131499998], [151.19162743200002, -33.87275631499995], [151.19161043200006, -33.87285331499993], [151.191938412, -33.87340930499994], [151.19209442200008, -33.87367831499995], [151.1921354420001, -33.87366830499997], [151.19232743200007, -33.87386331499994], [151.19216643200002, -33.873972314999946], [151.19210745200007, -33.87397131499995], [151.1918616920001, -33.87374402499995], [151.19139201200005, -33.87406150499993], [151.19057335200011, -33.874612844999945], [151.190150022, -33.874173224999936], [151.19000045200005, -33.87427320499995], [151.19051382200007, -33.87480711499995], [151.19009732200004, -33.87509058499995], [151.18984894200003, -33.87480219499997], [151.1897270620001, -33.87467489499994], [151.18957285200008, -33.87454935499994], [151.1892454120001, -33.87476158499993], [151.18940243200007, -33.87494231499994], [151.18959245200006, -33.87514031499995], [151.18960150200007, -33.87542467499998], [151.18933586200012, -33.87560104499994], [151.18944543200007, -33.87576232499998], [151.1893424320001, -33.87582731499998], [151.18858844200008, -33.87495831499996], [151.18836842200005, -33.87405031499998], [151.1882614420001, -33.87391030499998], [151.1881734420001, -33.87372530499994], [151.18813041200008, -33.873571314999936], [151.18808836200003, -33.87353200499996], [151.18802244200003, -33.87347032499997], [151.18777041200008, -33.87340930499994], [151.18729244200006, -33.87328532499998], [151.1871364420001, -33.87324230499996], [151.18609841300008, -33.87296131499994], [151.1860044330001, -33.872902314999976], [151.18593344300007, -33.87284431499995], [151.1858664230001, -33.87278230499993], [151.18580244300006, -33.87271931499998], [151.18574042300008, -33.87265432499993], [151.18565644300008, -33.87255631499994], [151.18557844300005, -33.87245332499998], [151.18550744300012, -33.87234631499996], [151.18544043300005, -33.87223731499995], [151.1853784230001, -33.87212831499994], [151.1853404630001, -33.87205730499994], [151.18530443300006, -33.87198530499995], [151.18527143300003, -33.871913304999964], [151.18523946300002, -33.87184032499994], [151.18520942300006, -33.87176732499995], [151.18521041300005, -33.87173032499993], [151.18520844300008, -33.87169532499996], [151.18520442300007, -33.87167030499995], [151.185192453, -33.87162032499998], [151.18517044300006, -33.87155731499996], [151.1851524430001, -33.871518314999946], [151.18513244300004, -33.87148131499998], [151.18508642300003, -33.87140831499994], [151.18506641300007, -33.87138231499995], [151.18504543300003, -33.87135730499995], [151.1850234530001, -33.87133331499996], [151.18500345300004, -33.871308314999965], [151.18498542300006, -33.871282304999966], [151.1849744330001, -33.87126131499997], [151.18496443300012, -33.87123931499997], [151.18494746300007, -33.871195324999974], [151.18494144300007, -33.87117230499996], [151.18493943300007, -33.871150314999966], [151.18494045300008, -33.87112731499997], [151.18494242300005, -33.871105314999966], [151.18494144300007, -33.87108332499997], [151.18493443300008, -33.871063324999966], [151.18491443300002, -33.87104130499995], [151.18488943300008, -33.87102031499995], [151.18487344300001, -33.87099531499996], [151.18486442300002, -33.87096530499997], [151.18485344300007, -33.87093831499993], [151.1848404430001, -33.870921314999975], [151.18482544300002, -33.87090531499996], [151.18480843300006, -33.87089031499994], [151.1847904430001, -33.870877304999965], [151.18477146300006, -33.870866314999944], [151.184602433, -33.870895304999976], [151.1843964630001, -33.87092331499997], [151.1839487530001, -33.87129584499996], [151.18359543300005, -33.87158531399996], [151.18333442300002, -33.87179631399994], [151.18320236300008, -33.871894063999946], [151.183133923, -33.87179057399993], [151.182873093, -33.871910543999945], [151.1829889830001, -33.87208907399997], [151.18289707300005, -33.872135843999956], [151.18276732300012, -33.87220044399993], [151.1825063430001, -33.87214784399998], [151.18224843300004, -33.87205231399997], [151.18217945300012, -33.871996313999944], [151.18210845300007, -33.871943313999964], [151.18207144300004, -33.87191732399998], [151.18203042300001, -33.87189130399997], [151.18201742300005, -33.87187530399996], [151.1820084430001, -33.871859323999956], [151.1820034430001, -33.871841323999945], [151.181810433, -33.871598303999974], [151.18164844300009, -33.87152732399994], [151.1815894230001, -33.87150530399998], [151.18156844300006, -33.87149831399995], [151.18152343300005, -33.87148630399997], [151.180772444, -33.87126732399997], [151.18074240400006, -33.87129231399996], [151.18061341400005, -33.871257313999934], [151.18058746400004, -33.87124331399997], [151.1805594340001, -33.871234313999935], [151.18052143400007, -33.871229323999955], [151.18048946400006, -33.871233633999964], [151.18047628400006, -33.87119376399994], [151.180196184, -33.871272243999954], [151.17753135400005, -33.87258927399995], [151.177355314, -33.87267539399994], [151.17727958400008, -33.872709853999936], [151.1772179740001, -33.87268506399994], [151.1770159040001, -33.87256855399994], [151.17698236400008, -33.87260925399994], [151.176771464, -33.87251231399995], [151.17658345400002, -33.87239330399996], [151.17648545400004, -33.87234332399993], [151.17638343400006, -33.87230532399997], [151.1763214240001, -33.87229131399994], [151.17625842400003, -33.87228030399996], [151.17619443400008, -33.87227231399993], [151.17593744400006, -33.87224530399993], [151.1758724340001, -33.872239313999955], [151.17580943400003, -33.872239313999955], [151.1757474540001, -33.87224630399993], [151.17571442400003, -33.872254313999974], [151.17568142400012, -33.87226430399994], [151.17564941400008, -33.87227531399998], [151.17561744400007, -33.872288313999945], [151.17558744400003, -33.872302323999975], [151.17527642400012, -33.87243030399998], [151.17525255400005, -33.87256992399995], [151.1752295240001, -33.87257027399994], [151.17520609400003, -33.872573073999945], [151.17518273400003, -33.87257812399997], [151.17516042400007, -33.87258522399998], [151.1751402440001, -33.87259414399995], [151.174821274, -33.87271572399993], [151.17484036400003, -33.87273011399998], [151.17488284400008, -33.87276909399998], [151.1749188340001, -33.87281022399998], [151.17494259400007, -33.87284515399995], [151.17496274400003, -33.87288257399996], [151.17497968400005, -33.87292155399996], [151.17499300400004, -33.872961233999945], [151.17500307400007, -33.873000943999955], [151.1750102640001, -33.87305105399997], [151.17499844400004, -33.87321631399993], [151.17499701400004, -33.87340940399997], [151.1750094240001, -33.87353631399998], [151.17495245400005, -33.87398031399994], [151.17498844400006, -33.87563831399996], [151.17555145400001, -33.87623831399998], [151.1761854240001, -33.87654431399994], [151.17625298300004, -33.876599673999976], [151.1763159830001, -33.87668787399997], [151.17637325300007, -33.87677301399998], [151.1766040330001, -33.87744698399996], [151.176652073, -33.877587363999965], [151.17679716300006, -33.87808597399993], [151.17684983300012, -33.878265373999966], [151.1764390930001, -33.878643403999945], [151.17629911300003, -33.87879839399994], [151.1761761130001, -33.87896939399997], [151.17594412300002, -33.879338393999944], [151.1758181230001, -33.87966639399997], [151.17579914300006, -33.87973740399997], [151.17579009300005, -33.87981939399998], [151.17575713300005, -33.88012340399996], [151.17575315300007, -33.88028139399995], [151.1757811430001, -33.88061139399997], [151.17582020300006, -33.88080525399994], [151.1759201330001, -33.881301393999934], [151.17604215300003, -33.88203339399996], [151.17604131300004, -33.88211936399995], [151.1761043130001, -33.88246246399996], [151.17607117300008, -33.88248045399996], [151.17604745300002, -33.88249330399998], [151.17602544300007, -33.88250931399995], [151.17559744300002, -33.882775323999965], [151.1755714530001, -33.88278830399997], [151.17527091300008, -33.88299525399998], [151.17537424300008, -33.883188763999954], [151.17543326300006, -33.88333491399993], [151.17546144300002, -33.88342232399998], [151.17564160300003, -33.88398981399996], [151.17574253300006, -33.88430654399997], [151.17610760200012, -33.885454213999935], [151.17617918200006, -33.885679763999974], [151.17632105200005, -33.88612698399993], [151.17651614200008, -33.88674187399994], [151.17654494200008, -33.88680828399998], [151.1767537620001, -33.887290133999954], [151.17693918200007, -33.88771900399996], [151.1770054320001, -33.887872313999935], [151.1770934320001, -33.888075313999934], [151.17714825200005, -33.888201393999964], [151.17762071200002, -33.88931677399995], [151.1778132810001, -33.88977139399998], [151.17797129100006, -33.890141393999954], [151.178072691, -33.89038000399995], [151.17813025100008, -33.89051538399997], [151.1782652610001, -33.89083038399997], [151.1784074310001, -33.89118131399994], [151.17872078100004, -33.89111416399993], [151.17881440100007, -33.89108752399994], [151.1791492210001, -33.89099176399998], [151.17929930100001, -33.89132537399996], [151.1794346810001, -33.89163972399996], [151.17958528100007, -33.891989373999934], [151.17972687100007, -33.89232198399998], [151.17983319100006, -33.89257170399998], [151.18005328100003, -33.893098373999976], [151.1803033110001, -33.89370138399994], [151.1805313310001, -33.89422937399996], [151.18090030000008, -33.89508736399995], [151.18098929000007, -33.89529238399996], [151.18104331000006, -33.89541936399996], [151.1811604400001, -33.89572732399995], [151.18091943000002, -33.89592630399994], [151.18071842000006, -33.896059323999964], [151.18058743000006, -33.89613232399995], [151.18002533000003, -33.896434383999974], [151.17979045000004, -33.896555303999946], [151.17964383000003, -33.89665851399997], [151.17958225000007, -33.896709543999975], [151.1795099100001, -33.896784683999954], [151.17914644000007, -33.897215313999936], [151.1788064100001, -33.89761439399996], [151.17871757000012, -33.89773050399998], [151.1783023800001, -33.89826640399997], [151.1780444300001, -33.89862140399998], [151.17792942000005, -33.898747313999934], [151.17789712, -33.898782153999946], [151.1778528100001, -33.89885100399994], [151.1778211300001, -33.89892462399996], [151.1778028000001, -33.89900130399997], [151.1777985000001, -33.89907942399998], [151.17780459000005, -33.89913783399993], [151.1778214200001, -33.89923932399995], [151.1779363600001, -33.89967063399996], [151.17802345000007, -33.899947313999974], [151.17807743000003, -33.90008431399997], [151.17814642000008, -33.90024531399996], [151.1782394500001, -33.900468383999964], [151.17857890000005, -33.901154593999934], [151.17893646000005, -33.90187738399993], [151.1790124900001, -33.902032393999946], [151.1791334500001, -33.902276323999956], [151.17924543000004, -33.90248931399998], [151.17945041000007, -33.90288030399995], [151.179708139, -33.90326906399997], [151.17981548900002, -33.90342137399995], [151.17995078900003, -33.90367255399997], [151.18003747900002, -33.90383337399993], [151.18019044900007, -33.90411634399993], [151.18038345900004, -33.90449435399995], [151.18063443900007, -33.90499835399993], [151.18071148900003, -33.90515836399993], [151.18077357900006, -33.90528852399996], [151.1809554890001, -33.90567136399994], [151.18103648900012, -33.90584436399996], [151.18136928900003, -33.90656589499997], [151.1814517790001, -33.90666255499997], [151.18147407900005, -33.90668866499993], [151.18155974900003, -33.90683814499994], [151.18157197900007, -33.90689377499996], [151.18159215900005, -33.90698691499995], [151.18159000900005, -33.90709643499997], [151.181570189, -33.907244214999935], [151.18146039900012, -33.90729686499998], [151.18141611900012, -33.90731586499993], [151.1813195090001, -33.90785332499996], [151.18119850800008, -33.90852734499998], [151.1811905180001, -33.908601344999965], [151.18116152800008, -33.908857344999944], [151.18112853800005, -33.90902634499997], [151.18120251800008, -33.90954234499998], [151.18121554800007, -33.910638304999964], [151.18124759800003, -33.91334031499997], [151.18144743800008, -33.91347531499997], [151.18123471800004, -33.91382864499997], [151.1813424280001, -33.913890324999954], [151.18133756800012, -33.913936314999944], [151.1812666180001, -33.915895294999984], [151.17891568800007, -33.91620633399998], [151.17732873800003, -33.91735933399997], [151.17679576800003, -33.917749353999966], [151.176702728, -33.91783136399994], [151.17755036800008, -33.91875129399995], [151.1782607670001, -33.91952231399995], [151.17840541700002, -33.91963055399998], [151.17869595700006, -33.919847913999945], [151.17890688700004, -33.919966443999954], [151.1793543770001, -33.920175323999956], [151.17962747700005, -33.92030353399997], [151.1796693770001, -33.92022735399996], [151.17974222700002, -33.920152293999934], [151.1797692770001, -33.92011823399997], [151.17983369700005, -33.92004016399994], [151.18004492700004, -33.919808383999964], [151.18016026700002, -33.91969381399997], [151.1802681570001, -33.91959331499993], [151.1804058770001, -33.919472104999954], [151.18060067700003, -33.919319334999955], [151.1808396770001, -33.91915239499997], [151.1813904270001, -33.91975130499998], [151.1815304370001, -33.919658314999936], [151.181967417, -33.91943431499993], [151.1820106670001, -33.91944428499994], [151.1847896260001, -33.91984325499993], [151.18491606600003, -33.919854244999954], [151.185251536, -33.919883384999935], [151.1852983660001, -33.91988400499997], [151.18540636600005, -33.91989048499994], [151.18545531600012, -33.919896334999976], [151.186542346, -33.92003483499997], [151.187452236, -33.92015076499996], [151.18786154600002, -33.92020872499995], [151.18886328600001, -33.920350654999936], [151.18989484600002, -33.92049845499997], [151.1917643050001, -33.92076699599994], [151.1934854650001, -33.92101134599994], [151.19420979500012, -33.92111393599998], [151.1943052150001, -33.921127455999965], [151.1959126050001, -33.921341455999936], [151.19637553500002, -33.92140491599997], [151.1965137950001, -33.92142391599998], [151.19660847500006, -33.921436865999965], [151.196914095, -33.921486465999976], [151.198420004, -33.921710625999935], [151.19866265400003, -33.92174673599993], [151.19904744400003, -33.92179731599998], [151.1993214140001, -33.921842305999974], [151.19987843400008, -33.92191530599996], [151.200377214, -33.92198205599993], [151.20076790400003, -33.92204408599997], [151.20169920400008, -33.922162456999956], [151.20210935400007, -33.92223006699993], [151.2026766340001, -33.92232084699998], [151.20368859300004, -33.92246017699995], [151.20399819300007, -33.92250192699993], [151.20458533300007, -33.922582036999984], [151.20547096300004, -33.92270217699996], [151.2063270330001, -33.92281855699997], [151.20691384300005, -33.92288317699996], [151.20703875300012, -33.92290108699996], [151.20775010300008, -33.923002966999945], [151.2081056830001, -33.92305690699993], [151.20870807300003, -33.923148296999955], [151.2087566230001, -33.92315497699997], [151.2087800930001, -33.92315821699998], [151.20970566200003, -33.92328418699998], [151.21040335200007, -33.92337927699998], [151.210768432, -33.92343832699993], [151.21100305200002, -33.92346259699997], [151.2111672320001, -33.923488866999946], [151.2112039220001, -33.92349787699993], [151.21137422200002, -33.923539726999934], [151.2115167920001, -33.92357760699997], [151.2116259920001, -33.92360835699998], [151.21167374200002, -33.923621786999945], [151.21175185200002, -33.92365275699996], [151.21185120200005, -33.923696046999964], [151.21224219200008, -33.923852377999935], [151.21245312200006, -33.92392346799994], [151.21267241200007, -33.92399483799994], [151.2128836720001, -33.92404560799997], [151.21311950200004, -33.92409662799997], [151.2142729420001, -33.92431947799997]]]}}]}