{
  "type": "FeatureCollection",
  "name": "Atlanta",
  "crs": {
    "type": "name",
    "properties": {
      "name": "urn:ogc:def:crs:OGC:1.3:CRS84"
    }
  },
  "features": [
    {
      "type": "Feature",
      "properties": {
        "requestedCity": "Atlanta",
        "sourceShapeName": "Fulton",
        "sourceShapeID": "52423323B90883845014784",
        "shapeName": "Fulton",
        "shapeISO": "",
        "shapeID": "52423323B90883845014784",
        "shapeGroup": "USA",
        "shapeType": "ADM2"
      },
      "geometry": {
        "type": "Polygon",
        "coordinates": [
          [
            [
              -84.25874718899996,
              34.185915532000024
            ],
            [
              -84.28223219599994,
              34.18615253200005
            ],
            [
              -84.32826720899999,
              34.18615053000008
            ],
            [
              -84.35230621599999,
              34.176723527000036
            ],
            [
              -84.36133621599998,
              34.137030518000074
            ],
            [
              -84.36268221599994,
              34.12353351500008
            ],
            [
              -84.37929921999995,
              34.118769514000064
            ],
            [
              -84.41145422899996,
              34.10798151000006
            ],
            [
              -84.41843223099994,
              34.109049510000034
            ],
            [
              -84.41853822999997,
              34.094265507000046
            ],
            [
              -84.41893122899995,
              34.07330450200004
            ],
            [
              -84.41903222899998,
              34.06138050000004
            ],
            [
              -84.41101122599997,
              34.04945149800005
            ],
            [
              -84.40839022399996,
              34.03798649500004
            ],
            [
              -84.40360222299995,
              34.03647849500004
            ],
            [
              -84.40123922099997,
              34.014402490000066
            ],
            [
              -84.38333321499994,
              33.99281048700004
            ],
            [
              -84.37477621199997,
              33.986632486000076
            ],
            [
              -84.38306221299996,
              33.96692748100003
            ],
            [
              -84.38865921399997,
              33.95804747900007
            ],
            [
              -84.39803121699998,
              33.95121647700006
            ],
            [
              -84.40518121799994,
              33.94374047500003
            ],
            [
              -84.44739822899999,
              33.90994146700007
            ],
            [
              -84.44271222699996,
              33.90154946500007
            ],
            [
              -84.44142022599993,
              33.89015746300004
            ],
            [
              -84.44309122599998,
              33.87922246000005
            ],
            [
              -84.44717722699994,
              33.874763459000064
            ],
            [
              -84.45593322899998,
              33.86470945700006
            ],
            [
              -84.45437122799996,
              33.85877045500007
            ],
            [
              -84.45983322899997,
              33.85321045400008
            ],
            [
              -84.45549722599998,
              33.82681444800005
            ],
            [
              -84.45588022699997,
              33.825776448000056
            ],
            [
              -84.45788522699996,
              33.82458444800005
            ],
            [
              -84.46843422999996,
              33.82741044800008
            ],
            [
              -84.48013823299993,
              33.81732544600004
            ],
            [
              -84.49533623699995,
              33.80841044300007
            ],
            [
              -84.51541524199996,
              33.790340438000044
            ],
            [
              -84.52913524499996,
              33.783312436000074
            ],
            [
              -84.53803724699998,
              33.77111043300005
            ],
            [
              -84.57813625699998,
              33.74351342600005
            ],
            [
              -84.58543625899995,
              33.73051342300005
            ],
            [
              -84.60519226399998,
              33.717100419000076
            ],
            [
              -84.63265327099998,
              33.69929241500006
            ],
            [
              -84.63012126999996,
              33.693122413000026
            ],
            [
              -84.65273727599998,
              33.68361541100006
            ],
            [
              -84.65461127499998,
              33.66286440600004
            ],
            [
              -84.66143727699995,
              33.65701540500004
            ],
            [
              -84.67713728099994,
              33.65541540400005
            ],
            [
              -84.73003829499999,
              33.636516398000026
            ],
            [
              -84.73571629599996,
              33.624619395000025
            ],
            [
              -84.74177929799998,
              33.62376939400008
            ],
            [
              -84.75273930199995,
              33.63021639500005
            ],
            [
              -84.76310130399997,
              33.61421739200006
            ],
            [
              -84.78329630899998,
              33.60357838900006
            ],
            [
              -84.80565931499996,
              33.58642638400005
            ],
            [
              -84.80893831499998,
              33.57409138100007
            ],
            [
              -84.83234031999996,
              33.54527337400003
            ],
            [
              -84.81587331399999,
              33.52025536900004
            ],
            [
              -84.85071732399996,
              33.511463366000044
            ],
            [
              -84.73054128899997,
              33.510796371000026
            ],
            [
              -84.72100728599997,
              33.510901371000045
            ],
            [
              -84.62103525699996,
              33.510719375000065
            ],
            [
              -84.60954425399996,
              33.502517373000046
            ],
            [
              -84.60567425299996,
              33.51107737500007
            ],
            [
              -84.57029324399997,
              33.52492438000007
            ],
            [
              -84.55686123999999,
              33.52841138100007
            ],
            [
              -84.48366022,
              33.54573838700003
            ],
            [
              -84.47434721699994,
              33.54778238800003
            ],
            [
              -84.45866921299995,
              33.550939389000064
            ],
            [
              -84.45856021499998,
              33.59444239900006
            ],
            [
              -84.45843121599995,
              33.61877640400007
            ],
            [
              -84.45805721699998,
              33.62924740600005
            ],
            [
              -84.457732218,
              33.64848341000004
            ],
            [
              -84.45303221599994,
              33.64121540900004
            ],
            [
              -84.41933120699997,
              33.64861541200003
            ],
            [
              -84.39945020099998,
              33.648315412000045
            ],
            [
              -84.35022818699997,
              33.64791441400007
            ],
            [
              -84.34941818799996,
              33.680352421000066
            ],
            [
              -84.34925719099994,
              33.73912343400008
            ],
            [
              -84.34896619299997,
              33.773850441000036
            ],
            [
              -84.34870119299995,
              33.781868443000064
            ],
            [
              -84.34866019299994,
              33.78297244300006
            ],
            [
              -84.34841919499996,
              33.81740045000004
            ],
            [
              -84.34851019499996,
              33.82512345200007
            ],
            [
              -84.34847219599999,
              33.82635945200008
            ],
            [
              -84.34809519599997,
              33.84529945600008
            ],
            [
              -84.34838819699996,
              33.85254745800006
            ],
            [
              -84.34831319699998,
              33.85395145800004
            ],
            [
              -84.34830219699995,
              33.85749245900007
            ],
            [
              -84.34809319799996,
              33.88209646400003
            ],
            [
              -84.34831919899995,
              33.89090946600004
            ],
            [
              -84.34791719999998,
              33.91501047100007
            ],
            [
              -84.34782720099997,
              33.93802347600007
            ],
            [
              -84.34772920299997,
              33.96108848100005
            ],
            [
              -84.33889919999996,
              33.96970148300005
            ],
            [
              -84.28050118299996,
              33.95602648300007
            ],
            [
              -84.27709718199998,
              33.95762048300003
            ],
            [
              -84.25847417699998,
              33.96843548600003
            ],
            [
              -84.262853179,
              33.973682487000076
            ],
            [
              -84.26308417899997,
              33.98659449000007
            ],
            [
              -84.25467317699997,
              33.986106490000054
            ],
            [
              -84.23335317199997,
              34.00166449400007
            ],
            [
              -84.23332817199997,
              34.00167249400005
            ],
            [
              -84.21249316599994,
              34.00379149500003
            ],
            [
              -84.20335216199999,
              33.989707493000026
            ],
            [
              -84.18102415599998,
              33.99892849500003
            ],
            [
              -84.16917015499996,
              34.02835050200002
            ],
            [
              -84.12346914199998,
              34.033495505000076
            ],
            [
              -84.09769713499998,
              34.050714510000034
            ],
            [
              -84.14344614899994,
              34.055321509000066
            ],
            [
              -84.17834815899994,
              34.07040851100004
            ],
            [
              -84.19043416399995,
              34.08632351400007
            ],
            [
              -84.20584116799995,
              34.09060951400005
            ],
            [
              -84.20597316899995,
              34.09068551400003
            ],
            [
              -84.21618117199995,
              34.09982551600007
            ],
            [
              -84.22746917499995,
              34.09714951500007
            ],
            [
              -84.25893818499998,
              34.109545516000026
            ],
            [
              -84.25874718899996,
              34.185915532000024
            ]
          ]
        ]
      }
    }
  ]
}
