{
  "type": "FeatureCollection",
  "name": "Boston",
  "crs": {
    "type": "name",
    "properties": {
      "name": "urn:ogc:def:crs:OGC:1.3:CRS84"
    }
  },
  "features": [
    {
      "type": "Feature",
      "properties": {
        "requestedCity": "Boston",
        "sourceShapeName": "Suffolk",
        "sourceShapeID": "52423323B97000000441045",
        "shapeName": "Suffolk",
        "shapeISO": "",
        "shapeID": "52423323B97000000441045",
        "shapeGroup": "USA",
        "shapeType": "ADM2"
      },
      "geometry": {
        "type": "Polygon",
        "coordinates": [
          [
            [
              -71.19115562999997,
              42.283067655000025
            ],
            [
              -71.18816762899996,
              42.28042065400007
            ],
            [
              -71.17497262399996,
              42.276012654000056
            ],
            [
              -71.15595861699995,
              42.25649365100003
            ],
            [
              -71.15038661499995,
              42.25746865100007
            ],
            [
              -71.13077160699999,
              42.22793464600005
            ],
            [
              -71.10934760099997,
              42.247998650000056
            ],
            [
              -71.11300960299997,
              42.25869765200008
            ],
            [
              -71.10840560099996,
              42.261124653000024
            ],
            [
              -71.09394259699997,
              42.26714665500003
            ],
            [
              -71.09373659699997,
              42.26714465500004
            ],
            [
              -71.07326458999995,
              42.27032565600007
            ],
            [
              -71.06218958599999,
              42.26716765600003
            ],
            [
              -71.05328458399998,
              42.27751065800004
            ],
            [
              -71.04278258099998,
              42.277110658000026
            ],
            [
              -71.03789457899995,
              42.28490666000005
            ],
            [
              -71.04159458199996,
              42.30370066300003
            ],
            [
              -71.03709457999997,
              42.30660666400007
            ],
            [
              -71.02839557799996,
              42.308807665000074
            ],
            [
              -71.01009357199996,
              42.30519966500003
            ],
            [
              -70.99177790299996,
              42.31310818800006
            ],
            [
              -70.99783856799996,
              42.32121366800004
            ],
            [
              -71.01405257399995,
              42.319167667000045
            ],
            [
              -71.01568057499998,
              42.32602766800005
            ],
            [
              -71.01455545299996,
              42.32871425800005
            ],
            [
              -71.00867397699994,
              42.34275817900004
            ],
            [
              -71.00687757299994,
              42.34704767300008
            ],
            [
              -70.99825356999997,
              42.35279667400005
            ],
            [
              -70.98228278599998,
              42.355928781000046
            ],
            [
              -70.97992756499997,
              42.35639067500006
            ],
            [
              -70.97489756299996,
              42.35585167500005
            ],
            [
              -70.96357855899998,
              42.34686867400006
            ],
            [
              -70.95302255499996,
              42.34398167400008
            ],
            [
              -70.95329255499996,
              42.34970667500005
            ],
            [
              -70.97222356299994,
              42.377324679000026
            ],
            [
              -70.97270656399996,
              42.38176768000005
            ],
            [
              -70.97251356399994,
              42.38505068100005
            ],
            [
              -70.97174056399996,
              42.387079681000046
            ],
            [
              -70.97019556299995,
              42.38804468200004
            ],
            [
              -70.97270656399996,
              42.389976682000054
            ],
            [
              -70.98033656699994,
              42.391521682000075
            ],
            [
              -70.98342656799997,
              42.39625468300005
            ],
            [
              -70.98506856899996,
              42.402049684000076
            ],
            [
              -70.98919556999994,
              42.402606684000034
            ],
            [
              -70.98921705299995,
              42.40267573400007
            ],
            [
              -70.99059557099997,
              42.40710668400004
            ],
            [
              -70.98769457099996,
              42.41670468600006
            ],
            [
              -70.98299456999996,
              42.424004688000025
            ],
            [
              -70.96083556299999,
              42.44128069200008
            ],
            [
              -70.96064798699996,
              42.44379575800008
            ],
            [
              -70.96859456599998,
              42.444404692000035
            ],
            [
              -70.98229456999997,
              42.43130468900006
            ],
            [
              -71.01083557899995,
              42.434690689000035
            ],
            [
              -71.00967157899998,
              42.44105569000004
            ],
            [
              -71.02583658499998,
              42.44471769100005
            ],
            [
              -71.02037758299997,
              42.438258689000065
            ],
            [
              -71.02822758399998,
              42.42421068700003
            ],
            [
              -71.03318158499997,
              42.41421468400006
            ],
            [
              -71.04088758699999,
              42.40175768200004
            ],
            [
              -71.05529559099995,
              42.38710567900006
            ],
            [
              -71.07349659699997,
              42.391804679000074
            ],
            [
              -71.08094759899996,
              42.382386677000056
            ],
            [
              -71.07268959599998,
              42.37323067500006
            ],
            [
              -71.06405959299997,
              42.36900967500003
            ],
            [
              -71.07064459499998,
              42.36795767500007
            ],
            [
              -71.07565759599999,
              42.36162167300006
            ],
            [
              -71.07733459699995,
              42.35909267300008
            ],
            [
              -71.09402560199999,
              42.35373167100005
            ],
            [
              -71.10303260499995,
              42.35252267100003
            ],
            [
              -71.11670460999994,
              42.361263672000064
            ],
            [
              -71.11692160999996,
              42.36425467200007
            ],
            [
              -71.11844461099997,
              42.368624673000056
            ],
            [
              -71.13099761499996,
              42.373900674000026
            ],
            [
              -71.14366761899998,
              42.36508967200007
            ],
            [
              -71.14717061999994,
              42.361762671000065
            ],
            [
              -71.16762562599996,
              42.360081670000056
            ],
            [
              -71.17485062799994,
              42.350345668000045
            ],
            [
              -71.17000362599998,
              42.34426066700007
            ],
            [
              -71.16756562499995,
              42.333449665000046
            ],
            [
              -71.15703662099997,
              42.330398665000075
            ],
            [
              -71.14621561799999,
              42.33864066700005
            ],
            [
              -71.12878061299995,
              42.349567669000066
            ],
            [
              -71.12131161099995,
              42.35168367000006
            ],
            [
              -71.11378460799995,
              42.35078867000004
            ],
            [
              -71.10689460599997,
              42.34859667000006
            ],
            [
              -71.11059760699999,
              42.34041366800005
            ],
            [
              -71.11080860599998,
              42.335594667000066
            ],
            [
              -71.11454760699996,
              42.328380666000044
            ],
            [
              -71.11953960799997,
              42.32275366400006
            ],
            [
              -71.12717761099998,
              42.31861566300006
            ],
            [
              -71.14013561399997,
              42.30215566000004
            ],
            [
              -71.15214861799996,
              42.29462165800004
            ],
            [
              -71.16470262199994,
              42.303838659000064
            ],
            [
              -71.17863662599996,
              42.29460365700004
            ],
            [
              -71.19115562999997,
              42.283067655000025
            ]
          ]
        ]
      }
    }
  ]
}
