{
  "type": "FeatureCollection",
  "name": "Chicago",
  "crs": {
    "type": "name",
    "properties": {
      "name": "urn:ogc:def:crs:OGC:1.3:CRS84"
    }
  },
  "features": [
    {
      "type": "Feature",
      "properties": {
        "requestedCity": "Chicago",
        "sourceShapeName": "Cook",
        "sourceShapeID": "52423323B18311449553443",
        "shapeName": "Cook",
        "shapeISO": "",
        "shapeID": "52423323B18311449553443",
        "shapeGroup": "USA",
        "shapeType": "ADM2"
      },
      "geometry": {
        "type": "Polygon",
        "coordinates": [
          [
            [
              -88.26288094699999,
              41.98638583700006
            ],
            [
              -88.25327694399994,
              41.98655383700003
            ],
            [
              -88.21082993199997,
              41.98726784000007
            ],
            [
              -88.20740193099994,
              41.987333840000076
            ],
            [
              -88.18422092399999,
              41.98760684100006
            ],
            [
              -88.17410192099999,
              41.98770684200008
            ],
            [
              -88.15997591699994,
              41.98791684300005
            ],
            [
              -88.15988491699994,
              41.98791984300004
            ],
            [
              -88.12919690799998,
              41.988843845000076
            ],
            [
              -88.06993889099994,
              41.99105284800004
            ],
            [
              -88.03131587899998,
              41.992533851000076
            ],
            [
              -88.02347187699996,
              41.99249585100006
            ],
            [
              -87.97064186199998,
              41.99300485400005
            ],
            [
              -87.93995185299997,
              41.993488856000056
            ],
            [
              -87.92048184699996,
              41.993893857000046
            ],
            [
              -87.92025684199996,
              41.94160784800005
            ],
            [
              -87.92029384099999,
              41.93130784600004
            ],
            [
              -87.92042883799996,
              41.90685084200004
            ],
            [
              -87.92033583399996,
              41.86217183500003
            ],
            [
              -87.91828782899995,
              41.81872782700003
            ],
            [
              -87.91730982599995,
              41.796404824000035
            ],
            [
              -87.91709482599998,
              41.79124082300007
            ],
            [
              -87.91672182499997,
              41.78162382100004
            ],
            [
              -87.91668882399995,
              41.78076782100004
            ],
            [
              -87.91632782299996,
              41.77152281900004
            ],
            [
              -87.91440381799998,
              41.72019581100005
            ],
            [
              -87.914269817,
              41.71660581000003
            ],
            [
              -87.92107681899995,
              41.716408810000075
            ],
            [
              -87.94140482399996,
              41.70329580600003
            ],
            [
              -87.94235582399995,
              41.69886980500007
            ],
            [
              -87.94723482499995,
              41.69552380500005
            ],
            [
              -87.95530482699996,
              41.69315280400008
            ],
            [
              -87.96667982999998,
              41.686749802000065
            ],
            [
              -87.98032683399998,
              41.687211801000046
            ],
            [
              -87.98215783399996,
              41.68608580100005
            ],
            [
              -88.00494684099993,
              41.68565980000005
            ],
            [
              -88.02897884799995,
              41.68524979800003
            ],
            [
              -88.02856284599994,
              41.66992279600004
            ],
            [
              -88.02769384299995,
              41.64151379100008
            ],
            [
              -87.91193580999999,
              41.643940798000074
            ],
            [
              -87.91046680499994,
              41.60030979000004
            ],
            [
              -87.90938379999994,
              41.55688878300003
            ],
            [
              -87.81226777199998,
              41.55829878800006
            ],
            [
              -87.79279876599998,
              41.558547790000034
            ],
            [
              -87.79229576499995,
              41.543741787000044
            ],
            [
              -87.79041376299995,
              41.52804878400008
            ],
            [
              -87.79032275999998,
              41.49904377900003
            ],
            [
              -87.79031075699999,
              41.47564677500003
            ],
            [
              -87.78730775599996,
              41.469846775000065
            ],
            [
              -87.69865072999994,
              41.46977477900003
            ],
            [
              -87.65407071699997,
              41.46976378200003
            ],
            [
              -87.65324171699996,
              41.469761782000035
            ],
            [
              -87.57734469399998,
              41.46999978600007
            ],
            [
              -87.57710869399995,
              41.47000078600007
            ],
            [
              -87.55785468899995,
              41.47007378700005
            ],
            [
              -87.52567462499997,
              41.47029034700006
            ],
            [
              -87.52543262599994,
              41.49002777700008
            ],
            [
              -87.52503158099995,
              41.52273712300007
            ],
            [
              -87.52494568499998,
              41.529742799000076
            ],
            [
              -87.52504668799997,
              41.559242804000064
            ],
            [
              -87.52464668799996,
              41.56334280500005
            ],
            [
              -87.52464702299994,
              41.58307091800003
            ],
            [
              -87.52464723599996,
              41.59560386600003
            ],
            [
              -87.52464769399995,
              41.62254281500003
            ],
            [
              -87.52474769499997,
              41.632442817000026
            ],
            [
              -87.52464769499994,
              41.63494281800007
            ],
            [
              -87.52479198899994,
              41.675444027000026
            ],
            [
              -87.52484969999995,
              41.69164282700007
            ],
            [
              -87.52494970199996,
              41.70264282900007
            ],
            [
              -87.52404970199996,
              41.70834283000005
            ],
            [
              -87.52414670299999,
              41.723997833000055
            ],
            [
              -87.53075070799997,
              41.74824283700008
            ],
            [
              -87.54285071199996,
              41.752142837000065
            ],
            [
              -87.56065171799997,
              41.766041838000035
            ],
            [
              -87.57635272499994,
              41.78604184100004
            ],
            [
              -87.580555528,
              41.802758046000065
            ],
            [
              -87.58092620899998,
              41.80423238900005
            ],
            [
              -87.58095372799994,
              41.80434184400008
            ],
            [
              -87.58705999899996,
              41.81135092200003
            ],
            [
              -87.58712833899995,
              41.81142936600003
            ],
            [
              -87.59043646299995,
              41.81522659400008
            ],
            [
              -87.59193994999998,
              41.81695237100007
            ],
            [
              -87.60055473599994,
              41.82684084600004
            ],
            [
              -87.60945574099998,
              41.84524084900005
            ],
            [
              -87.61625674499999,
              41.868940853000026
            ],
            [
              -87.61654274599994,
              41.882403855000064
            ],
            [
              -87.61356174599996,
              41.88448785600008
            ],
            [
              -87.61419374599996,
              41.888428856000075
            ],
            [
              -87.61268574599995,
              41.889255856000034
            ],
            [
              -87.61166474599997,
              41.89071585700003
            ],
            [
              -87.61166474599997,
              41.89222385700003
            ],
            [
              -87.61227144099996,
              41.89329805300008
            ],
            [
              -87.61229674599997,
              41.89334285700005
            ],
            [
              -87.61392582899998,
              41.89341508700005
            ],
            [
              -87.61416874699995,
              41.89342585700007
            ],
            [
              -87.61743874799998,
              41.89803985800006
            ],
            [
              -87.61985774899995,
              41.90139985800005
            ],
            [
              -87.62294974999998,
              41.902027858000054
            ],
            [
              -87.62405775099995,
              41.90423985800004
            ],
            [
              -87.62476852699996,
              41.907216445000074
            ],
            [
              -87.63093048899998,
              41.933021489000055
            ],
            [
              -87.63095875599998,
              41.933139863000065
            ],
            [
              -87.63558830799997,
              41.94482786800006
            ],
            [
              -87.63997506399994,
              41.955902897000044
            ],
            [
              -87.64157951599998,
              41.95995357800007
            ],
            [
              -87.64844537699997,
              41.977287482000065
            ],
            [
              -87.66660318399994,
              42.02312961300004
            ],
            [
              -87.66898777599994,
              42.029149877000066
            ],
            [
              -87.67189977899994,
              42.04797988000007
            ],
            [
              -87.67051777899997,
              42.052987881000035
            ],
            [
              -87.67146777999994,
              42.058341882000036
            ],
            [
              -87.68236478499995,
              42.07573688400004
            ],
            [
              -87.71096579599998,
              42.09533588600004
            ],
            [
              -87.72466680099996,
              42.10773488800004
            ],
            [
              -87.74166780799999,
              42.128234890000044
            ],
            [
              -87.74169573699999,
              42.128273050000075
            ],
            [
              -87.74960332099994,
              42.139077126000075
            ],
            [
              -87.75933238099998,
              42.152369872000065
            ],
            [
              -87.82117983399996,
              42.15255189000004
            ],
            [
              -87.84818884199996,
              42.15281888800007
            ],
            [
              -87.88727385299995,
              42.15296088600007
            ],
            [
              -87.93441086699994,
              42.15311388300006
            ],
            [
              -87.93646786799997,
              42.15310288300003
            ],
            [
              -87.94615487099998,
              42.15318088300006
            ],
            [
              -87.98499988199995,
              42.153633881000076
            ],
            [
              -88.00447188799996,
              42.15365288000004
            ],
            [
              -88.02375589399998,
              42.15374287800006
            ],
            [
              -88.12155092199998,
              42.154200873000036
            ],
            [
              -88.13366492599994,
              42.154211872000076
            ],
            [
              -88.15075093099995,
              42.15422287100006
            ],
            [
              -88.19958994499996,
              42.15426786900008
            ],
            [
              -88.23845495699999,
              42.154256866000026
            ],
            [
              -88.23826294999998,
              42.09235585600004
            ],
            [
              -88.23819194799995,
              42.066992852000055
            ],
            [
              -88.24333194899998,
              42.06705885100007
            ],
            [
              -88.26364695499996,
              42.066880850000075
            ],
            [
              -88.26326094999996,
              42.015499841000064
            ],
            [
              -88.26321594999996,
              42.01393784100003
            ],
            [
              -88.26319194899997,
              42.01198984100006
            ],
            [
              -88.26288094699999,
              41.98638583700006
            ]
          ]
        ]
      }
    }
  ]
}
