{
  "type": "FeatureCollection",
  "name": "Dallas-Fort Worth",
  "crs": {
    "type": "name",
    "properties": {
      "name": "urn:ogc:def:crs:OGC:1.3:CRS84"
    }
  },
  "features": [
    {
      "type": "Feature",
      "properties": {
        "requestedCity": "Dallas-Fort Worth",
        "sourceShapeName": "Dallas",
        "sourceShapeID": "52423323B35177303918175",
        "shapeName": "Dallas",
        "shapeISO": "",
        "shapeID": "52423323B35177303918175",
        "shapeGroup": "USA",
        "shapeType": "ADM2"
      },
      "geometry": {
        "type": "Polygon",
        "coordinates": [
          [
            [
              -96.51687346599994,
              32.982313788000056
            ],
            [
              -96.58384948299994,
              32.983613785000045
            ],
            [
              -96.61338448999999,
              32.98402678400004
            ],
            [
              -96.68247450799998,
              32.98533078100007
            ],
            [
              -96.74842952499995,
              32.98627677800005
            ],
            [
              -96.76800652999998,
              32.986539777000075
            ],
            [
              -96.76815953,
              32.98654077700007
            ],
            [
              -96.80338253899998,
              32.98700877600004
            ],
            [
              -96.83897054799996,
              32.98752677500005
            ],
            [
              -96.84398654899996,
              32.98755977400003
            ],
            [
              -96.95867257799995,
              32.98901877000003
            ],
            [
              -96.98007658399996,
              32.98920876900007
            ],
            [
              -96.99022158599996,
              32.98929276800004
            ],
            [
              -97.01070359099998,
              32.989325767000025
            ],
            [
              -97.03229459699998,
              32.989329766000026
            ],
            [
              -97.03309558999996,
              32.87849874600005
            ],
            [
              -97.03353458899994,
              32.85275774100006
            ],
            [
              -97.03378858799994,
              32.83714073800007
            ],
            [
              -97.03409258699998,
              32.816665734000026
            ],
            [
              -97.03601758599996,
              32.80516673200003
            ],
            [
              -97.03479758499998,
              32.78604672800003
            ],
            [
              -97.03517858299995,
              32.75969872300004
            ],
            [
              -97.03517458299996,
              32.75937372300007
            ],
            [
              -97.03621458099997,
              32.711118714000065
            ],
            [
              -97.03642457999996,
              32.69319371100005
            ],
            [
              -97.03668257899994,
              32.67621070700005
            ],
            [
              -97.03669357899997,
              32.67591870700005
            ],
            [
              -97.03707057699995,
              32.64587870200006
            ],
            [
              -97.03839257199996,
              32.548667683000076
            ],
            [
              -97.01361756499995,
              32.54830568400007
            ],
            [
              -96.52999444299996,
              32.54528770400003
            ],
            [
              -96.523125441,
              32.54521970400003
            ],
            [
              -96.51926845499997,
              32.79603375200003
            ],
            [
              -96.51897745599996,
              32.81362175600003
            ],
            [
              -96.51840945999999,
              32.87647376800004
            ],
            [
              -96.51791946199995,
              32.91723577500005
            ],
            [
              -96.51700646499995,
              32.97367478600006
            ],
            [
              -96.51687346599994,
              32.982313788000056
            ]
          ]
        ]
      }
    },
    {
      "type": "Feature",
      "properties": {
        "requestedCity": "Dallas-Fort Worth",
        "sourceShapeName": "Tarrant",
        "sourceShapeID": "52423323B78708010643826",
        "shapeName": "Tarrant",
        "shapeISO": "",
        "shapeID": "52423323B78708010643826",
        "shapeGroup": "USA",
        "shapeType": "ADM2"
      },
      "geometry": {
        "type": "Polygon",
        "coordinates": [
          [
            [
              -97.54418872599996,
              32.994182745000046
            ],
            [
              -97.54820871399994,
              32.77611970400005
            ],
            [
              -97.55058970099998,
              32.55539666300007
            ],
            [
              -97.43100567099998,
              32.55411166700003
            ],
            [
              -97.38637465999994,
              32.553564669000025
            ],
            [
              -97.34899764999994,
              32.553150671000026
            ],
            [
              -97.31399164099997,
              32.55263267200007
            ],
            [
              -97.08684158399996,
              32.54943368100004
            ],
            [
              -97.05876657699997,
              32.54897168200006
            ],
            [
              -97.052643575,
              32.548912683000026
            ],
            [
              -97.03839257199996,
              32.548667683000076
            ],
            [
              -97.03707057699995,
              32.64587870200006
            ],
            [
              -97.03669357899997,
              32.67591870700005
            ],
            [
              -97.03668257899994,
              32.67621070700005
            ],
            [
              -97.03642457999996,
              32.69319371100005
            ],
            [
              -97.03621458099997,
              32.711118714000065
            ],
            [
              -97.03517458299996,
              32.75937372300007
            ],
            [
              -97.03517858299995,
              32.75969872300004
            ],
            [
              -97.03479758499998,
              32.78604672800003
            ],
            [
              -97.03601758599996,
              32.80516673200003
            ],
            [
              -97.03409258699998,
              32.816665734000026
            ],
            [
              -97.03378858799994,
              32.83714073800007
            ],
            [
              -97.03353458899994,
              32.85275774100006
            ],
            [
              -97.03309558999996,
              32.87849874600005
            ],
            [
              -97.03229459699998,
              32.989329766000026
            ],
            [
              -97.12416161999994,
              32.989840763000075
            ],
            [
              -97.12959762099996,
              32.99001676200004
            ],
            [
              -97.16726863099996,
              32.989807761000066
            ],
            [
              -97.18091463399998,
              32.98981876000005
            ],
            [
              -97.23480164799997,
              32.98987075800005
            ],
            [
              -97.32884067199996,
              32.99012175400003
            ],
            [
              -97.35605567799996,
              32.99020275200007
            ],
            [
              -97.37994768399994,
              32.99014975100005
            ],
            [
              -97.39848768899998,
              32.990844751000054
            ],
            [
              -97.41546969399997,
              32.992053750000025
            ],
            [
              -97.54418872599996,
              32.994182745000046
            ]
          ]
        ]
      }
    },
    {
      "type": "Feature",
      "properties": {
        "requestedCity": "Dallas-Fort Worth",
        "sourceShapeName": "Collin",
        "sourceShapeID": "52423323B10774992912194",
        "shapeName": "Collin",
        "shapeISO": "",
        "shapeID": "52423323B10774992912194",
        "shapeGroup": "USA",
        "shapeType": "ADM2"
      },
      "geometry": {
        "type": "Polygon",
        "coordinates": [
          [
            [
              -96.29723440999999,
              32.98175779700006
            ],
            [
              -96.29542043199996,
              33.35194186700005
            ],
            [
              -96.38450245399997,
              33.341124861000026
            ],
            [
              -96.38460945799994,
              33.39783187200004
            ],
            [
              -96.83411757299996,
              33.40550385300003
            ],
            [
              -96.83780256499995,
              33.26284082600006
            ],
            [
              -96.838810562,
              33.21939181800008
            ],
            [
              -96.84185655499994,
              33.08646179300007
            ],
            [
              -96.84187455399996,
              33.085581793000074
            ],
            [
              -96.84327355099998,
              33.025919782000074
            ],
            [
              -96.84398654899996,
              32.98755977400003
            ],
            [
              -96.83897054799996,
              32.98752677500005
            ],
            [
              -96.80338253899998,
              32.98700877600004
            ],
            [
              -96.76815953,
              32.98654077700007
            ],
            [
              -96.76800652999998,
              32.986539777000075
            ],
            [
              -96.74842952499995,
              32.98627677800005
            ],
            [
              -96.68247450799998,
              32.98533078100007
            ],
            [
              -96.61338448999999,
              32.98402678400004
            ],
            [
              -96.58384948299994,
              32.983613785000045
            ],
            [
              -96.51687346599994,
              32.982313788000056
            ],
            [
              -96.46673345299996,
              32.98200579000007
            ],
            [
              -96.46371745199997,
              32.982444790000045
            ],
            [
              -96.37073542799999,
              32.982089794000046
            ],
            [
              -96.29723440999999,
              32.98175779700006
            ]
          ]
        ]
      }
    },
    {
      "type": "Feature",
      "properties": {
        "requestedCity": "Dallas-Fort Worth",
        "sourceShapeName": "Denton",
        "sourceShapeID": "52423323B29429067330401",
        "shapeName": "Denton",
        "shapeISO": "",
        "shapeID": "52423323B29429067330401",
        "shapeGroup": "USA",
        "shapeType": "ADM2"
      },
      "geometry": {
        "type": "Polygon",
        "coordinates": [
          [
            [
              -97.39848768899998,
              32.990844751000054
            ],
            [
              -97.37994768399994,
              32.99014975100005
            ],
            [
              -97.35605567799996,
              32.99020275200007
            ],
            [
              -97.32884067199996,
              32.99012175400003
            ],
            [
              -97.23480164799997,
              32.98987075800005
            ],
            [
              -97.18091463399998,
              32.98981876000005
            ],
            [
              -97.16726863099996,
              32.989807761000066
            ],
            [
              -97.12959762099996,
              32.99001676200004
            ],
            [
              -97.12416161999994,
              32.989840763000075
            ],
            [
              -97.03229459699998,
              32.989329766000026
            ],
            [
              -97.01070359099998,
              32.989325767000025
            ],
            [
              -96.99022158599996,
              32.98929276800004
            ],
            [
              -96.98007658399996,
              32.98920876900007
            ],
            [
              -96.95867257799995,
              32.98901877000003
            ],
            [
              -96.84398654899996,
              32.98755977400003
            ],
            [
              -96.84327355099998,
              33.025919782000074
            ],
            [
              -96.84187455399996,
              33.085581793000074
            ],
            [
              -96.84185655499994,
              33.08646179300007
            ],
            [
              -96.838810562,
              33.21939181800008
            ],
            [
              -96.83780256499995,
              33.26284082600006
            ],
            [
              -96.83411757299996,
              33.40550385300003
            ],
            [
              -96.84110557499997,
              33.413382854000076
            ],
            [
              -96.94386760099997,
              33.41641585000008
            ],
            [
              -97.22009967199995,
              33.42512783900003
            ],
            [
              -97.38310271299997,
              33.43045583300005
            ],
            [
              -97.39161370199997,
              33.21894079400005
            ],
            [
              -97.39267769999998,
              33.183514787000036
            ],
            [
              -97.39848768899998,
              32.990844751000054
            ]
          ]
        ]
      }
    }
  ]
}
