{
  "type": "FeatureCollection",
  "name": "Denver",
  "crs": {
    "type": "name",
    "properties": {
      "name": "urn:ogc:def:crs:OGC:1.3:CRS84"
    }
  },
  "features": [
    {
      "type": "Feature",
      "properties": {
        "requestedCity": "Denver",
        "sourceShapeName": "Denver",
        "sourceShapeID": "52423323B36183009250393",
        "shapeName": "Denver",
        "shapeISO": "",
        "shapeID": "52423323B36183009250393",
        "shapeGroup": "USA",
        "shapeType": "ADM2"
      },
      "geometry": {
        "type": "Polygon",
        "coordinates": [
          [
            [
              -105.05325612899998,
              39.79106942200008
            ],
            [
              -105.06510113199994,
              39.788366421000035
            ],
            [
              -105.05319312799998,
              39.78380342100007
            ],
            [
              -105.05324712499998,
              39.75570041700007
            ],
            [
              -105.05322012399995,
              39.743279415000075
            ],
            [
              -105.05559812299998,
              39.733111414000064
            ],
            [
              -105.05326312199998,
              39.72583441300003
            ],
            [
              -105.05325711899997,
              39.70399141000007
            ],
            [
              -105.05323511799998,
              39.696775409000054
            ],
            [
              -105.06263011799996,
              39.679286406000074
            ],
            [
              -105.05326611499999,
              39.66779140500006
            ],
            [
              -105.06012011599995,
              39.667786404000026
            ],
            [
              -105.08111512199997,
              39.670057403000044
            ],
            [
              -105.06729811699995,
              39.65688540200006
            ],
            [
              -105.09103311999996,
              39.63872439800008
            ],
            [
              -105.09106111999995,
              39.63519039800008
            ],
            [
              -105.09159211999997,
              39.635184398000035
            ],
            [
              -105.10988412399996,
              39.635192396000036
            ],
            [
              -105.10751312199994,
              39.624224395000056
            ],
            [
              -105.08174011699998,
              39.627319397000065
            ],
            [
              -105.06515111199997,
              39.61858839700005
            ],
            [
              -105.09318211799996,
              39.618330395000044
            ],
            [
              -105.09696511899995,
              39.61797539500003
            ],
            [
              -105.09141511699994,
              39.614461395000035
            ],
            [
              -105.05813510999997,
              39.61443639700008
            ],
            [
              -105.053447109,
              39.62099039800006
            ],
            [
              -105.05346710999999,
              39.62953239900003
            ],
            [
              -105.05701911199998,
              39.63168540000004
            ],
            [
              -105.059467112,
              39.634668400000066
            ],
            [
              -105.05905511299994,
              39.638766400000065
            ],
            [
              -105.05335211199997,
              39.63877640100003
            ],
            [
              -105.05342111099998,
              39.631592400000045
            ],
            [
              -105.04405810799994,
              39.62802240000008
            ],
            [
              -105.03483210599995,
              39.62781540100008
            ],
            [
              -105.02537910399997,
              39.628604401000075
            ],
            [
              -105.03418110899997,
              39.65329640400006
            ],
            [
              -105.01581010499996,
              39.66051440600006
            ],
            [
              -105.00867410599994,
              39.67863340900004
            ],
            [
              -105.01067510399997,
              39.66051340700005
            ],
            [
              -104.97349609599996,
              39.667690410000034
            ],
            [
              -104.94069308699994,
              39.65301941000007
            ],
            [
              -104.93171308499996,
              39.65305041100004
            ],
            [
              -104.91326707899998,
              39.63869741000008
            ],
            [
              -104.91341707699996,
              39.62408940800003
            ],
            [
              -104.88527507099997,
              39.62408941000007
            ],
            [
              -104.88032307199995,
              39.645908414000075
            ],
            [
              -104.84764906599997,
              39.656718417000036
            ],
            [
              -104.84834206599999,
              39.65916741800004
            ],
            [
              -104.86606107199998,
              39.670853418000036
            ],
            [
              -104.90351907999997,
              39.667630415000076
            ],
            [
              -104.88931807899996,
              39.682062418000044
            ],
            [
              -104.89877608199998,
              39.691551419000064
            ],
            [
              -104.89877608199998,
              39.69135841900004
            ],
            [
              -104.89813808199995,
              39.690703419000045
            ],
            [
              -104.89879408199994,
              39.69070841900003
            ],
            [
              -104.89882008199999,
              39.68934741800007
            ],
            [
              -104.90352008299999,
              39.69258741900006
            ],
            [
              -104.89179308099995,
              39.69658742000007
            ],
            [
              -104.86597207499995,
              39.69656542200005
            ],
            [
              -104.87534007999994,
              39.72558242500003
            ],
            [
              -104.88662308299996,
              39.72922542500004
            ],
            [
              -104.88471808299994,
              39.73285242500003
            ],
            [
              -104.88465608399997,
              39.74016242600004
            ],
            [
              -104.87991108499995,
              39.754613429000074
            ],
            [
              -104.84695007699997,
              39.75469343100008
            ],
            [
              -104.85653308099995,
              39.76839743200003
            ],
            [
              -104.83297107499999,
              39.76620143400004
            ],
            [
              -104.82823907499994,
              39.77318043500003
            ],
            [
              -104.78173706399997,
              39.77339343800003
            ],
            [
              -104.73461105299998,
              39.76918744100004
            ],
            [
              -104.73440905599995,
              39.798448445000076
            ],
            [
              -104.76261606299994,
              39.79843944300006
            ],
            [
              -104.76248006599997,
              39.82298644600007
            ],
            [
              -104.61994803199997,
              39.82242745600007
            ],
            [
              -104.61985103799998,
              39.87377346300008
            ],
            [
              -104.60580103499996,
              39.87383346400003
            ],
            [
              -104.60044503699999,
              39.89946546800007
            ],
            [
              -104.633979045,
              39.89929546600007
            ],
            [
              -104.64038004699995,
              39.906247466000025
            ],
            [
              -104.68022305599999,
              39.90660546400005
            ],
            [
              -104.69294405999995,
              39.91418946400006
            ],
            [
              -104.70557806099998,
              39.898496461000036
            ],
            [
              -104.72411306599997,
              39.898583459000065
            ],
            [
              -104.73156006699998,
              39.898617459000036
            ],
            [
              -104.73214806099998,
              39.84509245100003
            ],
            [
              -104.79086907399994,
              39.84180844700006
            ],
            [
              -104.79092006899998,
              39.798256441000035
            ],
            [
              -104.86605108699996,
              39.79839243600003
            ],
            [
              -104.86608508799998,
              39.81299243800004
            ],
            [
              -104.88459509299997,
              39.81298143600003
            ],
            [
              -104.88463709099995,
              39.79832743400004
            ],
            [
              -104.90357109499996,
              39.79839743300005
            ],
            [
              -104.91289709599994,
              39.78382443000004
            ],
            [
              -104.92701209899997,
              39.783784429000036
            ],
            [
              -104.93989210299998,
              39.791000430000054
            ],
            [
              -104.96872611099997,
              39.79840242900008
            ],
            [
              -104.97596011099995,
              39.79104442700003
            ],
            [
              -105.015842121,
              39.791078424000034
            ],
            [
              -105.02134912199995,
              39.79399042400007
            ],
            [
              -105.05325612899998,
              39.79106942200008
            ]
          ],
          [
            [
              -104.94064309199996,
              39.69476141600006
            ],
            [
              -104.94069709399997,
              39.71122741900007
            ],
            [
              -104.92960009099994,
              39.70642041900004
            ],
            [
              -104.929129091,
              39.70641641900005
            ],
            [
              -104.92912809099994,
              39.706793419000064
            ],
            [
              -104.92829708999994,
              39.70679141900007
            ],
            [
              -104.92829708999994,
              39.70669841900008
            ],
            [
              -104.92697309,
              39.70670541900006
            ],
            [
              -104.92697209,
              39.70656541900007
            ],
            [
              -104.92693408999997,
              39.70360641800005
            ],
            [
              -104.93143309099997,
              39.70379541800003
            ],
            [
              -104.92787408899994,
              39.69666041700003
            ],
            [
              -104.94064309199996,
              39.69476141600006
            ]
          ],
          [
            [
              -104.93025208699999,
              39.67483841400008
            ],
            [
              -104.92396008599997,
              39.67665141500004
            ],
            [
              -104.91756908399998,
              39.672989415000075
            ],
            [
              -104.91299508099996,
              39.65621541300004
            ],
            [
              -104.92102608299996,
              39.660344413000075
            ],
            [
              -104.92052608399996,
              39.668062414000076
            ],
            [
              -104.93025208699999,
              39.67483841400008
            ]
          ]
        ]
      }
    }
  ]
}
