{
  "type": "FeatureCollection",
  "name": "Houston",
  "crs": {
    "type": "name",
    "properties": {
      "name": "urn:ogc:def:crs:OGC:1.3:CRS84"
    }
  },
  "features": [
    {
      "type": "Feature",
      "properties": {
        "requestedCity": "Houston",
        "sourceShapeName": "Harris",
        "sourceShapeID": "52423323B68186618035588",
        "shapeName": "Harris",
        "shapeISO": "",
        "shapeID": "52423323B68186618035588",
        "shapeGroup": "USA",
        "shapeType": "ADM2"
      },
      "geometry": {
        "type": "Polygon",
        "coordinates": [
          [
            [
              -95.80333712899994,
              30.090101249000043
            ],
            [
              -95.82858613499997,
              30.081783247000033
            ],
            [
              -95.84474813999998,
              30.088919248000025
            ],
            [
              -95.84665614099998,
              30.10050425000003
            ],
            [
              -95.85690914299994,
              30.101803250000046
            ],
            [
              -95.87406014899994,
              30.122230253000055
            ],
            [
              -95.89081115299996,
              30.11902425200003
            ],
            [
              -95.91552115999997,
              30.130932254000072
            ],
            [
              -95.92906316399996,
              30.144180256000027
            ],
            [
              -95.94451216799996,
              30.148173256000064
            ],
            [
              -95.96074017299998,
              30.163420259000077
            ],
            [
              -95.86897313699995,
              29.90883321000007
            ],
            [
              -95.82622712099999,
              29.788285187000042
            ],
            [
              -95.81247811699996,
              29.780599186000074
            ],
            [
              -95.7514531,
              29.746477181000046
            ],
            [
              -95.73040309399994,
              29.734301180000045
            ],
            [
              -95.68835608299997,
              29.71086717600008
            ],
            [
              -95.68708908199994,
              29.71008317600007
            ],
            [
              -95.67087907799998,
              29.700996175000057
            ],
            [
              -95.65219507199998,
              29.690965173000052
            ],
            [
              -95.62185506399999,
              29.673577171000034
            ],
            [
              -95.59784605699997,
              29.66104216900004
            ],
            [
              -95.59704005699996,
              29.66067816900005
            ],
            [
              -95.58271305299996,
              29.65397716800004
            ],
            [
              -95.57135204999997,
              29.64874616700007
            ],
            [
              -95.44634601499996,
              29.590703160000032
            ],
            [
              -95.42412500899997,
              29.580238158000043
            ],
            [
              -95.375420997,
              29.58828316200004
            ],
            [
              -95.34626998999994,
              29.585597162000056
            ],
            [
              -95.33115298599995,
              29.599113165000063
            ],
            [
              -95.29741797799994,
              29.596527166000044
            ],
            [
              -95.28649997499997,
              29.597891167000057
            ],
            [
              -95.26161296799995,
              29.59316216600007
            ],
            [
              -95.26029896799997,
              29.589888166000037
            ],
            [
              -95.25386296399995,
              29.553783159000034
            ],
            [
              -95.23799196099998,
              29.56143116100003
            ],
            [
              -95.21642895499997,
              29.556085160000066
            ],
            [
              -95.21383295399994,
              29.55533016000004
            ],
            [
              -95.200991951,
              29.563217162000058
            ],
            [
              -95.19316094899995,
              29.559523162000062
            ],
            [
              -95.19945994999995,
              29.544533158000036
            ],
            [
              -95.18310394499997,
              29.519022154000027
            ],
            [
              -95.16967494099998,
              29.51489715300005
            ],
            [
              -95.16354093899997,
              29.497861150000062
            ],
            [
              -95.14103093299997,
              29.506493153000065
            ],
            [
              -95.11714592699997,
              29.508036154000024
            ],
            [
              -95.11550692699996,
              29.508824154000024
            ],
            [
              -95.11457992699997,
              29.509967154000037
            ],
            [
              -95.11375392699995,
              29.510613154000055
            ],
            [
              -95.11246392599998,
              29.51094115400008
            ],
            [
              -95.11083992599998,
              29.510602154000026
            ],
            [
              -95.10947492599996,
              29.509861154000077
            ],
            [
              -95.10810892499995,
              29.50965415400003
            ],
            [
              -95.10650392499997,
              29.51021715400003
            ],
            [
              -95.10520592399996,
              29.51038615500005
            ],
            [
              -95.10433292399995,
              29.510739155000067
            ],
            [
              -95.10388092399995,
              29.511295155000028
            ],
            [
              -95.10404292399994,
              29.512567155000056
            ],
            [
              -95.10482592499994,
              29.514192155000046
            ],
            [
              -95.10602692499998,
              29.515786156000047
            ],
            [
              -95.10618692499997,
              29.516593156000056
            ],
            [
              -95.10563592499994,
              29.517238156000076
            ],
            [
              -95.10363692399994,
              29.517899156000055
            ],
            [
              -95.10301492399998,
              29.518804156000044
            ],
            [
              -95.10345692399994,
              29.520150157000046
            ],
            [
              -95.10321192399994,
              29.520858157000077
            ],
            [
              -95.10189692399996,
              29.521566157000052
            ],
            [
              -95.10055892399998,
              29.520792157000074
            ],
            [
              -95.09990292299995,
              29.519875157000058
            ],
            [
              -95.09923992299997,
              29.518413156000065
            ],
            [
              -95.09850692299995,
              29.518177156000036
            ],
            [
              -95.09761892299997,
              29.518616157000054
            ],
            [
              -95.09705292299998,
              29.520522157000073
            ],
            [
              -95.09642092299998,
              29.521271157000058
            ],
            [
              -95.09479192199996,
              29.522592157000076
            ],
            [
              -95.09369992199998,
              29.52534915800004
            ],
            [
              -95.093877922,
              29.52653115800007
            ],
            [
              -95.09507292299998,
              29.528165159000025
            ],
            [
              -95.09536792299997,
              29.529381159000025
            ],
            [
              -95.09543292299998,
              29.530743159000053
            ],
            [
              -95.09651492299997,
              29.532516159000068
            ],
            [
              -95.09698492299998,
              29.53374316000003
            ],
            [
              -95.09645992299994,
              29.53495816000003
            ],
            [
              -95.09452492299994,
              29.535745160000033
            ],
            [
              -95.09186892199995,
              29.533886160000066
            ],
            [
              -95.091175922,
              29.533177160000037
            ],
            [
              -95.09088592199998,
              29.531560159000037
            ],
            [
              -95.09004492099996,
              29.531133159000035
            ],
            [
              -95.08936092099998,
              29.531219159000045
            ],
            [
              -95.08819392099997,
              29.53189616000003
            ],
            [
              -95.08697992099997,
              29.53311916000007
            ],
            [
              -95.08651392099995,
              29.534415160000037
            ],
            [
              -95.08593292099994,
              29.53485316000007
            ],
            [
              -95.08313591999996,
              29.533925160000024
            ],
            [
              -95.08219591999995,
              29.534002160000057
            ],
            [
              -95.08011291899999,
              29.533677160000025
            ],
            [
              -95.06507191599997,
              29.55848316600003
            ],
            [
              -95.01761690399996,
              29.54818616500006
            ],
            [
              -95.01819748299994,
              29.554589056000054
            ],
            [
              -95.018259904,
              29.554890167000053
            ],
            [
              -95.01663390399995,
              29.558492167000054
            ],
            [
              -95.00767690199996,
              29.574262171000044
            ],
            [
              -94.98899989799997,
              29.591160175000027
            ],
            [
              -94.98271289699994,
              29.60134917700003
            ],
            [
              -94.98887789899999,
              29.610100179000028
            ],
            [
              -95.01350590599998,
              29.629199182000036
            ],
            [
              -95.01564290699997,
              29.639462184000024
            ],
            [
              -95.01168990599996,
              29.649807186000032
            ],
            [
              -95.01103181099995,
              29.650808623000046
            ],
            [
              -95.00540490499998,
              29.65937118900007
            ],
            [
              -94.98012097399999,
              29.679071830000055
            ],
            [
              -94.97267289799998,
              29.684875195000075
            ],
            [
              -94.96596989699998,
              29.70033519800006
            ],
            [
              -94.942687891,
              29.69778319900007
            ],
            [
              -94.93609588899994,
              29.692709198000045
            ],
            [
              -94.93417388799998,
              29.678687195000066
            ],
            [
              -94.93116079799995,
              29.673879009000075
            ],
            [
              -94.91558688399994,
              29.69781720000003
            ],
            [
              -94.92991588799998,
              29.697375199000078
            ],
            [
              -94.93257288899997,
              29.714347202000056
            ],
            [
              -94.94540589199994,
              29.716242202000046
            ],
            [
              -94.928602889,
              29.74116120800005
            ],
            [
              -94.91381988599994,
              29.766305214000056
            ],
            [
              -94.92294888999999,
              29.802386221000063
            ],
            [
              -94.90982288799995,
              29.821228225000027
            ],
            [
              -94.93460589499995,
              29.834297227000036
            ],
            [
              -94.95309690099998,
              29.855308231000038
            ],
            [
              -94.97684190699994,
              29.867977233000033
            ],
            [
              -94.98146690899995,
              29.88428123600005
            ],
            [
              -94.99866291499995,
              29.91977624200007
            ],
            [
              -94.98537091399999,
              29.972284254000044
            ],
            [
              -94.99985391899997,
              29.99149225700006
            ],
            [
              -95.02677892599996,
              29.996744257000046
            ],
            [
              -95.03094292699996,
              29.993704256000058
            ],
            [
              -95.05685093699998,
              30.06098526900007
            ],
            [
              -95.09671495199996,
              30.167219290000048
            ],
            [
              -95.19573097299997,
              30.087326270000062
            ],
            [
              -95.24986098499994,
              30.04352325900004
            ],
            [
              -95.26368398799997,
              30.03252225600005
            ],
            [
              -95.29300399599998,
              30.027910254000062
            ],
            [
              -95.31100100099997,
              30.032892255000036
            ],
            [
              -95.30955500099998,
              30.045630257000028
            ],
            [
              -95.35364001299996,
              30.076342262000026
            ],
            [
              -95.37497801899997,
              30.086379263000026
            ],
            [
              -95.39563102499994,
              30.084030262000056
            ],
            [
              -95.40545002699997,
              30.092081264000058
            ],
            [
              -95.42422303299998,
              30.115496268000072
            ],
            [
              -95.43664903599995,
              30.110371266000072
            ],
            [
              -95.47485104599997,
              30.103261263000036
            ],
            [
              -95.48842204899995,
              30.108033264000028
            ],
            [
              -95.50110205399994,
              30.143777271000033
            ],
            [
              -95.51858105899998,
              30.152189272000044
            ],
            [
              -95.52953906299996,
              30.165825274000042
            ],
            [
              -95.54214706599998,
              30.17047827500005
            ],
            [
              -95.55142806799995,
              30.170611274000066
            ],
            [
              -95.57463707399995,
              30.151788270000054
            ],
            [
              -95.59092007699996,
              30.13606926600005
            ],
            [
              -95.59676407799998,
              30.134465265000074
            ],
            [
              -95.60206907999998,
              30.132746265000037
            ],
            [
              -95.61963608399998,
              30.135498265000024
            ],
            [
              -95.62407908499995,
              30.126680263000026
            ],
            [
              -95.63662008799997,
              30.126425262000055
            ],
            [
              -95.67254509599996,
              30.10152025600007
            ],
            [
              -95.68570809999994,
              30.106912257000033
            ],
            [
              -95.73395011199995,
              30.093544252000072
            ],
            [
              -95.75519211699998,
              30.09215325100007
            ],
            [
              -95.76093411799997,
              30.086411250000026
            ],
            [
              -95.80333712899994,
              30.090101249000043
            ]
          ]
        ]
      }
    }
  ]
}
