{
  "type": "FeatureCollection",
  "name": "Los Angeles",
  "crs": {
    "type": "name",
    "properties": {
      "name": "urn:ogc:def:crs:OGC:1.3:CRS84"
    }
  },
  "features": [
    {
      "type": "Feature",
      "properties": {
        "requestedCity": "Los Angeles",
        "sourceShapeName": "Los Angeles",
        "sourceShapeID": "52423323B87301828944684",
        "shapeName": "Los Angeles",
        "shapeISO": "",
        "shapeID": "52423323B87301828944684",
        "shapeGroup": "USA",
        "shapeType": "ADM2"
      },
      "geometry": {
        "type": "MultiPolygon",
        "coordinates": [
          [
            [
              [
                -118.60338720199996,
                33.478102773000046
              ],
              [
                -118.60404220199996,
                33.47654477200007
              ],
              [
                -118.601197201,
                33.46985777200007
              ],
              [
                -118.59398119899998,
                33.467202772000064
              ],
              [
                -118.57591319499994,
                33.448265771000024
              ],
              [
                -118.57093919299996,
                33.43935577000008
              ],
              [
                -118.563454192,
                33.43438577000006
              ],
              [
                -118.55872719099995,
                33.43342377000005
              ],
              [
                -118.53739218699997,
                33.43461277100005
              ],
              [
                -118.52324218499996,
                33.43073777200004
              ],
              [
                -118.516279183,
                33.42507977100007
              ],
              [
                -118.51592618299998,
                33.422421771000074
              ],
              [
                -118.50396418099996,
                33.424238772000024
              ],
              [
                -118.48876217799994,
                33.41983077200007
              ],
              [
                -118.48496117699995,
                33.412135772000056
              ],
              [
                -118.47847717399998,
                33.386324769000055
              ],
              [
                -118.48262117299998,
                33.36991876700006
              ],
              [
                -118.48878217299995,
                33.35665376500003
              ],
              [
                -118.48189817099995,
                33.34412776400006
              ],
              [
                -118.46538016699998,
                33.326060763000044
              ],
              [
                -118.45632116499996,
                33.32182476300005
              ],
              [
                -118.44005916199995,
                33.31864276400006
              ],
              [
                -118.40295315599997,
                33.32090576600007
              ],
              [
                -118.37478015099998,
                33.320069767000064
              ],
              [
                -118.36034414899996,
                33.31533476800007
              ],
              [
                -118.34326114499999,
                33.30523876700005
              ],
              [
                -118.32525614199994,
                33.29907976800007
              ],
              [
                -118.31679913999994,
                33.301141768000036
              ],
              [
                -118.30509613899994,
                33.31032777000007
              ],
              [
                -118.303186139,
                33.32026877100003
              ],
              [
                -118.31022514199998,
                33.335799773000076
              ],
              [
                -118.31609514299998,
                33.34293277300003
              ],
              [
                -118.32447214499996,
                33.34878677300003
              ],
              [
                -118.36510615499998,
                33.388378775000035
              ],
              [
                -118.36831315699999,
                33.40711477700006
              ],
              [
                -118.37033515699994,
                33.40928977800007
              ],
              [
                -118.38204915899996,
                33.40988777700005
              ],
              [
                -118.42358816799998,
                33.42726277700007
              ],
              [
                -118.44582417199996,
                33.428911776000064
              ],
              [
                -118.47765817799996,
                33.44839677600004
              ],
              [
                -118.48558218,
                33.44621777500004
              ],
              [
                -118.49968118199996,
                33.44788377500004
              ],
              [
                -118.50022418199995,
                33.44959677500003
              ],
              [
                -118.53071418899998,
                33.468075775000045
              ],
              [
                -118.54454219099995,
                33.474123775000066
              ],
              [
                -118.58594819799998,
                33.47382377300005
              ],
              [
                -118.59879520099997,
                33.47794377300005
              ],
              [
                -118.60338720199996,
                33.478102773000046
              ]
            ]
          ],
          [
            [
              [
                -118.60554616799999,
                33.031003723000026
              ],
              [
                -118.60657116699997,
                33.01469472100007
              ],
              [
                -118.59604916499995,
                33.01536172100003
              ],
              [
                -118.58694016299995,
                33.00828572100005
              ],
              [
                -118.57353415799997,
                32.96918771700007
              ],
              [
                -118.56089915499996,
                32.95789571700004
              ],
              [
                -118.551146153,
                32.945159716000035
              ],
              [
                -118.53583514699994,
                32.90628471200006
              ],
              [
                -118.52454314499994,
                32.89549271200008
              ],
              [
                -118.52465314499995,
                32.89317971100007
              ],
              [
                -118.50720513999994,
                32.87626871000003
              ],
              [
                -118.50810714,
                32.871325710000065
              ],
              [
                -118.50691414,
                32.86850770900003
              ],
              [
                -118.49631013699997,
                32.85157670800004
              ],
              [
                -118.48792013499997,
                32.844594708000045
              ],
              [
                -118.47608613299997,
                32.84175870800004
              ],
              [
                -118.44493212599997,
                32.82059770700005
              ],
              [
                -118.42838412199995,
                32.80687670700007
              ],
              [
                -118.42944212199995,
                32.80543370600003
              ],
              [
                -118.42564612099994,
                32.80059970600007
              ],
              [
                -118.40128011899998,
                32.820342709000045
              ],
              [
                -118.39457711799997,
                32.82398271000005
              ],
              [
                -118.38738711699995,
                32.82533171100005
              ],
              [
                -118.37998011499997,
                32.82454971100003
              ],
              [
                -118.36054211199996,
                32.81992571200004
              ],
              [
                -118.35655311099998,
                32.81731571100005
              ],
              [
                -118.35351611099998,
                32.82196671200006
              ],
              [
                -118.369996115,
                32.83927771300006
              ],
              [
                -118.44678313199995,
                32.895428716000026
              ],
              [
                -118.46063513499996,
                32.90951471600005
              ],
              [
                -118.47905113899998,
                32.92036771700003
              ],
              [
                -118.48530014,
                32.92354971700007
              ],
              [
                -118.49682314299997,
                32.93385171700004
              ],
              [
                -118.52924015099995,
                32.970925720000025
              ],
              [
                -118.54008115399995,
                32.98093772000004
              ],
              [
                -118.55918315899999,
                33.00629572200006
              ],
              [
                -118.56453915999998,
                33.01864172300003
              ],
              [
                -118.56445716099995,
                33.02491872400003
              ],
              [
                -118.56902516199995,
                33.02915572400008
              ],
              [
                -118.575172163,
                33.03396572500003
              ],
              [
                -118.594045167,
                33.035955724000075
              ],
              [
                -118.60554616799999,
                33.031003723000026
              ]
            ]
          ],
          [
            [
              [
                -117.66730415499995,
                34.82253097500006
              ],
              [
                -117.77438017299994,
                34.82330596800006
              ],
              [
                -118.326293266,
                34.81973093500005
              ],
              [
                -118.58760330999996,
                34.81802691900003
              ],
              [
                -118.85426535399995,
                34.81777690300004
              ],
              [
                -118.85412635199998,
                34.80328390200003
              ],
              [
                -118.87730135599998,
                34.80321690000005
              ],
              [
                -118.88174135799994,
                34.81780690200003
              ],
              [
                -118.89464635999997,
                34.817976901000065
              ],
              [
                -118.88137635599998,
                34.790633899000056
              ],
              [
                -118.79685432699995,
                34.61657188500004
              ],
              [
                -118.738630307,
                34.498973876000036
              ],
              [
                -118.72272830199995,
                34.46669087400005
              ],
              [
                -118.72268030199996,
                34.46659187400007
              ],
              [
                -118.72262830199998,
                34.46648787400005
              ],
              [
                -118.69291229199996,
                34.40609286900008
              ],
              [
                -118.67060528399998,
                34.36069686500008
              ],
              [
                -118.652297278,
                34.32339686200004
              ],
              [
                -118.63680127299995,
                34.29180886000006
              ],
              [
                -118.63347326999997,
                34.26952685800006
              ],
              [
                -118.63256026999994,
                34.26343385700005
              ],
              [
                -118.632549268,
                34.24195285500008
              ],
              [
                -118.64812526999998,
                34.240439854000044
              ],
              [
                -118.65015027099997,
                34.24040785300008
              ],
              [
                -118.66772027299999,
                34.23669685200008
              ],
              [
                -118.66779227099994,
                34.21652185000005
              ],
              [
                -118.66795627,
                34.19917084800005
              ],
              [
                -118.66816426799994,
                34.16819984500006
              ],
              [
                -118.69384627199997,
                34.16856184300008
              ],
              [
                -118.703404273,
                34.16859584300005
              ],
              [
                -118.72338627699997,
                34.16786584100004
              ],
              [
                -118.78890128799998,
                34.16821883800003
              ],
              [
                -118.85648529499997,
                34.12676982900007
              ],
              [
                -118.94081330499995,
                34.07497181900004
              ],
              [
                -118.94489963199999,
                34.045344518000036
              ],
              [
                -118.93809330199997,
                34.04338781600006
              ],
              [
                -118.92806029999997,
                34.04585181700003
              ],
              [
                -118.89617129499999,
                34.03921181800007
              ],
              [
                -118.85466528699999,
                34.03421981900004
              ],
              [
                -118.84039228399996,
                34.027531820000036
              ],
              [
                -118.82159127999995,
                34.013963819000026
              ],
              [
                -118.80512627599995,
                34.001243819000024
              ],
              [
                -118.78710627499999,
                34.019549822000045
              ],
              [
                -118.78344527499996,
                34.02154782200006
              ],
              [
                -118.74496426899998,
                34.032107825000026
              ],
              [
                -118.73240326699994,
                34.03274782600005
              ],
              [
                -118.70622726199997,
                34.02938782700005
              ],
              [
                -118.67937825799999,
                34.03325982900003
              ],
              [
                -118.67544225799998,
                34.03748383000004
              ],
              [
                -118.668370257,
                34.03889183000007
              ],
              [
                -118.60966424699996,
                34.03642883400005
              ],
              [
                -118.60358424599997,
                34.039052834000074
              ],
              [
                -118.56924724099997,
                34.041644836000046
              ],
              [
                -118.56715327399996,
                34.04139375300008
              ],
              [
                -118.54312723599998,
                34.03851283800003
              ],
              [
                -118.51952623099999,
                34.02751383800006
              ],
              [
                -118.50282522799995,
                34.01551383700007
              ],
              [
                -118.48422422299996,
                33.99771483600006
              ],
              [
                -118.48274081099999,
                33.99591728100006
              ],
              [
                -118.46062321699998,
                33.969115835000025
              ],
              [
                -118.44242221099995,
                33.940316832000065
              ],
              [
                -118.42203004999999,
                33.90159562700006
              ],
              [
                -118.41272020199995,
                33.88391782800005
              ],
              [
                -118.39211919499996,
                33.840919824000025
              ],
              [
                -118.39151919299997,
                33.815419822000024
              ],
              [
                -118.39431919199995,
                33.804319820000046
              ],
              [
                -118.40501919399998,
                33.80021981900006
              ],
              [
                -118.42341919499995,
                33.78201981600006
              ],
              [
                -118.428419196,
                33.774719815000026
              ],
              [
                -118.41122318999999,
                33.74198981200004
              ],
              [
                -118.39661818699994,
                33.73592181200007
              ],
              [
                -118.38501818599997,
                33.741421814000034
              ],
              [
                -118.36051718099998,
                33.73682181500004
              ],
              [
                -118.35471717999997,
                33.732321814000045
              ],
              [
                -118.33330806899994,
                33.72118965000004
              ],
              [
                -118.32282119799999,
                33.71573675800005
              ],
              [
                -118.31721717199997,
                33.71282281400005
              ],
              [
                -118.297116169,
                33.70832381500003
              ],
              [
                -118.27722016499996,
                33.70709581600005
              ],
              [
                -118.25869916199997,
                33.70374581600004
              ],
              [
                -118.23265856899997,
                33.71355524200004
              ],
              [
                -118.21223215499998,
                33.72124982100007
              ],
              [
                -118.18335415099995,
                33.72319082300004
              ],
              [
                -118.18371215199994,
                33.73612282400006
              ],
              [
                -118.18771315299995,
                33.74922282500006
              ],
              [
                -118.18084315299996,
                33.76307682700008
              ],
              [
                -118.17551215299994,
                33.763621828000055
              ],
              [
                -118.156912149,
                33.76032182800003
              ],
              [
                -118.14661862699995,
                33.757302078000066
              ],
              [
                -118.13271014399999,
                33.75322182900004
              ],
              [
                -118.11567060699997,
                33.74292294300005
              ],
              [
                -118.091982138,
                33.75847683200004
              ],
              [
                -118.09311113999996,
                33.78615683500004
              ],
              [
                -118.08460913999994,
                33.803220837000026
              ],
              [
                -118.07183913899996,
                33.81545083900005
              ],
              [
                -118.06317413799997,
                33.81961484000004
              ],
              [
                -118.06328013799998,
                33.82411184100005
              ],
              [
                -118.05900013899998,
                33.835211842000035
              ],
              [
                -118.05893013899998,
                33.84612584300004
              ],
              [
                -118.05866713899997,
                33.84613184300002
              ],
              [
                -118.03761013699994,
                33.86601784700008
              ],
              [
                -118.02872613599999,
                33.86624684700007
              ],
              [
                -118.02879413699998,
                33.87332684800003
              ],
              [
                -118.01139513399994,
                33.87343584900003
              ],
              [
                -117.99940513299998,
                33.888179851000075
              ],
              [
                -117.994069132,
                33.88822285200007
              ],
              [
                -117.97659812999996,
                33.906411855000044
              ],
              [
                -117.97651013399997,
                33.94605485900007
              ],
              [
                -117.96670313199996,
                33.94606286000004
              ],
              [
                -117.92584812499996,
                33.94603286200004
              ],
              [
                -117.919737124,
                33.94767286300004
              ],
              [
                -117.78329910099995,
                33.94641587000007
              ],
              [
                -117.80255110699994,
                33.97555587200003
              ],
              [
                -117.78507410599997,
                34.00481387700006
              ],
              [
                -117.76749510299999,
                34.00461587800004
              ],
              [
                -117.76776410399998,
                34.019433879000076
              ],
              [
                -117.76624510399995,
                34.02329388000004
              ],
              [
                -117.74435409999995,
                34.01985688100007
              ],
              [
                -117.73013709799994,
                34.02137588200003
              ],
              [
                -117.71107909899996,
                34.07954088900004
              ],
              [
                -117.70430209999995,
                34.09505989100006
              ],
              [
                -117.69355709999996,
                34.121631895000064
              ],
              [
                -117.67813310099996,
                34.16351890000004
              ],
              [
                -117.67741710099995,
                34.16610790100003
              ],
              [
                -117.66378910299994,
                34.22033890800003
              ],
              [
                -117.656267104,
                34.249769911000044
              ],
              [
                -117.64638610599997,
                34.289174916000036
              ],
              [
                -117.65047111099994,
                34.339029922000066
              ],
              [
                -117.65225811299996,
                34.36081392400007
              ],
              [
                -117.65269711299999,
                34.366169925000065
              ],
              [
                -117.65524711599994,
                34.397226928000066
              ],
              [
                -117.66006412599995,
                34.49863393900006
              ],
              [
                -117.66704613199994,
                34.55801294500003
              ],
              [
                -117.66709914199998,
                34.67552495800004
              ],
              [
                -117.66730415499995,
                34.82253097500006
              ]
            ]
          ]
        ]
      }
    }
  ]
}
