{
  "type": "FeatureCollection",
  "name": "Miami",
  "crs": {
    "type": "name",
    "properties": {
      "name": "urn:ogc:def:crs:OGC:1.3:CRS84"
    }
  },
  "features": [
    {
      "type": "Feature",
      "properties": {
        "requestedCity": "Miami",
        "sourceShapeName": "Miami-Dade",
        "sourceShapeID": "52423323B12945765623889",
        "shapeName": "Miami-Dade",
        "shapeISO": "",
        "shapeID": "52423323B12945765623889",
        "shapeGroup": "USA",
        "shapeType": "ADM2"
      },
      "geometry": {
        "type": "MultiPolygon",
        "coordinates": [
          [
            [
              [
                -80.26994469199997,
                25.352319848000036
              ],
              [
                -80.26547469099995,
                25.35430057800005
              ],
              [
                -80.26237668999994,
                25.353995578000024
              ],
              [
                -80.25647768799996,
                25.350695577000067
              ],
              [
                -80.25357768699996,
                25.344595576000074
              ],
              [
                -80.25166432099996,
                25.342563856000027
              ],
              [
                -80.25028468599999,
                25.344795576000024
              ],
              [
                -80.20383167399996,
                25.414501595000047
              ],
              [
                -80.17667066799999,
                25.48590061300007
              ],
              [
                -80.17602666899995,
                25.52115862200003
              ],
              [
                -80.20022867499995,
                25.485374613000033
              ],
              [
                -80.24958668699998,
                25.39494258900004
              ],
              [
                -80.26994469199997,
                25.352319848000036
              ]
            ]
          ],
          [
            [
              [
                -80.87293488399996,
                25.979438724000033
              ],
              [
                -80.87309887999999,
                25.80538168000004
              ],
              [
                -80.87312787899998,
                25.76088966900005
              ],
              [
                -80.87315587599994,
                25.666184645000044
              ],
              [
                -80.873192868,
                25.36399756800006
              ],
              [
                -80.86219386499994,
                25.364197568000066
              ],
              [
                -80.85799186099996,
                25.243004537000047
              ],
              [
                -80.85798827099995,
                25.176613986000064
              ],
              [
                -80.84893985699995,
                25.17828152100003
              ],
              [
                -80.84070285399997,
                25.176822521000076
              ],
              [
                -80.82227084899995,
                25.17424352100005
              ],
              [
                -80.812135846,
                25.18604352400007
              ],
              [
                -80.79457884099998,
                25.18237752300007
              ],
              [
                -80.78512583799994,
                25.168932520000055
              ],
              [
                -80.74774882699995,
                25.147445515000072
              ],
              [
                -80.74393382599999,
                25.149808516000064
              ],
              [
                -80.74350682599999,
                25.163988520000032
              ],
              [
                -80.72440981999995,
                25.166339521000054
              ],
              [
                -80.71303781699999,
                25.15220051700004
              ],
              [
                -80.70309781399999,
                25.153562518000058
              ],
              [
                -80.67762580699997,
                25.16935052200006
              ],
              [
                -80.66402880299995,
                25.187266527000077
              ],
              [
                -80.63889079599994,
                25.19068352900007
              ],
              [
                -80.60977578799998,
                25.200361532000045
              ],
              [
                -80.58762278099994,
                25.200695532000054
              ],
              [
                -80.58341840799994,
                25.201224274000026
              ],
              [
                -80.56921825299997,
                25.203010086000063
              ],
              [
                -80.54239376799995,
                25.206383535000043
              ],
              [
                -80.52162976199998,
                25.22154253900004
              ],
              [
                -80.51454375999998,
                25.21918653800003
              ],
              [
                -80.50487275699999,
                25.206588535000037
              ],
              [
                -80.49539675399996,
                25.199812534000046
              ],
              [
                -80.50123775599997,
                25.210141536000037
              ],
              [
                -80.48721775199994,
                25.207130536000022
              ],
              [
                -80.49417875499995,
                25.22712154100003
              ],
              [
                -80.48282875099994,
                25.22479054100006
              ],
              [
                -80.45066174199997,
                25.24024554500005
              ],
              [
                -80.41887273299994,
                25.236314545000027
              ],
              [
                -80.41095773099994,
                25.253470549000042
              ],
              [
                -80.39493372599998,
                25.253541550000023
              ],
              [
                -80.39508372699999,
                25.272941555000045
              ],
              [
                -80.37915172299995,
                25.287863559000073
              ],
              [
                -80.37902372299999,
                25.305899563000025
              ],
              [
                -80.37635077299996,
                25.305876312000066
              ],
              [
                -80.37411872199993,
                25.317354566000063
              ],
              [
                -80.36166471799999,
                25.32743756900004
              ],
              [
                -80.35247171599997,
                25.329809570000066
              ],
              [
                -80.33527171099996,
                25.338705573000027
              ],
              [
                -80.31036270499999,
                25.373104582000053
              ],
              [
                -80.30680370399995,
                25.38437358500005
              ],
              [
                -80.31036270499999,
                25.389711586000033
              ],
              [
                -80.32044470799997,
                25.39149058600003
              ],
              [
                -80.32578270999994,
                25.398014588000024
              ],
              [
                -80.32637570999998,
                25.422923594000054
              ],
              [
                -80.32044470899996,
                25.437157598000056
              ],
              [
                -80.32815471199996,
                25.443088599000077
              ],
              [
                -80.33705171499997,
                25.46562560500007
              ],
              [
                -80.33942371599994,
                25.478673608000065
              ],
              [
                -80.33942371599994,
                25.49943161400006
              ],
              [
                -80.32874871399997,
                25.532644622000078
              ],
              [
                -80.32563506599996,
                25.534868121000045
              ],
              [
                -80.32504581399996,
                25.535288914000034
              ],
              [
                -80.32459671299995,
                25.535609623000028
              ],
              [
                -80.31392070999993,
                25.53916862400007
              ],
              [
                -80.30205970699996,
                25.567636632000074
              ],
              [
                -80.30561770799994,
                25.575346634000027
              ],
              [
                -80.30561770899999,
                25.593138638000028
              ],
              [
                -80.30146670799996,
                25.61330364300005
              ],
              [
                -80.29672170699996,
                25.62219964600007
              ],
              [
                -80.28841870499997,
                25.63050264800006
              ],
              [
                -80.27714970199997,
                25.637026650000053
              ],
              [
                -80.26706769899994,
                25.651853654000035
              ],
              [
                -80.26633256499997,
                25.65589751300007
              ],
              [
                -80.26588169899998,
                25.658377655000038
              ],
              [
                -80.25046169499996,
                25.688032663000058
              ],
              [
                -80.24453069399993,
                25.717093671000043
              ],
              [
                -80.24037869299997,
                25.724210673000073
              ],
              [
                -80.22910968999997,
                25.732513675000064
              ],
              [
                -80.19767668099996,
                25.744374679000032
              ],
              [
                -80.18462867699998,
                25.745561679000048
              ],
              [
                -80.17276767399994,
                25.737851678000027
              ],
              [
                -80.16624367199995,
                25.728954676000058
              ],
              [
                -80.16446367099996,
                25.721837674000028
              ],
              [
                -80.17039467199999,
                25.71056967100003
              ],
              [
                -80.17691867299999,
                25.685066664000033
              ],
              [
                -80.16090566799994,
                25.664901659000066
              ],
              [
                -80.15497466699998,
                25.665494660000036
              ],
              [
                -80.15230566599996,
                25.67676366300003
              ],
              [
                -80.15408466699995,
                25.683287664000034
              ],
              [
                -80.15289866699999,
                25.702859669000077
              ],
              [
                -80.14400266499996,
                25.740816679000034
              ],
              [
                -80.13747866399996,
                25.750305682000032
              ],
              [
                -80.13631507999997,
                25.75299655200007
              ],
              [
                -80.13249104999994,
                25.76183990000004
              ],
              [
                -80.12798966099996,
                25.772249687000055
              ],
              [
                -80.12739666199997,
                25.79122869200006
              ],
              [
                -80.12205866099998,
                25.817917699000077
              ],
              [
                -80.11968666099995,
                25.84104770500005
              ],
              [
                -80.12057435699995,
                25.87256539300006
              ],
              [
                -80.12087266199995,
                25.88315671600003
              ],
              [
                -80.11790666199994,
                25.915776724000068
              ],
              [
                -80.11780068299998,
                25.97515683900008
              ],
              [
                -80.12387666599994,
                25.974488739000037
              ],
              [
                -80.14786667299995,
                25.97441273800007
              ],
              [
                -80.14806567299996,
                25.97441173800007
              ],
              [
                -80.16572667799994,
                25.973787738000055
              ],
              [
                -80.20623068999998,
                25.972700736000036
              ],
              [
                -80.229595696,
                25.972337736000043
              ],
              [
                -80.24671770099997,
                25.971879735000073
              ],
              [
                -80.29518971599998,
                25.970574734000024
              ],
              [
                -80.29497471499997,
                25.956774731000053
              ],
              [
                -80.31061971999998,
                25.957169730000032
              ],
              [
                -80.32671472399994,
                25.957122730000037
              ],
              [
                -80.37497973799998,
                25.957077729000048
              ],
              [
                -80.37506973799998,
                25.95707672900005
              ],
              [
                -80.43136175499995,
                25.956969728000047
              ],
              [
                -80.43939175699995,
                25.95685672700006
              ],
              [
                -80.68001882699997,
                25.956861722000042
              ],
              [
                -80.68004082799996,
                25.978753728000072
              ],
              [
                -80.87293488399996,
                25.979438724000033
              ]
            ]
          ]
        ]
      }
    }
  ]
}
