{
  "type": "FeatureCollection",
  "name": "New York",
  "crs": {
    "type": "name",
    "properties": {
      "name": "urn:ogc:def:crs:OGC:1.3:CRS84"
    }
  },
  "features": [
    {
      "type": "Feature",
      "properties": {
        "requestedCity": "New York",
        "sourceShapeName": "New York",
        "sourceShapeID": "52423323B68557587713523",
        "shapeName": "New York",
        "shapeISO": "",
        "shapeID": "52423323B68557587713523",
        "shapeGroup": "USA",
        "shapeType": "ADM2"
      },
      "geometry": {
        "type": "Polygon",
        "coordinates": [
          [
            [
              -73.91245742399997,
              40.79610427600005
            ],
            [
              -73.91362542399997,
              40.79679427600007
            ],
            [
              -73.92822642899995,
              40.803858277000074
            ],
            [
              -73.93180243099994,
              40.807884278000074
            ],
            [
              -73.93260643099995,
              40.81152527800003
            ],
            [
              -73.93232843099997,
              40.81951128000003
            ],
            [
              -73.93306043199993,
              40.828164282000046
            ],
            [
              -73.93300743299994,
              40.83568728300003
            ],
            [
              -73.92729743099994,
              40.846565285000054
            ],
            [
              -73.92121642999996,
              40.85470128700007
            ],
            [
              -73.91929142999999,
              40.857483288000026
            ],
            [
              -73.91085242699995,
              40.866536290000056
            ],
            [
              -73.90700142699995,
              40.873463291000064
            ],
            [
              -73.90855542699995,
              40.87772029200005
            ],
            [
              -73.91031142799994,
              40.87905529200003
            ],
            [
              -73.91520142899998,
              40.87558929100004
            ],
            [
              -73.93340743599998,
              40.882086292000054
            ],
            [
              -73.93808243699993,
              40.87470729000006
            ],
            [
              -73.93815495499996,
              40.87459140300007
            ],
            [
              -73.94828243899997,
              40.858407287000034
            ],
            [
              -73.95398343999994,
              40.84800828500005
            ],
            [
              -73.96318344199994,
              40.826908280000055
            ],
            [
              -73.96797485799993,
              40.820845672000075
            ],
            [
              -73.96798401799998,
              40.820834081000044
            ],
            [
              -73.96808344299995,
              40.82070827900003
            ],
            [
              -73.97004938599997,
              40.817977186000064
            ],
            [
              -73.97122898099997,
              40.81633848900003
            ],
            [
              -73.98382851699995,
              40.79883518400004
            ],
            [
              -73.98469902799997,
              40.79762586800007
            ],
            [
              -73.98805598899997,
              40.792962369000065
            ],
            [
              -73.99382442899997,
              40.78494883800005
            ],
            [
              -74.00139608499995,
              40.77443027500004
            ],
            [
              -74.00228239599994,
              40.77319900900005
            ],
            [
              -74.00828270399995,
              40.76486336600004
            ],
            [
              -74.00918545299999,
              40.76360926600006
            ],
            [
              -74.00985318199997,
              40.762593157000026
            ],
            [
              -74.01378545399996,
              40.756609265000066
            ],
            [
              -74.01692478099994,
              40.744115312000076
            ],
            [
              -74.01977815399994,
              40.73275941000003
            ],
            [
              -74.02107702199999,
              40.727590150000026
            ],
            [
              -74.02111845399997,
              40.72742525900003
            ],
            [
              -74.02149416399999,
              40.72545338400005
            ],
            [
              -74.02454445399997,
              40.70944425500005
            ],
            [
              -74.04086145899998,
              40.70012525300007
            ],
            [
              -74.04728645999995,
              40.69051125100003
            ],
            [
              -74.04614545999993,
              40.68927825000003
            ],
            [
              -74.04439745899998,
              40.68855025000005
            ],
            [
              -74.02544345299998,
              40.68419925000006
            ],
            [
              -74.02205524399994,
              40.68050729500004
            ],
            [
              -74.01527644999999,
              40.68215025000006
            ],
            [
              -74.00842644799997,
              40.68602425100005
            ],
            [
              -74.00096144599996,
              40.69014025200005
            ],
            [
              -73.99449944399998,
              40.70432625500007
            ],
            [
              -73.97923443999997,
              40.70577725600003
            ],
            [
              -73.97279043799995,
              40.70938625700006
            ],
            [
              -73.96651243599996,
              40.717925259000026
            ],
            [
              -73.96557343599994,
              40.71895825900003
            ],
            [
              -73.96264643499995,
              40.72275526000004
            ],
            [
              -73.96214943599995,
              40.732460262000075
            ],
            [
              -73.96247943599997,
              40.73681026300005
            ],
            [
              -73.96138243599995,
              40.74281026400007
            ],
            [
              -73.96021243599995,
              40.744519264000076
            ],
            [
              -73.93532442899993,
              40.77049327000003
            ],
            [
              -73.93441342999995,
              40.77810127200007
            ],
            [
              -73.92827842699995,
              40.776907272000074
            ],
            [
              -73.92100042499999,
              40.78175727300004
            ],
            [
              -73.91717242399994,
              40.784201273000065
            ],
            [
              -73.91245742399997,
              40.79610427600005
            ]
          ]
        ]
      }
    },
    {
      "type": "Feature",
      "properties": {
        "requestedCity": "New York",
        "sourceShapeName": "Kings",
        "sourceShapeID": "52423323B42930074476451",
        "shapeName": "Kings",
        "shapeISO": "",
        "shapeID": "52423323B42930074476451",
        "shapeGroup": "USA",
        "shapeType": "ADM2"
      },
      "geometry": {
        "type": "Polygon",
        "coordinates": [
          [
            [
              -73.96247943599997,
              40.73681026300005
            ],
            [
              -73.96214943599995,
              40.732460262000075
            ],
            [
              -73.96264643499995,
              40.72275526000004
            ],
            [
              -73.96557343599994,
              40.71895825900003
            ],
            [
              -73.96651243599996,
              40.717925259000026
            ],
            [
              -73.97279043799995,
              40.70938625700006
            ],
            [
              -73.97923443999997,
              40.70577725600003
            ],
            [
              -73.99449944399998,
              40.70432625500007
            ],
            [
              -74.00096144599996,
              40.69014025200005
            ],
            [
              -74.00842644799997,
              40.68602425100005
            ],
            [
              -74.01527644999999,
              40.68215025000006
            ],
            [
              -74.02205524399994,
              40.68050729500004
            ],
            [
              -74.02046845099994,
              40.67877824900006
            ],
            [
              -74.01827344899993,
              40.65902724500006
            ],
            [
              -74.02620877899994,
              40.65181331000008
            ],
            [
              -74.02727234699995,
              40.65084642900007
            ],
            [
              -74.02938723499994,
              40.64892380400005
            ],
            [
              -74.03206745299997,
              40.646487242000035
            ],
            [
              -74.03351828499996,
              40.64431099500007
            ],
            [
              -74.03376929899997,
              40.64393447300006
            ],
            [
              -74.03426776099997,
              40.643186780000065
            ],
            [
              -74.03443099199995,
              40.64294193400008
            ],
            [
              -74.03491252999999,
              40.64221962600004
            ],
            [
              -74.03549053099994,
              40.64135262600007
            ],
            [
              -74.03586056199998,
              40.640797579000036
            ],
            [
              -74.03833745399999,
              40.63708224000004
            ],
            [
              -74.04103959599996,
              40.62897647700004
            ],
            [
              -74.04241345499997,
              40.624855238000066
            ],
            [
              -74.03959145299996,
              40.61294223600004
            ],
            [
              -74.03657221299994,
              40.609125369000026
            ],
            [
              -74.03619574399994,
              40.60864944300005
            ],
            [
              -74.03285745099998,
              40.604429234000065
            ],
            [
              -74.00952799599997,
              40.597592503000044
            ],
            [
              -74.00869751299996,
              40.597349129000065
            ],
            [
              -74.00328244099995,
              40.59576223400006
            ],
            [
              -74.00048743899998,
              40.584093231000054
            ],
            [
              -74.00213499299997,
              40.582728315000054
            ],
            [
              -74.01202344199999,
              40.574536229000046
            ],
            [
              -73.99134743499997,
              40.57035822900008
            ],
            [
              -73.97932245499999,
              40.57148697300005
            ],
            [
              -73.96573185699998,
              40.572762676000025
            ],
            [
              -73.95941469499996,
              40.57335564600004
            ],
            [
              -73.95235626599998,
              40.57401819700004
            ],
            [
              -73.94176913199993,
              40.57501197500005
            ],
            [
              -73.93814179399999,
              40.57535246100008
            ],
            [
              -73.93156041599997,
              40.57597023200003
            ],
            [
              -73.93339639299995,
              40.56924875200008
            ],
            [
              -73.88507040099995,
              40.57375723300004
            ],
            [
              -73.84985339099995,
              40.58867723700007
            ],
            [
              -73.83446438699997,
              40.60720124200003
            ],
            [
              -73.83304238799997,
              40.62826924600006
            ],
            [
              -73.84833939399994,
              40.64352924800005
            ],
            [
              -73.85502239599998,
              40.64310624800004
            ],
            [
              -73.85763439899995,
              40.67166425400006
            ],
            [
              -73.86131939999996,
              40.67502925400004
            ],
            [
              -73.86171339999999,
              40.67661925400006
            ],
            [
              -73.86335040099993,
              40.67936025500006
            ],
            [
              -73.86378840099997,
              40.68112225500005
            ],
            [
              -73.86602840199998,
              40.681926255000064
            ],
            [
              -73.86871840299995,
              40.694630258000075
            ],
            [
              -73.87961740699996,
              40.69111425700004
            ],
            [
              -73.89651941199998,
              40.68240525400006
            ],
            [
              -73.90877541599997,
              40.698263257000065
            ],
            [
              -73.91403241899997,
              40.70475725800003
            ],
            [
              -73.92271242199996,
              40.71648626000007
            ],
            [
              -73.92312842199993,
              40.71703226000005
            ],
            [
              -73.92427942299997,
              40.718544260000044
            ],
            [
              -73.92418142299994,
              40.72002826100004
            ],
            [
              -73.92780242399994,
              40.726502262000054
            ],
            [
              -73.92921442499994,
              40.72778826200005
            ],
            [
              -73.93182642599999,
              40.72849026200004
            ],
            [
              -73.95390843299998,
              40.739429263000034
            ],
            [
              -73.96247943599997,
              40.73681026300005
            ]
          ]
        ]
      }
    },
    {
      "type": "Feature",
      "properties": {
        "requestedCity": "New York",
        "sourceShapeName": "Queens",
        "sourceShapeID": "52423323B86897144494159",
        "shapeName": "Queens",
        "shapeISO": "",
        "shapeID": "52423323B86897144494159",
        "shapeGroup": "USA",
        "shapeType": "ADM2"
      },
      "geometry": {
        "type": "Polygon",
        "coordinates": [
          [
            [
              -73.91245742399997,
              40.79610427600005
            ],
            [
              -73.91717242399994,
              40.784201273000065
            ],
            [
              -73.92100042499999,
              40.78175727300004
            ],
            [
              -73.92827842699995,
              40.776907272000074
            ],
            [
              -73.93441342999995,
              40.77810127200007
            ],
            [
              -73.93532442899993,
              40.77049327000003
            ],
            [
              -73.96021243599995,
              40.744519264000076
            ],
            [
              -73.96138243599995,
              40.74281026400007
            ],
            [
              -73.96247943599997,
              40.73681026300005
            ],
            [
              -73.95390843299998,
              40.739429263000034
            ],
            [
              -73.93182642599999,
              40.72849026200004
            ],
            [
              -73.92921442499994,
              40.72778826200005
            ],
            [
              -73.92780242399994,
              40.726502262000054
            ],
            [
              -73.92418142299994,
              40.72002826100004
            ],
            [
              -73.92427942299997,
              40.718544260000044
            ],
            [
              -73.92312842199993,
              40.71703226000005
            ],
            [
              -73.92271242199996,
              40.71648626000007
            ],
            [
              -73.91403241899997,
              40.70475725800003
            ],
            [
              -73.90877541599997,
              40.698263257000065
            ],
            [
              -73.89651941199998,
              40.68240525400006
            ],
            [
              -73.87961740699996,
              40.69111425700004
            ],
            [
              -73.86871840299995,
              40.694630258000075
            ],
            [
              -73.86602840199998,
              40.681926255000064
            ],
            [
              -73.86378840099997,
              40.68112225500005
            ],
            [
              -73.86335040099993,
              40.67936025500006
            ],
            [
              -73.86171339999999,
              40.67661925400006
            ],
            [
              -73.86131939999996,
              40.67502925400004
            ],
            [
              -73.85763439899995,
              40.67166425400006
            ],
            [
              -73.85502239599998,
              40.64310624800004
            ],
            [
              -73.84833939399994,
              40.64352924800005
            ],
            [
              -73.83304238799997,
              40.62826924600006
            ],
            [
              -73.83446438699997,
              40.60720124200003
            ],
            [
              -73.84985339099995,
              40.58867723700007
            ],
            [
              -73.88507040099995,
              40.57375723300004
            ],
            [
              -73.93339639299995,
              40.56924875200008
            ],
            [
              -73.93406221199996,
              40.56681119800004
            ],
            [
              -73.94059241699995,
              40.54290422500003
            ],
            [
              -73.90514240699997,
              40.55640922900005
            ],
            [
              -73.83440938499996,
              40.577209236000044
            ],
            [
              -73.77492936699997,
              40.59076724000005
            ],
            [
              -73.75686936099999,
              40.591849241000034
            ],
            [
              -73.75035694599995,
              40.58953026700004
            ],
            [
              -73.73718635499995,
              40.59297324200003
            ],
            [
              -73.74563435899995,
              40.611764246000064
            ],
            [
              -73.75473336199997,
              40.610413245000075
            ],
            [
              -73.76672036599996,
              40.61501224600005
            ],
            [
              -73.76876236699997,
              40.62436024700003
            ],
            [
              -73.76742636699998,
              40.62661424800007
            ],
            [
              -73.74800236099998,
              40.63463925000008
            ],
            [
              -73.74329635999999,
              40.63805625100008
            ],
            [
              -73.73996135899995,
              40.63515225000003
            ],
            [
              -73.73673635799997,
              40.649108253000065
            ],
            [
              -73.73220935699999,
              40.650099254000054
            ],
            [
              -73.72487535499994,
              40.65345525500004
            ],
            [
              -73.72810835699994,
              40.66535325700005
            ],
            [
              -73.72586235699998,
              40.68323126000007
            ],
            [
              -73.72697235899994,
              40.71072326600006
            ],
            [
              -73.72917735999994,
              40.719175267000026
            ],
            [
              -73.73032736099998,
              40.722165268000026
            ],
            [
              -73.72472335899994,
              40.72432226800004
            ],
            [
              -73.70764835399996,
              40.727804270000036
            ],
            [
              -73.70002135199996,
              40.739398272000074
            ],
            [
              -73.70058335199997,
              40.743192273000034
            ],
            [
              -73.70163435299997,
              40.75250127500004
            ],
            [
              -73.75029637099993,
              40.78248627900007
            ],
            [
              -73.76915095099997,
              40.800199174000056
            ],
            [
              -73.77603337999994,
              40.795283281000025
            ],
            [
              -73.78137038099999,
              40.794915280000055
            ],
            [
              -73.78642408699994,
              40.801465499000074
            ],
            [
              -73.79356038599997,
              40.80038828100004
            ],
            [
              -73.81130039199996,
              40.80540528100005
            ],
            [
              -73.82758439699995,
              40.80394428000005
            ],
            [
              -73.84665540299994,
              40.801032279000026
            ],
            [
              -73.86296640799998,
              40.797678278000035
            ],
            [
              -73.87097440999997,
              40.78906527600003
            ],
            [
              -73.87163240999996,
              40.78680627600005
            ],
            [
              -73.88530441399996,
              40.78669327500006
            ],
            [
              -73.89218341699996,
              40.790402276000066
            ],
            [
              -73.91245742399997,
              40.79610427600005
            ]
          ]
        ]
      }
    },
    {
      "type": "Feature",
      "properties": {
        "requestedCity": "New York",
        "sourceShapeName": "Bronx",
        "sourceShapeID": "52423323B44038614744637",
        "shapeName": "Bronx",
        "shapeISO": "",
        "shapeID": "52423323B44038614744637",
        "shapeGroup": "USA",
        "shapeType": "ADM2"
      },
      "geometry": {
        "type": "Polygon",
        "coordinates": [
          [
            [
              -73.78642408699994,
              40.801465499000074
            ],
            [
              -73.79733338799997,
              40.81560528400007
            ],
            [
              -73.80451938999994,
              40.81855428400007
            ],
            [
              -73.81189039299994,
              40.825371285000074
            ],
            [
              -73.81520639499996,
              40.83108328600008
            ],
            [
              -73.81557539499994,
              40.835137287000066
            ],
            [
              -73.81281139499998,
              40.84674528900007
            ],
            [
              -73.80691539299994,
              40.84950929000007
            ],
            [
              -73.79954439099998,
              40.84803529000004
            ],
            [
              -73.79725338999998,
              40.85220429100008
            ],
            [
              -73.79378638899993,
              40.85559129200004
            ],
            [
              -73.79225438899994,
              40.85583329200006
            ],
            [
              -73.78951338799999,
              40.851398291000066
            ],
            [
              -73.79104538799999,
              40.84656029000007
            ],
            [
              -73.78822238699996,
              40.84204428900006
            ],
            [
              -73.78540038499995,
              40.83801228900006
            ],
            [
              -73.78386838499995,
              40.836803288000056
            ],
            [
              -73.78257838399998,
              40.837609289000056
            ],
            [
              -73.78120738399997,
              40.83889928900004
            ],
            [
              -73.78031138399996,
              40.84456829000004
            ],
            [
              -73.77548638299999,
              40.846461291000026
            ],
            [
              -73.76964938099997,
              40.84466829000007
            ],
            [
              -73.76603337999995,
              40.84496929100004
            ],
            [
              -73.76512937999996,
              40.85423629300004
            ],
            [
              -73.76633437999999,
              40.85732529300003
            ],
            [
              -73.77055338199995,
              40.86033829400003
            ],
            [
              -73.76716314999999,
              40.87680502500007
            ],
            [
              -73.78370338699995,
              40.881086297000024
            ],
            [
              -73.82324540099995,
              40.89120729800004
            ],
            [
              -73.82404840099997,
              40.88987429700006
            ],
            [
              -73.82722540199995,
              40.89079329700007
            ],
            [
              -73.83840840599999,
              40.89406929800003
            ],
            [
              -73.84707240899996,
              40.90618130000007
            ],
            [
              -73.85267941099994,
              40.90990730000004
            ],
            [
              -73.86000741299995,
              40.90057329800004
            ],
            [
              -73.87819041899996,
              40.90599129900005
            ],
            [
              -73.91790643299998,
              40.91758530000004
            ],
            [
              -73.91840643299997,
              40.91748529900008
            ],
            [
              -73.91968783399994,
              40.91354351200005
            ],
            [
              -73.91970643299999,
              40.913486299000056
            ],
            [
              -73.92900743499996,
              40.889586294000026
            ],
            [
              -73.93340743599998,
              40.882086292000054
            ],
            [
              -73.91520142899998,
              40.87558929100004
            ],
            [
              -73.91031142799994,
              40.87905529200003
            ],
            [
              -73.90855542699995,
              40.87772029200005
            ],
            [
              -73.90700142699995,
              40.873463291000064
            ],
            [
              -73.91085242699995,
              40.866536290000056
            ],
            [
              -73.91929142999999,
              40.857483288000026
            ],
            [
              -73.92121642999996,
              40.85470128700007
            ],
            [
              -73.92729743099994,
              40.846565285000054
            ],
            [
              -73.93300743299994,
              40.83568728300003
            ],
            [
              -73.93306043199993,
              40.828164282000046
            ],
            [
              -73.93232843099997,
              40.81951128000003
            ],
            [
              -73.93260643099995,
              40.81152527800003
            ],
            [
              -73.93180243099994,
              40.807884278000074
            ],
            [
              -73.92822642899995,
              40.803858277000074
            ],
            [
              -73.91362542399997,
              40.79679427600007
            ],
            [
              -73.91245742399997,
              40.79610427600005
            ],
            [
              -73.89218341699996,
              40.790402276000066
            ],
            [
              -73.88530441399996,
              40.78669327500006
            ],
            [
              -73.87163240999996,
              40.78680627600005
            ],
            [
              -73.87097440999997,
              40.78906527600003
            ],
            [
              -73.86296640799998,
              40.797678278000035
            ],
            [
              -73.84665540299994,
              40.801032279000026
            ],
            [
              -73.82758439699995,
              40.80394428000005
            ],
            [
              -73.81130039199996,
              40.80540528100005
            ],
            [
              -73.79356038599997,
              40.80038828100004
            ],
            [
              -73.78642408699994,
              40.801465499000074
            ]
          ]
        ]
      }
    },
    {
      "type": "Feature",
      "properties": {
        "requestedCity": "New York",
        "sourceShapeName": "Richmond",
        "sourceShapeID": "52423323B38635571773884",
        "shapeName": "Richmond",
        "shapeISO": "",
        "shapeID": "52423323B38635571773884",
        "shapeGroup": "USA",
        "shapeType": "ADM2"
      },
      "geometry": {
        "type": "Polygon",
        "coordinates": [
          [
            [
              -74.20368950399995,
              40.592699226000036
            ],
            [
              -74.20752050499993,
              40.582749224000054
            ],
            [
              -74.21148250599998,
              40.57007022100004
            ],
            [
              -74.21682715499998,
              40.55865473600005
            ],
            [
              -74.21684050699997,
              40.558626219000075
            ],
            [
              -74.22740150999994,
              40.558042218000026
            ],
            [
              -74.23921251299998,
              40.55377221700007
            ],
            [
              -74.24921251599994,
              40.54507221500006
            ],
            [
              -74.24878851499994,
              40.53304121300005
            ],
            [
              -74.24640951399994,
              40.52436521100003
            ],
            [
              -74.25166151499997,
              40.517456209000045
            ],
            [
              -74.25855751699999,
              40.506240207000076
            ],
            [
              -74.26061251699997,
              40.502444206000064
            ],
            [
              -74.25283951399996,
              40.49809620600007
            ],
            [
              -74.24668951199999,
              40.496111205000034
            ],
            [
              -74.23324150799994,
              40.501307207000025
            ],
            [
              -74.21978850399995,
              40.502611208000076
            ],
            [
              -74.21047550199995,
              40.509456209000064
            ],
            [
              -74.19992449799997,
              40.511737210000035
            ],
            [
              -74.18215849299997,
              40.52064221200004
            ],
            [
              -74.17038248999995,
              40.52280321300003
            ],
            [
              -74.15533448499997,
              40.530297215000076
            ],
            [
              -74.14469322999997,
              40.53505040700003
            ],
            [
              -74.14442948199996,
              40.535168217000034
            ],
            [
              -74.13724247899995,
              40.530084216000034
            ],
            [
              -74.12729047699997,
              40.53814821800006
            ],
            [
              -74.11258647299996,
              40.54761122000008
            ],
            [
              -74.08591346499998,
              40.570282226000074
            ],
            [
              -74.06231345899994,
              40.590243230000056
            ],
            [
              -74.05968917499996,
              40.59408324900005
            ],
            [
              -74.05312645699996,
              40.603686233000076
            ],
            [
              -74.06274346099997,
              40.61592923500007
            ],
            [
              -74.06314599299998,
              40.61658774400007
            ],
            [
              -74.06759946299996,
              40.623873237000055
            ],
            [
              -74.06970146499998,
              40.64122424000004
            ],
            [
              -74.07588546699998,
              40.64810924100004
            ],
            [
              -74.08680747099999,
              40.651604242000076
            ],
            [
              -74.09374747299995,
              40.648247241000036
            ],
            [
              -74.10997747799996,
              40.64801924000005
            ],
            [
              -74.12815248299995,
              40.643910239000036
            ],
            [
              -74.14325648799996,
              40.64215723800004
            ],
            [
              -74.16140901799997,
              40.64424083600005
            ],
            [
              -74.16152725899997,
              40.64425440800005
            ],
            [
              -74.17061249699998,
              40.64529723700008
            ],
            [
              -74.18139150099995,
              40.64648323700004
            ],
            [
              -74.18775550299995,
              40.644639237000035
            ],
            [
              -74.19716008199998,
              40.63573107000008
            ],
            [
              -74.20044911199994,
              40.63261564800007
            ],
            [
              -74.20224850599999,
              40.63091123300006
            ],
            [
              -74.20348650599993,
              40.62506623200005
            ],
            [
              -74.20243550599997,
              40.616558231000056
            ],
            [
              -74.20376050499993,
              40.60661222900006
            ],
            [
              -74.19942250399998,
              40.599888227000065
            ],
            [
              -74.20368950399995,
              40.592699226000036
            ]
          ]
        ]
      }
    }
  ]
}
