{
  "type": "FeatureCollection",
  "name": "San Francisco Bay",
  "crs": {
    "type": "name",
    "properties": {
      "name": "urn:ogc:def:crs:OGC:1.3:CRS84"
    }
  },
  "features": [
    {
      "type": "Feature",
      "properties": {
        "requestedCity": "San Francisco Bay",
        "sourceShapeName": "San Francisco",
        "sourceShapeID": "52423323B46695716253077",
        "shapeName": "San Francisco",
        "shapeISO": "",
        "shapeID": "52423323B46695716253077",
        "shapeGroup": "USA",
        "shapeType": "ADM2"
      },
      "geometry": {
        "type": "MultiPolygon",
        "coordinates": [
          [
            [
              [
                -122.33097598699999,
                37.786039293000044
              ],
              [
                -122.33080320299996,
                37.783834951000074
              ],
              [
                -122.32917249999997,
                37.78317751000003
              ],
              [
                -122.33097598699999,
                37.786039293000044
              ]
            ]
          ],
          [
            [
              [
                -122.37789221499997,
                37.83065295200004
              ],
              [
                -122.37851321499994,
                37.82650995100005
              ],
              [
                -122.37268321299996,
                37.816514951000045
              ],
              [
                -122.37243521199997,
                37.811305951000065
              ],
              [
                -122.36267420999997,
                37.80758195100003
              ],
              [
                -122.35879221099998,
                37.81428295200004
              ],
              [
                -122.36325721199995,
                37.82395595200006
              ],
              [
                -122.36995421399996,
                37.832141953000075
              ],
              [
                -122.37789221499997,
                37.83065295200004
              ]
            ]
          ],
          [
            [
              [
                -122.391388324,
                37.70833594100003
              ],
              [
                -122.370424201,
                37.71757694300004
              ],
              [
                -122.36176219999999,
                37.71501494300003
              ],
              [
                -122.35679720099995,
                37.729509945000075
              ],
              [
                -122.36549120199999,
                37.73462594500006
              ],
              [
                -122.36771020299994,
                37.734947945000044
              ],
              [
                -122.37010720299998,
                37.732335944000056
              ],
              [
                -122.37586720399997,
                37.73498394400008
              ],
              [
                -122.38533621199997,
                37.79072894800004
              ],
              [
                -122.39815221599997,
                37.80563494800003
              ],
              [
                -122.40746521799997,
                37.81144594800003
              ],
              [
                -122.42505438199998,
                37.81100645600003
              ],
              [
                -122.42595522,
                37.81098394700007
              ],
              [
                -122.46380622499998,
                37.80465794300005
              ],
              [
                -122.47034922699999,
                37.808675943000026
              ],
              [
                -122.47809622799997,
                37.81083294300004
              ],
              [
                -122.48579622699998,
                37.79063394100007
              ],
              [
                -122.49289622799995,
                37.78793394000007
              ],
              [
                -122.50532322999999,
                37.788316939000026
              ],
              [
                -122.51449622999996,
                37.78083393800006
              ],
              [
                -122.51199622899998,
                37.771134937000056
              ],
              [
                -122.50785773499996,
                37.73546943600007
              ],
              [
                -122.50649622199995,
                37.72373593400005
              ],
              [
                -122.502440101,
                37.70813791900008
              ],
              [
                -122.42009520799996,
                37.708235939000076
              ],
              [
                -122.405305205,
                37.708266940000044
              ],
              [
                -122.391388324,
                37.70833594100003
              ]
            ]
          ]
        ]
      }
    },
    {
      "type": "Feature",
      "properties": {
        "requestedCity": "San Francisco Bay",
        "sourceShapeName": "Alameda",
        "sourceShapeID": "52423323B34460466024259",
        "shapeName": "Alameda",
        "shapeISO": "",
        "shapeID": "52423323B34460466024259",
        "shapeGroup": "USA",
        "shapeType": "ADM2"
      },
      "geometry": {
        "type": "Polygon",
        "coordinates": [
          [
            [
              -122.31350913099999,
              37.897215688000074
            ],
            [
              -122.31327121399994,
              37.89701496200007
            ],
            [
              -122.30999921299997,
              37.89275996200007
            ],
            [
              -122.31049020999995,
              37.87394296000008
            ],
            [
              -122.30132620599994,
              37.84776295900008
            ],
            [
              -122.30349840699995,
              37.833101009000075
            ],
            [
              -122.30394420399995,
              37.830091957000036
            ],
            [
              -122.30623520399996,
              37.82747395700005
            ],
            [
              -122.31768920599995,
              37.82681895600007
            ],
            [
              -122.32358020599997,
              37.82321895500007
            ],
            [
              -122.33372420599994,
              37.80980195300003
            ],
            [
              -122.33568820599999,
              37.79965695200008
            ],
            [
              -122.33176120499996,
              37.79605695200007
            ],
            [
              -122.33097598699999,
              37.786039293000044
            ],
            [
              -122.32917249999997,
              37.78317751000003
            ],
            [
              -122.31892220099996,
              37.77904495200005
            ],
            [
              -122.30435819799999,
              37.77463695300003
            ],
            [
              -122.294009196,
              37.77042095300004
            ],
            [
              -122.28615219499994,
              37.76946295300007
            ],
            [
              -122.27542119299994,
              37.76735495400004
            ],
            [
              -122.26411419099998,
              37.76467195500004
            ],
            [
              -122.25376618899998,
              37.76122295500005
            ],
            [
              -122.24265118599999,
              37.75374895500005
            ],
            [
              -122.24495118599998,
              37.75029895500006
            ],
            [
              -122.25223918699999,
              37.74762395400006
            ],
            [
              -122.25714718699999,
              37.74500595400008
            ],
            [
              -122.25796618699997,
              37.73960595300008
            ],
            [
              -122.25600218599999,
              37.73567895300005
            ],
            [
              -122.24683918299996,
              37.721934952000026
            ],
            [
              -122.22164117799997,
              37.70557195300006
            ],
            [
              -122.21378717599998,
              37.69869995300007
            ],
            [
              -122.20398417399997,
              37.69777395400007
            ],
            [
              -122.19742417199996,
              37.69280895400004
            ],
            [
              -122.17909816799994,
              37.680045954000036
            ],
            [
              -122.17091716699997,
              37.67611895400006
            ],
            [
              -122.16306216399994,
              37.667937954000024
            ],
            [
              -122.16281568399995,
              37.667277967000075
            ],
            [
              -122.15291815999996,
              37.64077595200007
            ],
            [
              -122.146373155,
              37.60739595000007
            ],
            [
              -122.14539115399998,
              37.60085095000005
            ],
            [
              -122.14702715299995,
              37.58841594800003
            ],
            [
              -122.14440915199998,
              37.58187094800007
            ],
            [
              -122.13753714899997,
              37.56747194700006
            ],
            [
              -122.13393714799997,
              37.56288994700003
            ],
            [
              -122.12870114699996,
              37.560598947000074
            ],
            [
              -122.11201114099998,
              37.52885594600008
            ],
            [
              -122.11145770999997,
              37.510855983000056
            ],
            [
              -122.11135713799996,
              37.50758494400003
            ],
            [
              -122.09245513499997,
              37.49949394500004
            ],
            [
              -122.06855212999994,
              37.491206946000034
            ],
            [
              -122.059044127,
              37.47555294500006
            ],
            [
              -122.04656738999995,
              37.459542303000035
            ],
            [
              -121.99668411599998,
              37.46724394900008
            ],
            [
              -121.975084112,
              37.460643950000076
            ],
            [
              -121.94710010899996,
              37.467428953000024
            ],
            [
              -121.92505410399997,
              37.45419095300008
            ],
            [
              -121.86779709899997,
              37.48303796000005
            ],
            [
              -121.855775097,
              37.48454196100005
            ],
            [
              -121.67041206899995,
              37.48274497400007
            ],
            [
              -121.47266103799996,
              37.482174988000054
            ],
            [
              -121.47193803799996,
              37.481787988000065
            ],
            [
              -121.46928803799995,
              37.48969298900005
            ],
            [
              -121.49319604399994,
              37.50242598800003
            ],
            [
              -121.50443304799995,
              37.52586798900006
            ],
            [
              -121.54184605399996,
              37.530219987000066
            ],
            [
              -121.55666805799996,
              37.54273698700007
            ],
            [
              -121.55697208099997,
              37.74305600400004
            ],
            [
              -121.55701008899996,
              37.816493011000034
            ],
            [
              -121.57701809199995,
              37.811532009000075
            ],
            [
              -121.87074612799995,
              37.74009098100004
            ],
            [
              -121.95527413899998,
              37.719861973000036
            ],
            [
              -122.01178415099997,
              37.74743297200007
            ],
            [
              -121.99778414999997,
              37.763231974000064
            ],
            [
              -122.00482215199997,
              37.77057597400005
            ],
            [
              -122.04548616199997,
              37.79813097300007
            ],
            [
              -122.10631517099995,
              37.802198969000074
            ],
            [
              -122.11382517299995,
              37.80273396900003
            ],
            [
              -122.14027317699998,
              37.80456696700003
            ],
            [
              -122.15740518099994,
              37.81795696700004
            ],
            [
              -122.17699018399998,
              37.81623196500004
            ],
            [
              -122.18419218699995,
              37.833926966000035
            ],
            [
              -122.22150119599996,
              37.86503096600006
            ],
            [
              -122.223891198,
              37.87833096700007
            ],
            [
              -122.24899020299995,
              37.89122696600003
            ],
            [
              -122.27109320799997,
              37.90582896600006
            ],
            [
              -122.31350913099999,
              37.897215688000074
            ]
          ]
        ]
      }
    },
    {
      "type": "Feature",
      "properties": {
        "requestedCity": "San Francisco Bay",
        "sourceShapeName": "Contra Costa",
        "sourceShapeID": "52423323B95554273469006",
        "shapeName": "Contra Costa",
        "shapeISO": "",
        "shapeID": "52423323B95554273469006",
        "shapeGroup": "USA",
        "shapeType": "ADM2"
      },
      "geometry": {
        "type": "Polygon",
        "coordinates": [
          [
            [
              -121.55701008899996,
              37.816493011000034
            ],
            [
              -121.53426008999998,
              37.84989601500007
            ],
            [
              -121.55313609399997,
              37.860968015000026
            ],
            [
              -121.57951609799994,
              37.861077013000056
            ],
            [
              -121.572837102,
              37.90430601700007
            ],
            [
              -121.55728710299996,
              37.93225202000008
            ],
            [
              -121.56852810599997,
              37.94917602100003
            ],
            [
              -121.56515110699996,
              37.95985402200006
            ],
            [
              -121.58247611299998,
              37.983927023000035
            ],
            [
              -121.56962511299997,
              38.00316502600003
            ],
            [
              -121.57872411499994,
              38.004260025000065
            ],
            [
              -121.57280211499994,
              38.01691502700004
            ],
            [
              -121.55756711299995,
              38.01704202800005
            ],
            [
              -121.57218211799994,
              38.04141702900006
            ],
            [
              -121.58440111899995,
              38.03603002700004
            ],
            [
              -121.58221612299997,
              38.068428030000064
            ],
            [
              -121.57293612199999,
              38.074244031000035
            ],
            [
              -121.580035125,
              38.094419033000065
            ],
            [
              -121.60493612999994,
              38.09988303100005
            ],
            [
              -121.62738913299995,
              38.098365029000036
            ],
            [
              -121.63810113299996,
              38.086136028000055
            ],
            [
              -121.66187813799996,
              38.095623027000045
            ],
            [
              -121.67307813999997,
              38.09352302600007
            ],
            [
              -121.68187813999998,
              38.08202402400008
            ],
            [
              -121.68148313699999,
              38.06124902200003
            ],
            [
              -121.69977813799994,
              38.04522502000003
            ],
            [
              -121.73783714199999,
              38.02663501500007
            ],
            [
              -121.78878614799999,
              38.01842601100003
            ],
            [
              -121.80128315099995,
              38.02162701000003
            ],
            [
              -121.81568615299994,
              38.02104300900004
            ],
            [
              -121.832135156,
              38.03110600900004
            ],
            [
              -121.84167215999997,
              38.051979010000025
            ],
            [
              -121.86247516499998,
              38.066035009000075
            ],
            [
              -121.86959516499996,
              38.054419008000025
            ],
            [
              -121.88958616699995,
              38.046662006000076
            ],
            [
              -121.92582717299996,
              38.04647900300006
            ],
            [
              -121.98317118399996,
              38.067302
            ],
            [
              -122.02842418999995,
              38.05919499600003
            ],
            [
              -122.05039919299998,
              38.060202995000054
            ],
            [
              -122.06111619499995,
              38.06214199400006
            ],
            [
              -122.09574619899996,
              38.04835999100004
            ],
            [
              -122.09978919899999,
              38.04701299000004
            ],
            [
              -122.14313320399998,
              38.03176598600004
            ],
            [
              -122.16759020799998,
              38.03672598400004
            ],
            [
              -122.18387621299996,
              38.05400198500007
            ],
            [
              -122.245264223,
              38.06397398100006
            ],
            [
              -122.26668172999996,
              38.06007517000006
            ],
            [
              -122.265885347,
              38.058276969000076
            ],
            [
              -122.26287422399997,
              38.05147797800004
            ],
            [
              -122.26287422299998,
              38.04460497800005
            ],
            [
              -122.27333745399994,
              38.03347742200003
            ],
            [
              -122.28349122399999,
              38.022678975000076
            ],
            [
              -122.30083622499995,
              38.010897972000066
            ],
            [
              -122.31556222799998,
              38.01351597100006
            ],
            [
              -122.32112522799997,
              38.01286197100006
            ],
            [
              -122.33111367299995,
              38.00590057900007
            ],
            [
              -122.33192522899998,
              38.005334970000035
            ],
            [
              -122.34010622999995,
              38.00369896900003
            ],
            [
              -122.35950623399998,
              38.00994596800007
            ],
            [
              -122.36366823499998,
              38.01417096800003
            ],
            [
              -122.36792223499998,
              38.01253496700008
            ],
            [
              -122.36890423499995,
              38.00795296700005
            ],
            [
              -122.36694123299998,
              37.998462966000034
            ],
            [
              -122.36301423199995,
              37.994379966000054
            ],
            [
              -122.361918232,
              37.98999596600004
            ],
            [
              -122.36759523099994,
              37.978172965000056
            ],
            [
              -122.39218423399996,
              37.969997962000036
            ],
            [
              -122.39984523299995,
              37.95601396100005
            ],
            [
              -122.40839623499994,
              37.957548960000054
            ],
            [
              -122.41177423599999,
              37.960501960000045
            ],
            [
              -122.41537423699998,
              37.96311996000003
            ],
            [
              -122.42977323899999,
              37.965409959000056
            ],
            [
              -122.43010023899996,
              37.96311995900004
            ],
            [
              -122.41738423499999,
              37.94351795800003
            ],
            [
              -122.41373823299995,
              37.937266958000066
            ],
            [
              -122.40130222999994,
              37.928430958000035
            ],
            [
              -122.39508422899996,
              37.92712195800004
            ],
            [
              -122.39050322799994,
              37.92253995800007
            ],
            [
              -122.38919422599997,
              37.91010495800003
            ],
            [
              -122.385921226,
              37.90814095800005
            ],
            [
              -122.37872222399994,
              37.905195958000036
            ],
            [
              -122.36759522199998,
              37.90388695900003
            ],
            [
              -122.36235922199995,
              37.90421395900006
            ],
            [
              -122.357123221,
              37.90879596000008
            ],
            [
              -122.33454321799996,
              37.90879596100007
            ],
            [
              -122.32374321599997,
              37.90584996200005
            ],
            [
              -122.31350913099999,
              37.897215688000074
            ],
            [
              -122.27109320799997,
              37.90582896600006
            ],
            [
              -122.24899020299995,
              37.89122696600003
            ],
            [
              -122.223891198,
              37.87833096700007
            ],
            [
              -122.22150119599996,
              37.86503096600006
            ],
            [
              -122.18419218699995,
              37.833926966000035
            ],
            [
              -122.17699018399998,
              37.81623196500004
            ],
            [
              -122.15740518099994,
              37.81795696700004
            ],
            [
              -122.14027317699998,
              37.80456696700003
            ],
            [
              -122.11382517299995,
              37.80273396900003
            ],
            [
              -122.10631517099995,
              37.802198969000074
            ],
            [
              -122.04548616199997,
              37.79813097300007
            ],
            [
              -122.00482215199997,
              37.77057597400005
            ],
            [
              -121.99778414999997,
              37.763231974000064
            ],
            [
              -122.01178415099997,
              37.74743297200007
            ],
            [
              -121.95527413899998,
              37.719861973000036
            ],
            [
              -121.87074612799995,
              37.74009098100004
            ],
            [
              -121.57701809199995,
              37.811532009000075
            ],
            [
              -121.55701008899996,
              37.816493011000034
            ]
          ]
        ]
      }
    },
    {
      "type": "Feature",
      "properties": {
        "requestedCity": "San Francisco Bay",
        "sourceShapeName": "Marin",
        "sourceShapeID": "52423323B48598289352775",
        "shapeName": "Marin",
        "shapeISO": "",
        "shapeID": "52423323B48598289352775",
        "shapeGroup": "USA",
        "shapeType": "ADM2"
      },
      "geometry": {
        "type": "MultiPolygon",
        "coordinates": [
          [
            [
              [
                -122.44632922899996,
                37.86105094900006
              ],
              [
                -122.44331522799996,
                37.85545294900004
              ],
              [
                -122.43441622599994,
                37.85243894900003
              ],
              [
                -122.41871132899996,
                37.85272184200005
              ],
              [
                -122.41848322399994,
                37.852725951000025
              ],
              [
                -122.41848322499999,
                37.861768951000045
              ],
              [
                -122.421354227,
                37.86995095200007
              ],
              [
                -122.43097122799998,
                37.87224695100008
              ],
              [
                -122.43857822899997,
                37.86837195000004
              ],
              [
                -122.44632922899996,
                37.86105094900006
              ]
            ]
          ],
          [
            [
              [
                -123.00292456499994,
                38.29571329800007
              ],
              [
                -122.99711936199998,
                38.289462943000046
              ],
              [
                -122.99461636099994,
                38.28310094200003
              ],
              [
                -122.98633235799997,
                38.27316894200004
              ],
              [
                -122.97709535599995,
                38.26790694300007
              ],
              [
                -122.96721635299997,
                38.25069594200005
              ],
              [
                -122.96858235199994,
                38.24288394100006
              ],
              [
                -122.98716235399996,
                38.237542939000036
              ],
              [
                -122.993248355,
                38.23969093900007
              ],
              [
                -122.99397235499998,
                38.237606939000045
              ],
              [
                -122.99196635399994,
                38.233189939000056
              ],
              [
                -122.96812534699995,
                38.20243293800007
              ],
              [
                -122.96638334599999,
                38.19851893800006
              ],
              [
                -122.96542134499998,
                38.18711793700004
              ],
              [
                -122.95364234199997,
                38.17567493700005
              ],
              [
                -122.94963933999998,
                38.164045936000036
              ],
              [
                -122.94908733799997,
                38.154064936000054
              ],
              [
                -122.952099337,
                38.13856693400004
              ],
              [
                -122.96090233499996,
                38.11296693200006
              ],
              [
                -122.99243333099997,
                38.04176292400007
              ],
              [
                -123.01154632999999,
                38.003442919000065
              ],
              [
                -123.01631633,
                38.00169591900004
              ],
              [
                -123.02057532999999,
                37.99954891800007
              ],
              [
                -123.02407932999995,
                37.99488291700004
              ],
              [
                -122.974403323,
                37.99243392100004
              ],
              [
                -122.97677732399995,
                37.99568492100008
              ],
              [
                -122.98016032499999,
                38.00083592100003
              ],
              [
                -122.98239932499996,
                38.00427892100004
              ],
              [
                -122.98178932599996,
                38.00912392200007
              ],
              [
                -122.97239132599998,
                38.020251923000046
              ],
              [
                -122.95682432499996,
                38.02872492500006
              ],
              [
                -122.93972432199996,
                38.031912927000064
              ],
              [
                -122.88212731299996,
                38.02527793000007
              ],
              [
                -122.85658630799998,
                38.01672193200005
              ],
              [
                -122.821396301,
                37.99673993300007
              ],
              [
                -122.79741829499994,
                37.97666193300006
              ],
              [
                -122.79175229299994,
                37.96942693300008
              ],
              [
                -122.78325729,
                37.951338932000056
              ],
              [
                -122.76615128599997,
                37.93800893200006
              ],
              [
                -122.75461928399994,
                37.93553193300005
              ],
              [
                -122.73691127999996,
                37.925829933000045
              ],
              [
                -122.73291127899995,
                37.92022993300003
              ],
              [
                -122.72731027599997,
                37.90463093200003
              ],
              [
                -122.70265327099997,
                37.893824933000076
              ],
              [
                -122.69358227099997,
                37.90117593400004
              ],
              [
                -122.68218427,
                37.906454936000046
              ],
              [
                -122.67848726899996,
                37.906608936000055
              ],
              [
                -122.65653226599994,
                37.90452393700008
              ],
              [
                -122.63999026199997,
                37.89735393800004
              ],
              [
                -122.62712625899997,
                37.88608493800007
              ],
              [
                -122.60130325399996,
                37.87513093900003
              ],
              [
                -122.58430224999995,
                37.85923193900004
              ],
              [
                -122.561500245,
                37.85183194000007
              ],
              [
                -122.54899924199998,
                37.83623194000006
              ],
              [
                -122.537298239,
                37.83033294000006
              ],
              [
                -122.52919823699995,
                37.819032940000056
              ],
              [
                -122.50539623399999,
                37.82213294200005
              ],
              [
                -122.48349623099995,
                37.82673294400007
              ],
              [
                -122.47916422999998,
                37.825432944000056
              ],
              [
                -122.47648622999998,
                37.83251794500006
              ],
              [
                -122.48311523499996,
                37.863961947000064
              ],
              [
                -122.49627923799994,
                37.87077994600003
              ],
              [
                -122.50103224099996,
                37.89366694800003
              ],
              [
                -122.48344423799995,
                37.89010294900004
              ],
              [
                -122.462171233,
                37.86887094900004
              ],
              [
                -122.45006323099994,
                37.871161950000044
              ],
              [
                -122.43828122999997,
                37.88097895200008
              ],
              [
                -122.43926323099998,
                37.88392495200003
              ],
              [
                -122.44842623299996,
                37.89341495200006
              ],
              [
                -122.45857123499997,
                37.894068951000065
              ],
              [
                -122.47231623799996,
                37.90257795100007
              ],
              [
                -122.47198823899998,
                37.91043195100008
              ],
              [
                -122.47820624099995,
                37.918612952000046
              ],
              [
                -122.48638824199998,
                37.921885951000036
              ],
              [
                -122.49358724299998,
                37.921885951000036
              ],
              [
                -122.50307724599998,
                37.92875795100008
              ],
              [
                -122.50307724699996,
                37.93661195100003
              ],
              [
                -122.49947824599997,
                37.93922995200006
              ],
              [
                -122.48573324399996,
                37.93759395300003
              ],
              [
                -122.47918824399994,
                37.941520953000065
              ],
              [
                -122.480497244,
                37.94544795400003
              ],
              [
                -122.48769724599998,
                37.94872095300008
              ],
              [
                -122.49031524699996,
                37.95919295400006
              ],
              [
                -122.49031524799994,
                37.964755955000044
              ],
              [
                -122.48867824799999,
                37.96671895500003
              ],
              [
                -122.47198824699996,
                37.98177295700003
              ],
              [
                -122.46249824599994,
                37.98144595800005
              ],
              [
                -122.45660824499998,
                37.97882795800007
              ],
              [
                -122.44842624399996,
                37.98471795900008
              ],
              [
                -122.44842624399996,
                37.988317960000074
              ],
              [
                -122.45300824599997,
                37.99617196000003
              ],
              [
                -122.46282524799994,
                38.00337196000004
              ],
              [
                -122.48147925199999,
                38.00762595900005
              ],
              [
                -122.49456925499999,
                38.015152958000044
              ],
              [
                -122.49784125599996,
                38.01940695800005
              ],
              [
                -122.49947825699996,
                38.03216995900004
              ],
              [
                -122.49227825899999,
                38.056385962000036
              ],
              [
                -122.48377025999997,
                38.07176696400006
              ],
              [
                -122.48671526199996,
                38.09009296500005
              ],
              [
                -122.48998726399998,
                38.09696596500004
              ],
              [
                -122.49129626499996,
                38.108091966000075
              ],
              [
                -122.49074022599996,
                38.10976008500006
              ],
              [
                -122.50572026799995,
                38.11553096600005
              ],
              [
                -122.51315727099995,
                38.13223996600004
              ],
              [
                -122.54500527899995,
                38.15882296600006
              ],
              [
                -122.55792928099999,
                38.16016296500004
              ],
              [
                -122.57074528599998,
                38.18714696700005
              ],
              [
                -122.62542129399998,
                38.182398962000036
              ],
              [
                -122.64899929699999,
                38.18108196000003
              ],
              [
                -122.66717130099994,
                38.189701960000036
              ],
              [
                -122.70140630699996,
                38.19610395800004
              ],
              [
                -122.72300831099994,
                38.207136957000046
              ],
              [
                -122.73991331399998,
                38.20702295600006
              ],
              [
                -122.90173935099995,
                38.31694795200008
              ],
              [
                -122.91133235299998,
                38.32121395200005
              ],
              [
                -122.93507335599998,
                38.313956949000044
              ],
              [
                -122.966137361,
                38.31697494700006
              ],
              [
                -123.00292456499994,
                38.29571329800007
              ]
            ]
          ]
        ]
      }
    },
    {
      "type": "Feature",
      "properties": {
        "requestedCity": "San Francisco Bay",
        "sourceShapeName": "Napa",
        "sourceShapeID": "52423323B42957866846180",
        "shapeName": "Napa",
        "shapeISO": "",
        "shapeID": "52423323B42957866846180",
        "shapeGroup": "USA",
        "shapeType": "ADM2"
      },
      "geometry": {
        "type": "Polygon",
        "coordinates": [
          [
            [
              -122.39506934399998,
              38.864250034000065
            ],
            [
              -122.40389934399997,
              38.855605033000074
            ],
            [
              -122.38200133799995,
              38.83380503300003
            ],
            [
              -122.37350133399997,
              38.817005032000054
            ],
            [
              -122.37940133299998,
              38.80210603000006
            ],
            [
              -122.398002336,
              38.80400602900005
            ],
            [
              -122.41230233599998,
              38.785806026000046
            ],
            [
              -122.40290233299999,
              38.77290702600004
            ],
            [
              -122.41580233499997,
              38.76800702500003
            ],
            [
              -122.46390333399995,
              38.70520801600003
            ],
            [
              -122.62740935399995,
              38.66751100100004
            ],
            [
              -122.62830634799997,
              38.62304299700003
            ],
            [
              -122.64643434799996,
              38.598597994000045
            ],
            [
              -122.620859339,
              38.56032199300006
            ],
            [
              -122.60267233599996,
              38.557500994000065
            ],
            [
              -122.58216133199994,
              38.549403995000034
            ],
            [
              -122.56665732699997,
              38.52554799400008
            ],
            [
              -122.54390632299999,
              38.51997099500005
            ],
            [
              -122.54882032299997,
              38.51163199400003
            ],
            [
              -122.53554731899999,
              38.50139599400006
            ],
            [
              -122.54491431999998,
              38.49628999300006
            ],
            [
              -122.52960531499997,
              38.46961399200006
            ],
            [
              -122.51625731299998,
              38.47087699300005
            ],
            [
              -122.50974130999998,
              38.45825899300007
            ],
            [
              -122.48300430499995,
              38.452714995000065
            ],
            [
              -122.48001630399995,
              38.44303499400007
            ],
            [
              -122.49748830399994,
              38.42431099100003
            ],
            [
              -122.44790329099999,
              38.37931699100005
            ],
            [
              -122.45722029099994,
              38.36699799000007
            ],
            [
              -122.424403284,
              38.34441799000007
            ],
            [
              -122.39493027399999,
              38.30448398900006
            ],
            [
              -122.402783275,
              38.30055398800005
            ],
            [
              -122.40460527299996,
              38.28142798700003
            ],
            [
              -122.38725526899998,
              38.27325798700008
            ],
            [
              -122.38990926799994,
              38.26069998600008
            ],
            [
              -122.37460026399998,
              38.24451998600006
            ],
            [
              -122.36680026299996,
              38.247019987000044
            ],
            [
              -122.35925425799996,
              38.20999398400005
            ],
            [
              -122.34957725399994,
              38.193976984000074
            ],
            [
              -122.36027025599998,
              38.19711998300005
            ],
            [
              -122.371129253,
              38.15772497900008
            ],
            [
              -122.40679925799998,
              38.15563697600004
            ],
            [
              -122.19539322599996,
              38.15502199200006
            ],
            [
              -122.19598422699994,
              38.16299599300004
            ],
            [
              -122.19907722799996,
              38.16873199300005
            ],
            [
              -122.21509323199996,
              38.179721993000044
            ],
            [
              -122.20569423399996,
              38.20822099600008
            ],
            [
              -122.19399323299996,
              38.213618997000026
            ],
            [
              -122.19599323499995,
              38.23041499800007
            ],
            [
              -122.21109423999997,
              38.25221999900003
            ],
            [
              -122.19679423899998,
              38.25842
            ],
            [
              -122.21689524199996,
              38.262319999000056
            ],
            [
              -122.21229524299997,
              38.272819
            ],
            [
              -122.188394239,
              38.27161900200008
            ],
            [
              -122.20349524399995,
              38.292919003000065
            ],
            [
              -122.20599524699998,
              38.315718004000075
            ],
            [
              -122.13375623599995,
              38.31561601000004
            ],
            [
              -122.06479222599995,
              38.315917015000025
            ],
            [
              -122.06139222699994,
              38.329616016000045
            ],
            [
              -122.073393233,
              38.36091601800007
            ],
            [
              -122.089177238,
              38.38466701900006
            ],
            [
              -122.11799624599996,
              38.41411401900007
            ],
            [
              -122.12640224899997,
              38.42892302000007
            ],
            [
              -122.12359525099998,
              38.44761302100005
            ],
            [
              -122.104895253,
              38.49081202600007
            ],
            [
              -122.10329425599997,
              38.51335302800004
            ],
            [
              -122.11157625799996,
              38.524056028000075
            ],
            [
              -122.128136268,
              38.583702032000076
            ],
            [
              -122.15178527699999,
              38.62530203400007
            ],
            [
              -122.16836227899995,
              38.619302032000064
            ],
            [
              -122.16122527999994,
              38.63576603400003
            ],
            [
              -122.16831428299997,
              38.655301035000036
            ],
            [
              -122.18325828599995,
              38.65714103400006
            ],
            [
              -122.20343529099995,
              38.67718903400004
            ],
            [
              -122.20821929399995,
              38.695541035000076
            ],
            [
              -122.224219297,
              38.699989034000055
            ],
            [
              -122.22505129999996,
              38.72234003600005
            ],
            [
              -122.25012430799995,
              38.75526703700007
            ],
            [
              -122.25966031399997,
              38.78992203900003
            ],
            [
              -122.27399631799994,
              38.80944203900003
            ],
            [
              -122.28801132399997,
              38.839936040000055
            ],
            [
              -122.31537232799997,
              38.83947303800005
            ],
            [
              -122.32622033099994,
              38.845937038000045
            ],
            [
              -122.34998133299996,
              38.835761035000075
            ],
            [
              -122.38519734099998,
              38.85248003400005
            ],
            [
              -122.39506934399998,
              38.864250034000065
            ]
          ]
        ]
      }
    },
    {
      "type": "Feature",
      "properties": {
        "requestedCity": "San Francisco Bay",
        "sourceShapeName": "San Mateo",
        "sourceShapeID": "52423323B75131784459442",
        "shapeName": "San Mateo",
        "shapeISO": "",
        "shapeID": "52423323B75131784459442",
        "shapeGroup": "USA",
        "shapeType": "ADM2"
      },
      "geometry": {
        "type": "Polygon",
        "coordinates": [
          [
            [
              -122.15229111999997,
              37.28605992300004
            ],
            [
              -122.16685112299996,
              37.29524192200006
            ],
            [
              -122.16208312299995,
              37.30423792300007
            ],
            [
              -122.19267812899994,
              37.31801492200003
            ],
            [
              -122.17508812699998,
              37.325745924000046
            ],
            [
              -122.20248013499997,
              37.36027692500005
            ],
            [
              -122.19051813599998,
              37.385257928000044
            ],
            [
              -122.19455313999998,
              37.40793893000006
            ],
            [
              -122.19041514199995,
              37.431476932000066
            ],
            [
              -122.16531513999996,
              37.45284793600007
            ],
            [
              -122.14494613799997,
              37.45820493800005
            ],
            [
              -122.12884413499995,
              37.45197793800003
            ],
            [
              -122.10871962099998,
              37.46626681200007
            ],
            [
              -122.11656313499998,
              37.47121394100003
            ],
            [
              -122.12555413899997,
              37.494269942000074
            ],
            [
              -122.14015514299996,
              37.50791194200008
            ],
            [
              -122.14964514399998,
              37.502675941000064
            ],
            [
              -122.15569914399998,
              37.50120294100003
            ],
            [
              -122.16370653299998,
              37.503050606000045
            ],
            [
              -122.16846214699996,
              37.50414794000005
            ],
            [
              -122.19497015299999,
              37.522473939000065
            ],
            [
              -122.19660615499998,
              37.53720094100004
            ],
            [
              -122.21427715699997,
              37.53850993900005
            ],
            [
              -122.244385164,
              37.558144939000044
            ],
            [
              -122.25191116599996,
              37.56632593900008
            ],
            [
              -122.26271116899994,
              37.57287093900004
            ],
            [
              -122.30590817499996,
              37.575488936000056
            ],
            [
              -122.31572617799998,
              37.58367093600003
            ],
            [
              -122.31539817799995,
              37.58726993600004
            ],
            [
              -122.31768917899996,
              37.59086993600005
            ],
            [
              -122.36023218499997,
              37.59250593300004
            ],
            [
              -122.37855818999998,
              37.60559693300007
            ],
            [
              -122.37332218999995,
              37.61377793400004
            ],
            [
              -122.37037718899995,
              37.61443193500003
            ],
            [
              -122.35859618699999,
              37.611159935000046
            ],
            [
              -122.35532318699995,
              37.615740936000066
            ],
            [
              -122.36546818999994,
              37.62621293600006
            ],
            [
              -122.38608519399997,
              37.63766693500003
            ],
            [
              -122.38739419599995,
              37.648466936000034
            ],
            [
              -122.37790319499999,
              37.65042993700007
            ],
            [
              -122.37561319499997,
              37.652393937000056
            ],
            [
              -122.37430419499998,
              37.662210938000044
            ],
            [
              -122.38763919899998,
              37.67906493900006
            ],
            [
              -122.39320320299998,
              37.70753594100006
            ],
            [
              -122.391388324,
              37.70833594100003
            ],
            [
              -122.405305205,
              37.708266940000044
            ],
            [
              -122.42009520799996,
              37.708235939000076
            ],
            [
              -122.502440101,
              37.70813791900008
            ],
            [
              -122.496797217,
              37.68643793100006
            ],
            [
              -122.49544396899995,
              37.66518010100003
            ],
            [
              -122.494098211,
              37.64403992800004
            ],
            [
              -122.49679920799997,
              37.61214092500006
            ],
            [
              -122.50139920699996,
              37.599641924000025
            ],
            [
              -122.51720020899995,
              37.59064192200003
            ],
            [
              -122.51810120699997,
              37.57614292100004
            ],
            [
              -122.51370120399997,
              37.552243919000034
            ],
            [
              -122.51480220299999,
              37.54614391800004
            ],
            [
              -122.516602203,
              37.54494391800006
            ],
            [
              -122.51954620299995,
              37.53730691700008
            ],
            [
              -122.51670220099999,
              37.52134491600003
            ],
            [
              -122.49930219499998,
              37.49534591500003
            ],
            [
              -122.49380219399995,
              37.492345915000044
            ],
            [
              -122.48676249999994,
              37.494395188000055
            ],
            [
              -122.48590119299996,
              37.494645916000024
            ],
            [
              -122.47240119199995,
              37.50054491800006
            ],
            [
              -122.46790119099995,
              37.49814491800004
            ],
            [
              -122.45210018599994,
              37.48054491700003
            ],
            [
              -122.44600018299997,
              37.461545916000034
            ],
            [
              -122.44370017999995,
              37.43594591400006
            ],
            [
              -122.42329917199999,
              37.39254691200006
            ],
            [
              -122.40927116799998,
              37.374809912000046
            ],
            [
              -122.40086316499998,
              37.35922991100006
            ],
            [
              -122.40133616299994,
              37.33701390900006
            ],
            [
              -122.40477785499996,
              37.31337903300005
            ],
            [
              -122.41169915599994,
              37.26584890200007
            ],
            [
              -122.41846515499998,
              37.24852590100005
            ],
            [
              -122.41912615499996,
              37.24147490000007
            ],
            [
              -122.41583515299999,
              37.232843899000045
            ],
            [
              -122.40899515099994,
              37.22526289900003
            ],
            [
              -122.40719414999995,
              37.219469899000046
            ],
            [
              -122.40508614799995,
              37.19579589700004
            ],
            [
              -122.39707814499997,
              37.18725389700006
            ],
            [
              -122.39061214399999,
              37.18299289700008
            ],
            [
              -122.37928314199996,
              37.181132898000044
            ],
            [
              -122.36709813899995,
              37.17282189800005
            ],
            [
              -122.36180313799997,
              37.163597897000045
            ],
            [
              -122.35980413599998,
              37.155578897000055
            ],
            [
              -122.34404213299996,
              37.144103897000036
            ],
            [
              -122.337846131,
              37.13594089700007
            ],
            [
              -122.33709812999996,
              37.13079989600004
            ],
            [
              -122.33886912899999,
              37.120858895000026
            ],
            [
              -122.33708412899995,
              37.11738689500004
            ],
            [
              -122.33047612799999,
              37.11534289600007
            ],
            [
              -122.322984126,
              37.11546489600005
            ],
            [
              -122.31392012499998,
              37.11816589700004
            ],
            [
              -122.306152124,
              37.11638789700004
            ],
            [
              -122.29298673699998,
              37.10732318600003
            ],
            [
              -122.28939512099998,
              37.113476898000044
            ],
            [
              -122.31179512799997,
              37.14754990000006
            ],
            [
              -122.31769513299997,
              37.18694990200004
            ],
            [
              -122.24267312299997,
              37.190039908000074
            ],
            [
              -122.24258612499995,
              37.215138910000064
            ],
            [
              -122.15278711199994,
              37.21544891700006
            ],
            [
              -122.15229111999997,
              37.28605992300004
            ]
          ]
        ]
      }
    },
    {
      "type": "Feature",
      "properties": {
        "requestedCity": "San Francisco Bay",
        "sourceShapeName": "Santa Clara",
        "sourceShapeID": "52423323B90997065310094",
        "shapeName": "Santa Clara",
        "shapeISO": "",
        "shapeID": "52423323B90997065310094",
        "shapeGroup": "USA",
        "shapeType": "ADM2"
      },
      "geometry": {
        "type": "Polygon",
        "coordinates": [
          [
            [
              -121.21541894099994,
              36.961252960000024
            ],
            [
              -121.24589994799999,
              36.98304096000004
            ],
            [
              -121.23314994799995,
              36.99935096200005
            ],
            [
              -121.23334994899994,
              37.011750963000054
            ],
            [
              -121.24600195299996,
              37.02557996400003
            ],
            [
              -121.224519951,
              37.03974796600005
            ],
            [
              -121.22339995299996,
              37.05751196800003
            ],
            [
              -121.20821095099996,
              37.061293969000076
            ],
            [
              -121.20964995199995,
              37.06824797000007
            ],
            [
              -121.24539696,
              37.08950596900007
            ],
            [
              -121.23045195799995,
              37.09694697100008
            ],
            [
              -121.21735195899998,
              37.12304697400003
            ],
            [
              -121.22681696199999,
              37.134778975000074
            ],
            [
              -121.23772496599997,
              37.15758497600007
            ],
            [
              -121.26230596999994,
              37.159477974000026
            ],
            [
              -121.28111997499997,
              37.18360797500003
            ],
            [
              -121.297742976,
              37.16643397200005
            ],
            [
              -121.32842198099996,
              37.16595497000003
            ],
            [
              -121.35457398699998,
              37.18389797000003
            ],
            [
              -121.37406598899997,
              37.173044968000056
            ],
            [
              -121.38456498899995,
              37.165511966000054
            ],
            [
              -121.383563988,
              37.15149196500005
            ],
            [
              -121.39343698899995,
              37.14813596400006
            ],
            [
              -121.40464899099999,
              37.15599396400006
            ],
            [
              -121.41688199899994,
              37.211266968000075
            ],
            [
              -121.45576300999994,
              37.249444969000024
            ],
            [
              -121.45399001199996,
              37.27643197100008
            ],
            [
              -121.45906401399998,
              37.28274397100006
            ],
            [
              -121.44356401299996,
              37.296642974000065
            ],
            [
              -121.43682901099999,
              37.291975974000025
            ],
            [
              -121.405766009,
              37.31099497800005
            ],
            [
              -121.40916301099998,
              37.33064197900006
            ],
            [
              -121.42366301699997,
              37.35884198100007
            ],
            [
              -121.40970601699996,
              37.38201798400007
            ],
            [
              -121.41256201799996,
              37.389439984000035
            ],
            [
              -121.43609802299994,
              37.396134983000024
            ],
            [
              -121.45666402599994,
              37.39553998100007
            ],
            [
              -121.45636402699995,
              37.40673998200003
            ],
            [
              -121.47261903199995,
              37.42334998300004
            ],
            [
              -121.46187303199997,
              37.43880398500005
            ],
            [
              -121.46293003299996,
              37.45149398600006
            ],
            [
              -121.484265038,
              37.46603698600006
            ],
            [
              -121.48678803999996,
              37.47565698600005
            ],
            [
              -121.47266103799996,
              37.482174988000054
            ],
            [
              -121.67041206899995,
              37.48274497400007
            ],
            [
              -121.855775097,
              37.48454196100005
            ],
            [
              -121.86779709899997,
              37.48303796000005
            ],
            [
              -121.92505410399997,
              37.45419095300008
            ],
            [
              -121.94710010899996,
              37.467428953000024
            ],
            [
              -121.975084112,
              37.460643950000076
            ],
            [
              -121.99668411599998,
              37.46724394900008
            ],
            [
              -122.04656738999995,
              37.459542303000035
            ],
            [
              -122.04478412299994,
              37.45725394500005
            ],
            [
              -122.04536408399997,
              37.45702374700005
            ],
            [
              -122.05986837299997,
              37.45126672300006
            ],
            [
              -122.06094612399994,
              37.450838943000065
            ],
            [
              -122.07112112599998,
              37.452096942000026
            ],
            [
              -122.08994312899995,
              37.45442394100007
            ],
            [
              -122.10871962099998,
              37.46626681200007
            ],
            [
              -122.12884413499995,
              37.45197793800003
            ],
            [
              -122.14494613799997,
              37.45820493800005
            ],
            [
              -122.16531513999996,
              37.45284793600007
            ],
            [
              -122.19041514199995,
              37.431476932000066
            ],
            [
              -122.19455313999998,
              37.40793893000006
            ],
            [
              -122.19051813599998,
              37.385257928000044
            ],
            [
              -122.20248013499997,
              37.36027692500005
            ],
            [
              -122.17508812699998,
              37.325745924000046
            ],
            [
              -122.19267812899994,
              37.31801492200003
            ],
            [
              -122.16208312299995,
              37.30423792300007
            ],
            [
              -122.16685112299996,
              37.29524192200006
            ],
            [
              -122.15229111999997,
              37.28605992300004
            ],
            [
              -122.15158411899995,
              37.28535092300007
            ],
            [
              -122.15058311799999,
              37.27620492200003
            ],
            [
              -122.121651112,
              37.25856492200006
            ],
            [
              -122.08982310299996,
              37.22327492200003
            ],
            [
              -122.06594609799998,
              37.21041792200003
            ],
            [
              -122.05510009699998,
              37.21250192300005
            ],
            [
              -122.03076309099998,
              37.18999492300003
            ],
            [
              -122.02618708699998,
              37.16685892100003
            ],
            [
              -122.00294708299998,
              37.15846292200007
            ],
            [
              -121.99110307999996,
              37.14427492200008
            ],
            [
              -121.93416306899996,
              37.123314924000056
            ],
            [
              -121.89088005999997,
              37.10526092600003
            ],
            [
              -121.88482105999998,
              37.10782992600008
            ],
            [
              -121.87007905699994,
              37.102251927000054
            ],
            [
              -121.86043405499998,
              37.10404192800007
            ],
            [
              -121.84630305299999,
              37.09702492800005
            ],
            [
              -121.81841304699998,
              37.08382492900006
            ],
            [
              -121.80908904399996,
              37.06930592800006
            ],
            [
              -121.78595303999998,
              37.061934929000074
            ],
            [
              -121.77827003799996,
              37.056069929000046
            ],
            [
              -121.75761303399997,
              37.049634930000025
            ],
            [
              -121.72579402599996,
              37.02068293000008
            ],
            [
              -121.71877502299998,
              37.007561929000076
            ],
            [
              -121.73871002499999,
              36.98999592600006
            ],
            [
              -121.71789102199995,
              36.995565928000076
            ],
            [
              -121.69537101699996,
              36.98515492900003
            ],
            [
              -121.693316015,
              36.968234927000026
            ],
            [
              -121.66614301099997,
              36.96434492900005
            ],
            [
              -121.64580400399996,
              36.932334928000046
            ],
            [
              -121.62476800199994,
              36.94045593000004
            ],
            [
              -121.60716799799997,
              36.926055930000075
            ],
            [
              -121.58116699299995,
              36.919256931000064
            ],
            [
              -121.58136699099998,
              36.89915692900007
            ],
            [
              -121.57541498899997,
              36.89303792900006
            ],
            [
              -121.56028498699999,
              36.89711593000004
            ],
            [
              -121.54802198799996,
              36.91739593300008
            ],
            [
              -121.54002898699997,
              36.92076993400008
            ],
            [
              -121.53447598699995,
              36.93093793500003
            ],
            [
              -121.51382598499998,
              36.945159938000074
            ],
            [
              -121.51019798599998,
              36.95602393900003
            ],
            [
              -121.50150098599994,
              36.97189994100006
            ],
            [
              -121.488961986,
              36.98315294300005
            ],
            [
              -121.46795198199999,
              36.97677694400005
            ],
            [
              -121.45198498099995,
              36.98884494600003
            ],
            [
              -121.418258972,
              36.96055394600006
            ],
            [
              -121.21541894099994,
              36.961252960000024
            ]
          ]
        ]
      }
    },
    {
      "type": "Feature",
      "properties": {
        "requestedCity": "San Francisco Bay",
        "sourceShapeName": "Solano",
        "sourceShapeID": "52423323B43221954300759",
        "shapeName": "Solano",
        "shapeISO": "",
        "shapeID": "52423323B43221954300759",
        "shapeGroup": "USA",
        "shapeType": "ADM2"
      },
      "geometry": {
        "type": "Polygon",
        "coordinates": [
          [
            [
              -122.10329425599997,
              38.51335302800004
            ],
            [
              -122.104895253,
              38.49081202600007
            ],
            [
              -122.12359525099998,
              38.44761302100005
            ],
            [
              -122.12640224899997,
              38.42892302000007
            ],
            [
              -122.11799624599996,
              38.41411401900007
            ],
            [
              -122.089177238,
              38.38466701900006
            ],
            [
              -122.073393233,
              38.36091601800007
            ],
            [
              -122.06139222699994,
              38.329616016000045
            ],
            [
              -122.06479222599995,
              38.315917015000025
            ],
            [
              -122.13375623599995,
              38.31561601000004
            ],
            [
              -122.20599524699998,
              38.315718004000075
            ],
            [
              -122.20349524399995,
              38.292919003000065
            ],
            [
              -122.188394239,
              38.27161900200008
            ],
            [
              -122.21229524299997,
              38.272819
            ],
            [
              -122.21689524199996,
              38.262319999000056
            ],
            [
              -122.19679423899998,
              38.25842
            ],
            [
              -122.21109423999997,
              38.25221999900003
            ],
            [
              -122.19599323499995,
              38.23041499800007
            ],
            [
              -122.19399323299996,
              38.213618997000026
            ],
            [
              -122.20569423399996,
              38.20822099600008
            ],
            [
              -122.21509323199996,
              38.179721993000044
            ],
            [
              -122.19907722799996,
              38.16873199300005
            ],
            [
              -122.19598422699994,
              38.16299599300004
            ],
            [
              -122.19539322599996,
              38.15502199200006
            ],
            [
              -122.40679925799998,
              38.15563697600004
            ],
            [
              -122.39741923899999,
              38.14175390100007
            ],
            [
              -122.39360125499996,
              38.143453976000046
            ],
            [
              -122.36877324999995,
              38.13565097700007
            ],
            [
              -122.31730624,
              38.11204297900008
            ],
            [
              -122.30181723599998,
              38.10514698000003
            ],
            [
              -122.28283723099997,
              38.08289398000005
            ],
            [
              -122.27301922799995,
              38.07438498000005
            ],
            [
              -122.26668172999996,
              38.06007517000006
            ],
            [
              -122.245264223,
              38.06397398100006
            ],
            [
              -122.18387621299996,
              38.05400198500007
            ],
            [
              -122.16759020799998,
              38.03672598400004
            ],
            [
              -122.14313320399998,
              38.03176598600004
            ],
            [
              -122.09978919899999,
              38.04701299000004
            ],
            [
              -122.09574619899996,
              38.04835999100004
            ],
            [
              -122.06111619499995,
              38.06214199400006
            ],
            [
              -122.05039919299998,
              38.060202995000054
            ],
            [
              -122.02842418999995,
              38.05919499600003
            ],
            [
              -121.98317118399996,
              38.067302
            ],
            [
              -121.92582717299996,
              38.04647900300006
            ],
            [
              -121.88958616699995,
              38.046662006000076
            ],
            [
              -121.86959516499996,
              38.054419008000025
            ],
            [
              -121.86247516499998,
              38.066035009000075
            ],
            [
              -121.86049016499999,
              38.07061201000005
            ],
            [
              -121.84324116399995,
              38.07666001200005
            ],
            [
              -121.82792915999994,
              38.06622801200007
            ],
            [
              -121.796408155,
              38.060852014000034
            ],
            [
              -121.74317714999995,
              38.08723402000004
            ],
            [
              -121.73183314699997,
              38.082639020000045
            ],
            [
              -121.71214314499997,
              38.08552502200007
            ],
            [
              -121.70650114699998,
              38.11186302500005
            ],
            [
              -121.69210814699994,
              38.13313102800004
            ],
            [
              -121.68565814899995,
              38.159649030000026
            ],
            [
              -121.66292014799996,
              38.18187403400003
            ],
            [
              -121.63188914499995,
              38.194374037000046
            ],
            [
              -121.61542614299998,
              38.19570103900003
            ],
            [
              -121.60245614399997,
              38.22041504200007
            ],
            [
              -121.605271153,
              38.29535704800003
            ],
            [
              -121.59328615399994,
              38.313094050000075
            ],
            [
              -121.68654216799996,
              38.31369504300005
            ],
            [
              -121.69398216899998,
              38.314459043000056
            ],
            [
              -121.69498419499996,
              38.52701706000005
            ],
            [
              -121.71204719899998,
              38.53796706000003
            ],
            [
              -121.73860720299996,
              38.537709058000075
            ],
            [
              -121.76473020599997,
              38.52592205500008
            ],
            [
              -121.77068920699998,
              38.53223405500006
            ],
            [
              -121.78582420899994,
              38.52307905300006
            ],
            [
              -121.81334321299994,
              38.526028051000026
            ],
            [
              -121.86013322199994,
              38.53851704900006
            ],
            [
              -121.88843422599996,
              38.537824046000026
            ],
            [
              -121.90898222799996,
              38.529581044000054
            ],
            [
              -121.94029823299996,
              38.53338904200007
            ],
            [
              -121.96806123599998,
              38.51999403900004
            ],
            [
              -121.97808123599998,
              38.50828203700007
            ],
            [
              -122.01391423899997,
              38.488733033000074
            ],
            [
              -122.03248324299994,
              38.49430903200005
            ],
            [
              -122.05695324899995,
              38.517274032000046
            ],
            [
              -122.10329425599997,
              38.51335302800004
            ]
          ]
        ]
      }
    },
    {
      "type": "Feature",
      "properties": {
        "requestedCity": "San Francisco Bay",
        "sourceShapeName": "Sonoma",
        "sourceShapeID": "52423323B39454223771984",
        "shapeName": "Sonoma",
        "shapeISO": "",
        "shapeID": "52423323B39454223771984",
        "shapeGroup": "USA",
        "shapeType": "ADM2"
      },
      "geometry": {
        "type": "Polygon",
        "coordinates": [
          [
            [
              -122.40679925799998,
              38.15563697600004
            ],
            [
              -122.371129253,
              38.15772497900008
            ],
            [
              -122.36027025599998,
              38.19711998300005
            ],
            [
              -122.34957725399994,
              38.193976984000074
            ],
            [
              -122.35925425799996,
              38.20999398400005
            ],
            [
              -122.36680026299996,
              38.247019987000044
            ],
            [
              -122.37460026399998,
              38.24451998600006
            ],
            [
              -122.38990926799994,
              38.26069998600008
            ],
            [
              -122.38725526899998,
              38.27325798700008
            ],
            [
              -122.40460527299996,
              38.28142798700003
            ],
            [
              -122.402783275,
              38.30055398800005
            ],
            [
              -122.39493027399999,
              38.30448398900006
            ],
            [
              -122.424403284,
              38.34441799000007
            ],
            [
              -122.45722029099994,
              38.36699799000007
            ],
            [
              -122.44790329099999,
              38.37931699100005
            ],
            [
              -122.49748830399994,
              38.42431099100003
            ],
            [
              -122.48001630399995,
              38.44303499400007
            ],
            [
              -122.48300430499995,
              38.452714995000065
            ],
            [
              -122.50974130999998,
              38.45825899300007
            ],
            [
              -122.51625731299998,
              38.47087699300005
            ],
            [
              -122.52960531499997,
              38.46961399200006
            ],
            [
              -122.54491431999998,
              38.49628999300006
            ],
            [
              -122.53554731899999,
              38.50139599400006
            ],
            [
              -122.54882032299997,
              38.51163199400003
            ],
            [
              -122.54390632299999,
              38.51997099500005
            ],
            [
              -122.56665732699997,
              38.52554799400008
            ],
            [
              -122.58216133199994,
              38.549403995000034
            ],
            [
              -122.60267233599996,
              38.557500994000065
            ],
            [
              -122.620859339,
              38.56032199300006
            ],
            [
              -122.64643434799996,
              38.598597994000045
            ],
            [
              -122.62830634799997,
              38.62304299700003
            ],
            [
              -122.62740935399995,
              38.66751100100004
            ],
            [
              -122.64658236099996,
              38.70618200200005
            ],
            [
              -122.69184836899996,
              38.71095099900003
            ],
            [
              -122.71039337399998,
              38.732086999000046
            ],
            [
              -122.71171337699997,
              38.75076800100004
            ],
            [
              -122.72009837799999,
              38.75355
            ],
            [
              -122.73535138299997,
              38.77789300100005
            ],
            [
              -122.74823338699997,
              38.78780000100005
            ],
            [
              -122.74875538899994,
              38.80419500200003
            ],
            [
              -122.77249339499997,
              38.82153500100003
            ],
            [
              -122.7958554,
              38.836843001000034
            ],
            [
              -122.80868740199998,
              38.836648
            ],
            [
              -122.82160540499996,
              38.850145
            ],
            [
              -123.08101044399996,
              38.852442980000035
            ],
            [
              -123.08124344199996,
              38.83841097900006
            ],
            [
              -123.13664945,
              38.83945297500003
            ],
            [
              -123.13626644699997,
              38.80914097200008
            ],
            [
              -123.36840747999997,
              38.806644954000035
            ],
            [
              -123.36824947599996,
              38.77707095200003
            ],
            [
              -123.44409748699996,
              38.77683994600005
            ],
            [
              -123.499168495,
              38.77833194200008
            ],
            [
              -123.52097449599995,
              38.75857993900007
            ],
            [
              -123.53354849899995,
              38.76841293800004
            ],
            [
              -123.52516549599994,
              38.75380593800003
            ],
            [
              -123.51479749299995,
              38.741970938000065
            ],
            [
              -123.490034488,
              38.732217939000066
            ],
            [
              -123.46130448199995,
              38.717005940000035
            ],
            [
              -123.441787477,
              38.69974894000006
            ],
            [
              -123.43273347399997,
              38.687135940000076
            ],
            [
              -123.40567646699998,
              38.65673394000004
            ],
            [
              -123.403023465,
              38.64945394000006
            ],
            [
              -123.39817946399995,
              38.64704894000005
            ],
            [
              -123.37931645799995,
              38.621957939000026
            ],
            [
              -123.37188945599996,
              38.60723993900007
            ],
            [
              -123.34962545099995,
              38.59680994000007
            ],
            [
              -123.34335144899995,
              38.590012940000065
            ],
            [
              -123.33191244499994,
              38.56554693900006
            ],
            [
              -123.297164437,
              38.543456940000056
            ],
            [
              -123.28716943499995,
              38.54022794000008
            ],
            [
              -123.24981042599995,
              38.51104994100007
            ],
            [
              -123.20229041699997,
              38.49431894300005
            ],
            [
              -123.16644140899996,
              38.474951944000054
            ],
            [
              -123.14533840399997,
              38.459426945000075
            ],
            [
              -123.12883840099994,
              38.45042294500007
            ],
            [
              -123.12239239799999,
              38.43731894500007
            ],
            [
              -123.10371939299995,
              38.415545945000076
            ],
            [
              -123.08558538699998,
              38.390529944000036
            ],
            [
              -123.06827838099997,
              38.359869943000035
            ],
            [
              -123.06845037799997,
              38.33521494100006
            ],
            [
              -123.07469737699995,
              38.32257893900004
            ],
            [
              -123.06368437299994,
              38.30218293900003
            ],
            [
              -123.05825237199997,
              38.29835993900008
            ],
            [
              -123.05351737099994,
              38.29938993900004
            ],
            [
              -123.052034371,
              38.30225094000008
            ],
            [
              -123.05348937199994,
              38.305726940000056
            ],
            [
              -123.05107437199996,
              38.31069794000007
            ],
            [
              -123.03875537099998,
              38.313580941000055
            ],
            [
              -123.02434636799995,
              38.310577942000066
            ],
            [
              -123.00413536399998,
              38.297016943000074
            ],
            [
              -123.00292456499994,
              38.29571329800007
            ],
            [
              -122.966137361,
              38.31697494700006
            ],
            [
              -122.93507335599998,
              38.313956949000044
            ],
            [
              -122.91133235299998,
              38.32121395200005
            ],
            [
              -122.90173935099995,
              38.31694795200008
            ],
            [
              -122.73991331399998,
              38.20702295600006
            ],
            [
              -122.72300831099994,
              38.207136957000046
            ],
            [
              -122.70140630699996,
              38.19610395800004
            ],
            [
              -122.66717130099994,
              38.189701960000036
            ],
            [
              -122.64899929699999,
              38.18108196000003
            ],
            [
              -122.62542129399998,
              38.182398962000036
            ],
            [
              -122.57074528599998,
              38.18714696700005
            ],
            [
              -122.55792928099999,
              38.16016296500004
            ],
            [
              -122.54500527899995,
              38.15882296600006
            ],
            [
              -122.51315727099995,
              38.13223996600004
            ],
            [
              -122.50572026799995,
              38.11553096600005
            ],
            [
              -122.49074022599996,
              38.10976008500006
            ],
            [
              -122.48998726499997,
              38.11201896700004
            ],
            [
              -122.48442426499997,
              38.11496496700005
            ],
            [
              -122.45497126099997,
              38.11889197000005
            ],
            [
              -122.45039025999995,
              38.116273970000066
            ],
            [
              -122.43959025799995,
              38.11692797100005
            ],
            [
              -122.40981125599995,
              38.136235974000044
            ],
            [
              -122.39741923899999,
              38.14175390100007
            ],
            [
              -122.40679925799998,
              38.15563697600004
            ]
          ]
        ]
      }
    }
  ]
}
