{
  "type": "FeatureCollection",
  "name": "Seattle",
  "crs": {
    "type": "name",
    "properties": {
      "name": "urn:ogc:def:crs:OGC:1.3:CRS84"
    }
  },
  "features": [
    {
      "type": "Feature",
      "properties": {
        "requestedCity": "Seattle",
        "sourceShapeName": "King",
        "sourceShapeID": "52423323B35530413742416",
        "shapeName": "King",
        "shapeISO": "",
        "shapeID": "52423323B35530413742416",
        "shapeGroup": "USA",
        "shapeType": "ADM2"
      },
      "geometry": {
        "type": "MultiPolygon",
        "coordinates": [
          [
            [
              [
                -121.37997561699996,
                47.08725369100006
              ],
              [
                -121.37969661699998,
                47.08750069100006
              ],
              [
                -121.402540623,
                47.09801869000006
              ],
              [
                -121.40809562899994,
                47.11810569000005
              ],
              [
                -121.39398262999998,
                47.13276769200007
              ],
              [
                -121.36469162699996,
                47.14176469600005
              ],
              [
                -121.33501861999997,
                47.132689699000025
              ],
              [
                -121.30336961599994,
                47.13894770200005
              ],
              [
                -121.29783361799997,
                47.14885670400008
              ],
              [
                -121.31776262699998,
                47.17434570300003
              ],
              [
                -121.30631162799995,
                47.18771670500007
              ],
              [
                -121.31761463499998,
                47.212136705000034
              ],
              [
                -121.36515264599996,
                47.22456870100007
              ],
              [
                -121.36083064899998,
                47.24040870200008
              ],
              [
                -121.33978164699994,
                47.24720470500006
              ],
              [
                -121.33586464999996,
                47.260567706000074
              ],
              [
                -121.34121765499998,
                47.28126670700004
              ],
              [
                -121.41172366899997,
                47.28995469900008
              ],
              [
                -121.427506672,
                47.28908069800008
              ],
              [
                -121.43269667599998,
                47.30496069800006
              ],
              [
                -121.44437667899996,
                47.30825269700006
              ],
              [
                -121.43059268299999,
                47.33462270000007
              ],
              [
                -121.44466968699999,
                47.34376669900007
              ],
              [
                -121.46596569599996,
                47.36798269800005
              ],
              [
                -121.43780269299998,
                47.37197270100006
              ],
              [
                -121.42622669499997,
                47.38959770400004
              ],
              [
                -121.42743170199998,
                47.420683705000044
              ],
              [
                -121.41089269999998,
                47.42454470700005
              ],
              [
                -121.38501069899996,
                47.43460671100007
              ],
              [
                -121.37913470199999,
                47.45441671200007
              ],
              [
                -121.33872070099994,
                47.47638271800008
              ],
              [
                -121.30314969699998,
                47.48602872200007
              ],
              [
                -121.28370770199996,
                47.518762726000034
              ],
              [
                -121.26337769899999,
                47.52342972900004
              ],
              [
                -121.2354087,
                47.54465473300007
              ],
              [
                -121.21705370299998,
                47.56975773600004
              ],
              [
                -121.17659169499996,
                47.56693774100006
              ],
              [
                -121.17226469999997,
                47.59005974200005
              ],
              [
                -121.11358369199996,
                47.59729374900007
              ],
              [
                -121.13371170699997,
                47.64561075000006
              ],
              [
                -121.12159871399996,
                47.68521875300007
              ],
              [
                -121.10552771199997,
                47.68882075500005
              ],
              [
                -121.06601971199996,
                47.713608761000046
              ],
              [
                -121.08738171899995,
                47.72850275900004
              ],
              [
                -121.07900971999999,
                47.739195761000076
              ],
              [
                -121.09403272699996,
                47.75818976000005
              ],
              [
                -121.11087272999998,
                47.75842275900004
              ],
              [
                -121.11919373699999,
                47.77993875900006
              ],
              [
                -121.45554979299999,
                47.78058172200008
              ],
              [
                -121.45630179199998,
                47.77842072200008
              ],
              [
                -121.58455581299995,
                47.77705970800008
              ],
              [
                -121.92783586899998,
                47.77696767000003
              ],
              [
                -121.99178987899995,
                47.77535466300003
              ],
              [
                -122.02350088499998,
                47.77558965900005
              ],
              [
                -122.16676090799996,
                47.77625464400006
              ],
              [
                -122.22762191799995,
                47.77675063700008
              ],
              [
                -122.24362692099999,
                47.77696463500007
              ],
              [
                -122.27104792499995,
                47.77710063200004
              ],
              [
                -122.29760892899998,
                47.77742562900005
              ],
              [
                -122.31766693299994,
                47.777623627000025
              ],
              [
                -122.32740693399995,
                47.77765162600008
              ],
              [
                -122.39643661699995,
                47.77793301500003
              ],
              [
                -122.39445694399996,
                47.77222461800005
              ],
              [
                -122.38025593799995,
                47.75852461900007
              ],
              [
                -122.382655936,
                47.74912461800005
              ],
              [
                -122.37315492999994,
                47.729224619000036
              ],
              [
                -122.37645492699994,
                47.71652461700006
              ],
              [
                -122.37871976899999,
                47.71233465800003
              ],
              [
                -122.38045492599997,
                47.70912461700004
              ],
              [
                -122.39326292599998,
                47.70160761500006
              ],
              [
                -122.40385592499996,
                47.68942461300003
              ],
              [
                -122.40785592299994,
                47.68012461200004
              ],
              [
                -122.42985592199994,
                47.65892460900005
              ],
              [
                -122.41465991499996,
                47.639771609000036
              ],
              [
                -122.40425491199994,
                47.63392561000006
              ],
              [
                -122.39375390899994,
                47.63102561100004
              ],
              [
                -122.38605390799995,
                47.631725612000025
              ],
              [
                -122.36783390399995,
                47.62421861400003
              ],
              [
                -122.34495189599994,
                47.60912561500004
              ],
              [
                -122.344205876,
                47.60774924700007
              ],
              [
                -122.33958588899998,
                47.59922561500008
              ],
              [
                -122.33952789299997,
                47.599118615000066
              ],
              [
                -122.34295189199997,
                47.59122561500004
              ],
              [
                -122.344347213,
                47.59064198900006
              ],
              [
                -122.35825289299999,
                47.58482561300008
              ],
              [
                -122.37018189399998,
                47.58309261100004
              ],
              [
                -122.37543589499995,
                47.58518661100004
              ],
              [
                -122.38715389999999,
                47.595725610000045
              ],
              [
                -122.40185389899995,
                47.58392560800007
              ],
              [
                -122.42115390099997,
                47.57602560500004
              ],
              [
                -122.40985389699995,
                47.56892560600005
              ],
              [
                -122.39835289099994,
                47.55012560600005
              ],
              [
                -122.39395288399999,
                47.524825606000036
              ],
              [
                -122.39655288199998,
                47.51522560500007
              ],
              [
                -122.38665187699996,
                47.502225605000035
              ],
              [
                -122.36525087099994,
                47.48842560700007
              ],
              [
                -122.36135086799999,
                47.48142660700006
              ],
              [
                -122.36805086399994,
                47.459226605000026
              ],
              [
                -122.38315086499995,
                47.45052660300007
              ],
              [
                -122.36705086099994,
                47.44762660400005
              ],
              [
                -122.362039913,
                47.44522660500007
              ],
              [
                -122.35514985799995,
                47.44192660500005
              ],
              [
                -122.35120585499999,
                47.43080260500005
              ],
              [
                -122.35120585299995,
                47.423083605000045
              ],
              [
                -122.34804985099998,
                47.41592660500004
              ],
              [
                -122.33524884699995,
                47.408426606000035
              ],
              [
                -122.32844884399998,
                47.40062660600006
              ],
              [
                -122.32574884099995,
                47.39152660600007
              ],
              [
                -122.32519521699999,
                47.36510532300008
              ],
              [
                -122.32484783099994,
                47.34852660400003
              ],
              [
                -122.33694883099997,
                47.34142660200007
              ],
              [
                -122.36418283499995,
                47.33595859900004
              ],
              [
                -122.41829349899996,
                47.32061689300008
              ],
              [
                -122.33484481299996,
                47.26311559800007
              ],
              [
                -122.33493481099998,
                47.25759959800007
              ],
              [
                -122.33133681099997,
                47.25737059800008
              ],
              [
                -122.29486780499997,
                47.25725160200005
              ],
              [
                -122.22980679499994,
                47.25756460900004
              ],
              [
                -122.22950979499996,
                47.25756160900005
              ],
              [
                -122.22644879399996,
                47.25754261000003
              ],
              [
                -122.21603079199997,
                47.257434611000065
              ],
              [
                -122.19741178899994,
                47.257335613000066
              ],
              [
                -122.16525678399995,
                47.25755461600005
              ],
              [
                -122.143908781,
                47.257157618000065
              ],
              [
                -122.13880477999999,
                47.25545561900003
              ],
              [
                -122.13758077899996,
                47.253360619000034
              ],
              [
                -122.13798477799997,
                47.25101361900005
              ],
              [
                -122.13769577699998,
                47.246958619000054
              ],
              [
                -122.13463477599998,
                47.244323619000056
              ],
              [
                -122.12771777399996,
                47.24102061900004
              ],
              [
                -122.12439977399998,
                47.240136620000044
              ],
              [
                -122.122824773,
                47.23648962000004
              ],
              [
                -122.12430877199995,
                47.23482061900006
              ],
              [
                -122.123863772,
                47.232083619000036
              ],
              [
                -122.12180077099998,
                47.23142061900006
              ],
              [
                -122.11878277099999,
                47.23077862000008
              ],
              [
                -122.11578176899997,
                47.22775262000005
              ],
              [
                -122.11632376899996,
                47.22488762000006
              ],
              [
                -122.11556076799997,
                47.22128562000006
              ],
              [
                -122.11339976699998,
                47.21814062000004
              ],
              [
                -122.11255476599996,
                47.21372062000006
              ],
              [
                -122.10845076399994,
                47.20872262000006
              ],
              [
                -122.10345176199996,
                47.20344362000003
              ],
              [
                -122.09823875999996,
                47.19984462000008
              ],
              [
                -122.09424175899994,
                47.196261621000076
              ],
              [
                -122.08782775699996,
                47.19406862100004
              ],
              [
                -122.07944075499995,
                47.18957962200005
              ],
              [
                -122.069773753,
                47.18763162300007
              ],
              [
                -122.06339975099996,
                47.18588462300005
              ],
              [
                -122.06017774999998,
                47.18211562300007
              ],
              [
                -122.05431174799998,
                47.178606624000054
              ],
              [
                -122.05191774699995,
                47.17446062400006
              ],
              [
                -122.04867874499996,
                47.17168262400003
              ],
              [
                -122.04356474499997,
                47.17171162500006
              ],
              [
                -122.04105574399995,
                47.172684625000045
              ],
              [
                -122.03480974399997,
                47.17396062600005
              ],
              [
                -122.02889774299996,
                47.17492462600006
              ],
              [
                -122.02138274199996,
                47.17412862700007
              ],
              [
                -122.01477274099994,
                47.17561162800007
              ],
              [
                -122.00791173899995,
                47.17376162900007
              ],
              [
                -122.00663673899999,
                47.17141862900007
              ],
              [
                -122.000136737,
                47.170633629000065
              ],
              [
                -121.99746573699997,
                47.17219763000003
              ],
              [
                -121.99368373599998,
                47.17089063000003
              ],
              [
                -121.99382373599997,
                47.16884263000003
              ],
              [
                -121.99230773499994,
                47.16523063000005
              ],
              [
                -121.98788973399996,
                47.16315763000006
              ],
              [
                -121.98430773299998,
                47.16460463100003
              ],
              [
                -121.97952173299996,
                47.16410063100005
              ],
              [
                -121.974202731,
                47.16135163200005
              ],
              [
                -121.97185772999995,
                47.158796632000076
              ],
              [
                -121.96575472799998,
                47.15603463200006
              ],
              [
                -121.96070872799999,
                47.157142633000035
              ],
              [
                -121.95158972599995,
                47.15401463400008
              ],
              [
                -121.949785723,
                47.144350633000045
              ],
              [
                -121.94076372099994,
                47.13960563400008
              ],
              [
                -121.93644071999995,
                47.13846363400006
              ],
              [
                -121.93111671999998,
                47.14185563500007
              ],
              [
                -121.92787271999998,
                47.144821636000074
              ],
              [
                -121.92365371999995,
                47.14917563600005
              ],
              [
                -121.91420871899999,
                47.15006863700006
              ],
              [
                -121.90764271799998,
                47.151331638000045
              ],
              [
                -121.903988718,
                47.15386463900006
              ],
              [
                -121.895730717,
                47.15481064000005
              ],
              [
                -121.88620171499997,
                47.15295264100007
              ],
              [
                -121.878046714,
                47.15379064200005
              ],
              [
                -121.87623371299998,
                47.15197064200004
              ],
              [
                -121.87071271199994,
                47.151022642000044
              ],
              [
                -121.86760571199994,
                47.15227964300004
              ],
              [
                -121.86286471099999,
                47.15182664300005
              ],
              [
                -121.86106770999999,
                47.14948364300005
              ],
              [
                -121.85734070899997,
                47.147077643000046
              ],
              [
                -121.85424570799995,
                47.147534644000075
              ],
              [
                -121.84760170699997,
                47.14562564400006
              ],
              [
                -121.84351470599995,
                47.14358564500003
              ],
              [
                -121.83733470499999,
                47.144416645000035
              ],
              [
                -121.83511270499997,
                47.146551646000034
              ],
              [
                -121.83211670499998,
                47.150243646000035
              ],
              [
                -121.82585670499998,
                47.15359564700003
              ],
              [
                -121.81971470499997,
                47.15851764800004
              ],
              [
                -121.81271770499995,
                47.16007764900007
              ],
              [
                -121.81041370499997,
                47.16387264900004
              ],
              [
                -121.80494370499997,
                47.16712165000007
              ],
              [
                -121.79895770499996,
                47.17018065100007
              ],
              [
                -121.794714705,
                47.17308265200006
              ],
              [
                -121.79182670399996,
                47.17264165200004
              ],
              [
                -121.78771870299994,
                47.172863652000046
              ],
              [
                -121.78191970199998,
                47.172532653000076
              ],
              [
                -121.77757170199999,
                47.17193865300004
              ],
              [
                -121.77336169999995,
                47.16649765400007
              ],
              [
                -121.76836769899995,
                47.165816654000025
              ],
              [
                -121.76170869799995,
                47.16734165500003
              ],
              [
                -121.75699969699997,
                47.16490465500004
              ],
              [
                -121.75295769599995,
                47.163499656000056
              ],
              [
                -121.74721769399997,
                47.16236265600003
              ],
              [
                -121.74547969399998,
                47.16349865600006
              ],
              [
                -121.74249869399995,
                47.16423665700006
              ],
              [
                -121.74062469299997,
                47.162508657000046
              ],
              [
                -121.73142769099996,
                47.15857465800008
              ],
              [
                -121.72627868999996,
                47.155799658000035
              ],
              [
                -121.72105968799997,
                47.151795658000026
              ],
              [
                -121.71376368699998,
                47.151648659000045
              ],
              [
                -121.70274368499997,
                47.15132866000005
              ],
              [
                -121.69472468299995,
                47.15087766100004
              ],
              [
                -121.68758368199997,
                47.149591662000034
              ],
              [
                -121.68294568099998,
                47.15041566200006
              ],
              [
                -121.67810468099998,
                47.153560663000064
              ],
              [
                -121.67366568099999,
                47.155162664000045
              ],
              [
                -121.66804867999997,
                47.15635666400004
              ],
              [
                -121.66566467999996,
                47.15865666500008
              ],
              [
                -121.66149967999996,
                47.15997466500005
              ],
              [
                -121.65857167899998,
                47.15866366500006
              ],
              [
                -121.65372167799995,
                47.15715866600004
              ],
              [
                -121.64931267699995,
                47.15513266600004
              ],
              [
                -121.64338267599999,
                47.155495667000025
              ],
              [
                -121.63670067399994,
                47.153246667000076
              ],
              [
                -121.63169667399995,
                47.15336866800004
              ],
              [
                -121.62753667299995,
                47.15224866800003
              ],
              [
                -121.62382867199995,
                47.15078766900007
              ],
              [
                -121.61917766999994,
                47.14710966900003
              ],
              [
                -121.61737366899996,
                47.144567669000025
              ],
              [
                -121.61183366799997,
                47.14317167000007
              ],
              [
                -121.60766466599995,
                47.13803567000008
              ],
              [
                -121.60335266399994,
                47.13313467000006
              ],
              [
                -121.59869166199996,
                47.128633670000056
              ],
              [
                -121.594879661,
                47.12464367000007
              ],
              [
                -121.59376065999999,
                47.121808670000064
              ],
              [
                -121.58964865899998,
                47.120595671000046
              ],
              [
                -121.58386365799998,
                47.11908167100006
              ],
              [
                -121.58083165699998,
                47.11879267200004
              ],
              [
                -121.57701365699995,
                47.119574672000056
              ],
              [
                -121.57401165599998,
                47.12023367200004
              ],
              [
                -121.569102655,
                47.11942367300003
              ],
              [
                -121.56413965499996,
                47.11976767300007
              ],
              [
                -121.55991165399996,
                47.119629674000066
              ],
              [
                -121.55637265399997,
                47.121461674000045
              ],
              [
                -121.55203865299995,
                47.12275667500006
              ],
              [
                -121.544146652,
                47.12305267600004
              ],
              [
                -121.539265651,
                47.12267167600004
              ],
              [
                -121.53256065,
                47.12391267700008
              ],
              [
                -121.52483864899995,
                47.124078678000046
              ],
              [
                -121.51947564799997,
                47.12289167800003
              ],
              [
                -121.51423264699997,
                47.122772679000036
              ],
              [
                -121.509117646,
                47.122296679000044
              ],
              [
                -121.50654064499997,
                47.11958768000005
              ],
              [
                -121.50435564499998,
                47.11810168000005
              ],
              [
                -121.49819264299998,
                47.11695168000006
              ],
              [
                -121.49439764199997,
                47.11614468100004
              ],
              [
                -121.49230564199996,
                47.11658268100007
              ],
              [
                -121.48942564199996,
                47.11611568100005
              ],
              [
                -121.487592641,
                47.11441668100008
              ],
              [
                -121.48441863999994,
                47.11131068100008
              ],
              [
                -121.48044563899998,
                47.10999268200004
              ],
              [
                -121.47820163799997,
                47.10816168200006
              ],
              [
                -121.47622563699997,
                47.10484168200003
              ],
              [
                -121.47366163599997,
                47.10203268200007
              ],
              [
                -121.46821263399994,
                47.098493682000026
              ],
              [
                -121.46296863199996,
                47.09442468300006
              ],
              [
                -121.45523462999995,
                47.08987468300006
              ],
              [
                -121.44848862799995,
                47.087475684000026
              ],
              [
                -121.44477462699996,
                47.08538768400007
              ],
              [
                -121.432813625,
                47.08643768600007
              ],
              [
                -121.42303962399995,
                47.08750368700004
              ],
              [
                -121.41648362399997,
                47.08960668800006
              ],
              [
                -121.41150762299998,
                47.09057368800006
              ],
              [
                -121.405362621,
                47.08861968900004
              ],
              [
                -121.39228261899996,
                47.08888169000005
              ],
              [
                -121.38195761699996,
                47.08813869100004
              ],
              [
                -121.37997561699996,
                47.08725369100006
              ]
            ]
          ],
          [
            [
              [
                -122.52604386599995,
                47.35891258200007
              ],
              [
                -122.52814386299997,
                47.34554758100006
              ],
              [
                -122.51886485899996,
                47.33332558200004
              ],
              [
                -122.504927856,
                47.33068558300005
              ],
              [
                -122.49313785399994,
                47.330258584000035
              ],
              [
                -122.49125185499997,
                47.335177585000054
              ],
              [
                -122.46971685299997,
                47.344628588000035
              ],
              [
                -122.45750885099994,
                47.34257258900004
              ],
              [
                -122.45401285099996,
                47.34334258900003
              ],
              [
                -122.44841385199999,
                47.35499259100004
              ],
              [
                -122.43782385299994,
                47.36561159200005
              ],
              [
                -122.40178185099995,
                47.381330597000044
              ],
              [
                -122.37849684799994,
                47.385335600000076
              ],
              [
                -122.37364384799997,
                47.38872360100004
              ],
              [
                -122.39506885399999,
                47.39928259900006
              ],
              [
                -122.42734185999996,
                47.402134595000064
              ],
              [
                -122.437670863,
                47.40742959500005
              ],
              [
                -122.43994586599996,
                47.417012595000074
              ],
              [
                -122.43942987599996,
                47.45863859700006
              ],
              [
                -122.43340087599995,
                47.46643559800003
              ],
              [
                -122.46004188599994,
                47.48686559600003
              ],
              [
                -122.46045688699996,
                47.49376959700004
              ],
              [
                -122.45241388799997,
                47.50347659800008
              ],
              [
                -122.47469889399997,
                47.511073596000074
              ],
              [
                -122.482753888,
                47.48313859400008
              ],
              [
                -122.49787688899994,
                47.47592059200008
              ],
              [
                -122.51334288499999,
                47.44911158900004
              ],
              [
                -122.51471787699995,
                47.41405358700007
              ],
              [
                -122.52674787499996,
                47.39858658400004
              ],
              [
                -122.51781186699998,
                47.36868358400005
              ],
              [
                -122.52604386599995,
                47.35891258200007
              ]
            ]
          ]
        ]
      }
    }
  ]
}
