{
  "type": "FeatureCollection",
  "name": "Washington DC",
  "crs": {
    "type": "name",
    "properties": {
      "name": "urn:ogc:def:crs:OGC:1.3:CRS84"
    }
  },
  "features": [
    {
      "type": "Feature",
      "properties": {
        "requestedCity": "Washington DC",
        "sourceShapeName": "District of Columbia",
        "sourceShapeID": "52423323B55530972166869",
        "shapeName": "District of Columbia",
        "shapeISO": "",
        "shapeID": "52423323B55530972166869",
        "shapeGroup": "USA",
        "shapeType": "ADM2"
      },
      "geometry": {
        "type": "Polygon",
        "coordinates": [
          [
            [
              -77.11976132299998,
              38.93435079000005
            ],
            [
              -77.11790232199996,
              38.93241878900005
            ],
            [
              -77.11660232199995,
              38.92891878900008
            ],
            [
              -77.11340231999998,
              38.92521878800005
            ],
            [
              -77.10630231799996,
              38.91911878700006
            ],
            [
              -77.10340231699996,
              38.912918786000034
            ],
            [
              -77.10120231599996,
              38.91111878600003
            ],
            [
              -77.09370231299994,
              38.90591878500004
            ],
            [
              -77.09020231199997,
              38.90421878500007
            ],
            [
              -77.08220230899997,
              38.90191878500008
            ],
            [
              -77.07835862299999,
              38.90153762400007
            ],
            [
              -77.07010130499998,
              38.90071878500004
            ],
            [
              -77.06820130499995,
              38.899818785000036
            ],
            [
              -77.06730130399995,
              38.89921878500007
            ],
            [
              -77.06350130299995,
              38.88861878300003
            ],
            [
              -77.05825629999998,
              38.88007678100007
            ],
            [
              -77.05520129999996,
              38.880019781000044
            ],
            [
              -77.05410129899997,
              38.87911978100004
            ],
            [
              -77.05110129799994,
              38.875219780000066
            ],
            [
              -77.05130129799994,
              38.873219780000056
            ],
            [
              -77.04910129699994,
              38.87071978000006
            ],
            [
              -77.04630129599997,
              38.87131978000008
            ],
            [
              -77.04560129599997,
              38.87301978000005
            ],
            [
              -77.04660129699994,
              38.87491978000003
            ],
            [
              -77.04540129599997,
              38.875219781000055
            ],
            [
              -77.04345638799998,
              38.87410840500007
            ],
            [
              -77.04330129499994,
              38.874019780000026
            ],
            [
              -77.04060129399994,
              38.87121978000005
            ],
            [
              -77.03910129399998,
              38.86811977900004
            ],
            [
              -77.03890129399997,
              38.86581977900005
            ],
            [
              -77.03930129399998,
              38.86431977900003
            ],
            [
              -77.03189400899998,
              38.85087148300005
            ],
            [
              -77.03170028999995,
              38.850519776000056
            ],
            [
              -77.03280028999995,
              38.84171977400007
            ],
            [
              -77.04170129299996,
              38.84021977400005
            ],
            [
              -77.04420129399995,
              38.84021977400005
            ],
            [
              -77.04448990599997,
              38.83960647300006
            ],
            [
              -77.04500129399997,
              38.83851977300003
            ],
            [
              -77.04490129399994,
              38.83471977200003
            ],
            [
              -77.04350129299996,
              38.833219772000064
            ],
            [
              -77.04260129299996,
              38.83381977200003
            ],
            [
              -77.04120129199998,
              38.83371977200005
            ],
            [
              -77.03920129199997,
              38.83221977200003
            ],
            [
              -77.03810029099998,
              38.828619771000035
            ],
            [
              -77.03910029099995,
              38.82142077000003
            ],
            [
              -77.03810028999999,
              38.81562076900008
            ],
            [
              -77.03580028999994,
              38.814920769000025
            ],
            [
              -77.03890028999996,
              38.80082076600007
            ],
            [
              -77.03900828899998,
              38.79165276400005
            ],
            [
              -77.024425937,
              38.80323365400005
            ],
            [
              -77.00139927899994,
              38.82152077100005
            ],
            [
              -76.99999927899995,
              38.821920772000055
            ],
            [
              -76.99269927699999,
              38.828220773000055
            ],
            [
              -76.97949927299999,
              38.83781977500007
            ],
            [
              -76.96194375499994,
              38.85190447100007
            ],
            [
              -76.95814237099995,
              38.85495430100008
            ],
            [
              -76.95369826699994,
              38.85851978100004
            ],
            [
              -76.94969826599998,
              38.86131978100008
            ],
            [
              -76.92019725799997,
              38.88441978700007
            ],
            [
              -76.91929725699998,
              38.885119787000065
            ],
            [
              -76.91079725499998,
              38.891719789000035
            ],
            [
              -76.90939525499994,
              38.892859789000056
            ],
            [
              -76.92755119799995,
              38.90731150200003
            ],
            [
              -76.93509826399998,
              38.91331879200004
            ],
            [
              -76.94192333499996,
              38.91859429300007
            ],
            [
              -76.99189480499996,
              38.95722019600004
            ],
            [
              -77.00250028799996,
              38.96541780000007
            ],
            [
              -77.00259150899996,
              38.965491720000045
            ],
            [
              -77.00830028999997,
              38.97011780100007
            ],
            [
              -77.01380029199998,
              38.97441780200006
            ],
            [
              -77.01560029299998,
              38.975917802000026
            ],
            [
              -77.03630129999993,
              38.991717804000075
            ],
            [
              -77.04102030199994,
              38.99555580500004
            ],
            [
              -77.04252054999995,
              38.99437670800006
            ],
            [
              -77.05430130599996,
              38.98511780200005
            ],
            [
              -77.07164329399995,
              38.97178534200003
            ],
            [
              -77.08578243599999,
              38.96091521900007
            ],
            [
              -77.09150231499996,
              38.956517795000025
            ],
            [
              -77.10070231799995,
              38.94891779300008
            ],
            [
              -77.10450231899995,
              38.94641779300008
            ],
            [
              -77.11976132299998,
              38.93435079000005
            ]
          ]
        ]
      }
    }
  ]
}
